[{"name":"Château Cordeillan-Bages","postalCode":"33250","chef":"Julien Lefebvre","url":"https://restaurant.michelin.fr//2chq5p0/chateau-cordeillan-bages-pauillac"},{"name":"Pierre","postalCode":"71000","chef":"Christian Gaulin","url":"https://restaurant.michelin.fr//29uvz3j/pierre-macon"},{"name":"Restaurant Christian Étienne","postalCode":"84000","chef":"Guilhem Sevin","url":"https://restaurant.michelin.fr//28s2o1u/restaurant-christian-etienne-avignon"},{"name":"L'Essentiel","postalCode":"14800","chef":"Mi-Ra et Charles Thuillant","url":"https://restaurant.michelin.fr//40jnqvq/lessentiel-deauville"},{"name":"La Chèvre d'Or","postalCode":"06360","chef":"Arnaud Faye, Chef Exécutif et Julien Dugourd, Chef Pâtissier","url":"https://restaurant.michelin.fr//2bwkh5l/la-chevre-dor-eze"},{"name":"Les Terraillers","postalCode":"06410","chef":"Michaël Fulci","url":"https://restaurant.michelin.fr//28x308q/les-terraillers-biot"},{"name":"La Table Breizh Café","postalCode":"35260","chef":"Fumio KUDAKA","url":"https://restaurant.michelin.fr//2f8ln9w/la-table-breizh-cafe-cancale"},{"name":"Antoine","postalCode":"75116","chef":"Thibault Sombardier","url":"https://restaurant.michelin.fr//2euo0rk/antoine-paris-16"},{"name":"L'Atelier du Peintre","postalCode":"68000","chef":"Loïc Lefebvre","url":"https://restaurant.michelin.fr//2ewn3lj/latelier-du-peintre-colmar"},{"name":"La Gouesnière","postalCode":"35350","chef":"Jonathan Bigaré","url":"https://restaurant.michelin.fr//2byuiv7/la-gouesniere-saint-meloir-des-ondes"},{"name":"Le Bec au Cauchois","postalCode":"76540","chef":"Pierre Caillet","url":"https://restaurant.michelin.fr//2b6gbtl/le-bec-au-cauchois-valmont"},{"name":"Nakatani","postalCode":"75007","chef":"Shinsuke Nakatani","url":"https://restaurant.michelin.fr//3x81832/nakatani-paris-07"},{"name":"Alan Geaam","postalCode":"75016","chef":"Alan Geaam","url":"https://restaurant.michelin.fr//3045466/alan-geaam-paris-16"},{"name":"Le Clair de la Plume","postalCode":"26230","chef":"Julien Allano","url":"https://restaurant.michelin.fr//2faahd5/le-clair-de-la-plume-grignan"},{"name":"La Cachette","postalCode":"26000","chef":"Masashi Ijichi","url":"https://restaurant.michelin.fr//2dyaa0w/la-cachette-valence"},{"name":"Lalique","postalCode":"33210","chef":"Jérôme Schilling","url":"https://restaurant.michelin.fr//3803186/lalique-bommes"},{"name":"Meurin","postalCode":"62350","chef":"Marc Meurin","url":"https://restaurant.michelin.fr//2dyfstx/meurin-busnes"},{"name":"Le Cap","postalCode":"06230","chef":"Yoric Tièche","url":"https://restaurant.michelin.fr//2cqc8op/le-cap-saint-jean-cap-ferrat"},{"name":"Le Sénéchal","postalCode":"12800","chef":"Michel Truchon","url":"https://restaurant.michelin.fr//2cv1ygx/le-senechal-sauveterre-de-rouergue"},{"name":"L'Olivier","postalCode":"83990","chef":"Phillipe Colinet","url":"https://restaurant.michelin.fr//2css2bw/lolivier-saint-tropez"},{"name":"Le Pré Catelan","postalCode":"75016","chef":"","url":"https://restaurant.michelin.fr//2af46v7/le-pre-catelan-paris-16"},{"name":"Les Trois Dômes","postalCode":"69002","chef":"Christian Lherm","url":"https://restaurant.michelin.fr//29svngf/les-trois-domes-lyon-02"},{"name":"Le Gourmet de Sèze","postalCode":"69006","chef":"Bernard Mariller","url":"https://restaurant.michelin.fr//29trkin/le-gourmet-de-seze-lyon-06"},{"name":"Les Loges","postalCode":"69005","chef":"Anthony Bonnet","url":"https://restaurant.michelin.fr//29t3z0x/les-loges-lyon-05"},{"name":"Le Prieuré","postalCode":"30400","chef":"Marc Fontanne","url":"https://restaurant.michelin.fr//2d2wqpd/le-prieure-villeneuve-les-avignon"},{"name":"Le Candille","postalCode":"06250","chef":"Xavier Burelle","url":"https://restaurant.michelin.fr//2a1fgdk/le-candille-mougins"},{"name":"Le Cénacle","postalCode":"31000","chef":"Thomas Vonderscher","url":"https://restaurant.michelin.fr//ua83vloo/le-cenacle-toulouse"},{"name":"Stéphane Tournié - Les Jardins de l'Opéra","postalCode":"31000","chef":"Stéphane Tournié","url":"https://restaurant.michelin.fr//2b3631b/stephane-tournie-les-jardins-de-lopera-toulouse"},{"name":"Lasserre","postalCode":"75008","chef":"Nicolas le Tirrand","url":"https://restaurant.michelin.fr//2abcqvg/lasserre-paris-08"},{"name":"Hostellerie de Plaisance","postalCode":"33330","chef":"Ronan Kervarrec","url":"https://restaurant.michelin.fr//2cp6y7n/hostellerie-de-plaisance-saint-emilion"},{"name":"L'Orangerie","postalCode":"75008","chef":"Alan Taudon","url":"https://restaurant.michelin.fr//2851286/lorangerie-paris-08"},{"name":"114, Faubourg","postalCode":"75008","chef":"Loïc Dantec","url":"https://restaurant.michelin.fr//2f3fs2n/114-faubourg-paris-08"},{"name":"Copenhague","postalCode":"75008","chef":"Andreas Møller","url":"https://restaurant.michelin.fr//2916876/copenhague-paris-08"},{"name":"Yoshinori","postalCode":"75006","chef":"Yoshinori Morié","url":"https://restaurant.michelin.fr//3361741/yoshinori-paris-06"},{"name":"Alexandre","postalCode":"30128","chef":"Michel Kayser","url":"https://restaurant.michelin.fr//2a57m2j/alexandre-garons"},{"name":"Divellec","postalCode":"75007","chef":"Mathieu Pacaud","url":"https://restaurant.michelin.fr//2852181/divellec-paris-07"},{"name":"Jin","postalCode":"75001","chef":"Takuya Watanabe","url":"https://restaurant.michelin.fr//1t2b08px/jin-paris-01"},{"name":"La Lorraine","postalCode":"57330","chef":"Lucien Keff","url":"https://restaurant.michelin.fr//2bavyqh/la-lorraine-zoufftgen"},{"name":"Auberge du Pont d'Acigné","postalCode":"35530","chef":"Sylvain Guillemot","url":"https://restaurant.michelin.fr//2ao77e3/auberge-du-pont-dacigne-noyal-sur-vilaine"},{"name":"Le Saint-Martin","postalCode":"06140","chef":"Jean-Luc Lefrançois","url":"https://restaurant.michelin.fr//2d1gnwo/le-saint-martin-vence"},{"name":"La Table de l'Alpaga","postalCode":"74120","chef":"Anthony Bisquerra","url":"https://restaurant.michelin.fr//9tlmhvt/la-table-de-lalpaga-megeve"},{"name":"La Table du Gourmet","postalCode":"68340","chef":"Jean-Luc Brendel","url":"https://restaurant.michelin.fr//2aosxv6/la-table-du-gourmet-riquewihr"},{"name":"Skab","postalCode":"30000","chef":"Damien Sanchez","url":"https://restaurant.michelin.fr//olnthqo/skab-nimes"},{"name":"1912","postalCode":"14360","chef":"Johan Thyriot","url":"https://restaurant.michelin.fr//cns0apa3/1912-trouville-sur-mer"},{"name":"Le P'tit Polyte","postalCode":"38860","chef":"Mathew Hegarty","url":"https://restaurant.michelin.fr//2bufvvg87/le-ptit-polyte-venosc"},{"name":"Cicada, Table du Hameau","postalCode":"13520","chef":"Stéphan Paroche","url":"https://restaurant.michelin.fr//xb2s4av1/cicada-table-du-hameau-paradou"},{"name":"La Table de l'Ours","postalCode":"73150","chef":"Antoine Gras","url":"https://restaurant.michelin.fr//2dpd99z/la-table-de-lours-val-disere"},{"name":"Le Grand Bleu","postalCode":"24200","chef":"Maxime Lebrun","url":"https://restaurant.michelin.fr//2d6bc3s/le-grand-bleu-sarlat-la-caneda"},{"name":"La Bastide St-Antoine","postalCode":"06130","chef":"Jacques Chibois","url":"https://restaurant.michelin.fr//29ktfvn/la-bastide-st-antoine-grasse"},{"name":"La Marine","postalCode":"85330","chef":"Alexandre Couillon","url":"https://restaurant.michelin.fr//29n79hz/la-marine-lherbaudiere"},{"name":"Louis","postalCode":"75009","chef":"Stéphane Pitré","url":"https://restaurant.michelin.fr//cmfchcva/louis-paris-09"},{"name":"Apicius","postalCode":"75008","chef":"","url":"https://restaurant.michelin.fr//2affgmi/apicius-paris-08"},{"name":"U Santa Marina","postalCode":"20137","chef":"LE Cheviller Nikolaz","url":"https://restaurant.michelin.fr//2e7dmcj/u-santa-marina-porto-vecchio"},{"name":"Fontevraud Le Restaurant","postalCode":"49590","chef":"Thibaut  Ruggeri","url":"https://restaurant.michelin.fr//9pbvgq6a/fontevraud-le-restaurant-fontevraud-labbaye"},{"name":"Greuze","postalCode":"71700","chef":"Yohann Chapuis","url":"https://restaurant.michelin.fr//3uonmfw/greuze-tournus"},{"name":"Il Carpaccio","postalCode":"75008","chef":"Michele Fortunato ","url":"https://restaurant.michelin.fr//2fdi6av208/il-carpaccio-paris-08"},{"name":"Le Meurice Alain Ducasse","postalCode":"75001","chef":"Jocelyn Herland","url":"https://restaurant.michelin.fr//2a7d9c1/le-meurice-alain-ducasse-paris-01"},{"name":"Le Grand Cerf","postalCode":"51500","chef":"Dominique Giraudeau et Pascal Champion","url":"https://restaurant.michelin.fr//2anw751/le-grand-cerf-montchenot"},{"name":"Cyril Attrazic","postalCode":"48130","chef":"Cyril Attrazic","url":"https://restaurant.michelin.fr//28rd58x/cyril-attrazic-aumont-aubrac"},{"name":"La Madeleine","postalCode":"89100","chef":"Patrick Gauthier","url":"https://restaurant.michelin.fr//2azofoh/la-madeleine-sens"},{"name":"Pont de l'Ouysse","postalCode":"46200","chef":"Daniel et Stéphane Chambon","url":"https://restaurant.michelin.fr//29p8ja1/pont-de-louysse-lacave"},{"name":"Les Hautes Roches","postalCode":"37210","chef":"Didier Edon","url":"https://restaurant.michelin.fr//2cyg6yb/les-hautes-roches-rochecorbon"},{"name":"Le Taillevent","postalCode":"75008","chef":"David  Bizet","url":"https://restaurant.michelin.fr//2ab9sgk/le-taillevent-paris-08"},{"name":"Le Jardin de Benjamin","postalCode":"83510","chef":"Benjamin Collombat","url":"https://restaurant.michelin.fr//xhr5bt96/le-jardin-de-benjamin-lorgues"},{"name":"Auberge Tiegezh","postalCode":"56380","chef":"Baptiste Denieul","url":"https://restaurant.michelin.fr//34milgg2/auberge-tiegezh-guer"},{"name":"Le Jasmin","postalCode":"47140","chef":"Xavier Lesueur","url":"https://restaurant.michelin.fr//u6v6rb42/le-jasmin-saint-sylvestre-sur-lot"},{"name":"Chapelle Saint-Martin","postalCode":"87510","chef":"Gilles Dudognon","url":"https://restaurant.michelin.fr//2c4rgah/chapelle-saint-martin-nieul"},{"name":"Le Gabriel","postalCode":"75008","chef":"Jérôme Banctel","url":"https://restaurant.michelin.fr//9sqrw32m/le-gabriel-paris-08"},{"name":"Nomicos","postalCode":"75016","chef":"Jean-Louis Nomicos","url":"https://restaurant.michelin.fr//2fdwgd3/nomicos-paris-16"},{"name":"L'Ambroisie","postalCode":"75004","chef":"Bernard Pacaud","url":"https://restaurant.michelin.fr//2a8d13e/lambroisie-paris-04"},{"name":"Villa René Lalique","postalCode":"67290","chef":"Jean-Georges Klein et  Paul Stradner","url":"https://restaurant.michelin.fr//t645yf86/villa-rene-lalique-wingen-sur-moder"},{"name":"Virtus","postalCode":"75012","chef":"Chiho Kanzaki","url":"https://restaurant.michelin.fr//3ez7apxd/virtus-paris-12"},{"name":"Miraflores","postalCode":"69006","chef":"Carlos Camino","url":"https://restaurant.michelin.fr//2jcivvu3/miraflores-lyon-06"},{"name":"Les Clefs d'Argent","postalCode":"40000","chef":"Christophe Dupouy","url":"https://restaurant.michelin.fr//2e0bvx8/les-clefs-dargent-mont-de-marsan"},{"name":"La Balette","postalCode":"66190","chef":"Frédéric Bacquié","url":"https://restaurant.michelin.fr//2dlsvt0/la-balette-collioure"},{"name":"Prairial","postalCode":"69001","chef":"Gaëtan Gentil","url":"https://restaurant.michelin.fr//cpiyfjc0/prairial-lyon"},{"name":"L'Atelier Yssoirien","postalCode":"63500","chef":"Dorian Van Bronkhorst","url":"https://restaurant.michelin.fr//akc6ovv/latelier-yssoirien-issoire"},{"name":"La Table de Nans","postalCode":"13600","chef":"Nans Gaillard","url":"https://restaurant.michelin.fr//akfvyg8/la-table-de-nans-la-ciotat"},{"name":"La Grange de Belle-Église","postalCode":"60540","chef":"Marc Duval","url":"https://restaurant.michelin.fr//28vem1k/la-grange-de-belle-eglise-belle-eglise"},{"name":"La Promenade","postalCode":"31590","chef":"Nicolas Thomas","url":"https://restaurant.michelin.fr//n3jledr/la-promenade-verfeil"},{"name":"Takao Takano","postalCode":"69006","chef":"Takao Takano","url":"https://restaurant.michelin.fr//1fchzdq5/takao-takano-lyon-06"},{"name":"La Table d'Uzès","postalCode":"30700","chef":"Christophe  Ducros","url":"https://restaurant.michelin.fr//1ss80t3t/la-table-duzes-uzes"},{"name":"Buerehiesel","postalCode":"67000","chef":"Eric Westermann","url":"https://restaurant.michelin.fr//2b0sgrs/buerehiesel-strasbourg"},{"name":"Le Vivier","postalCode":"84800","chef":"Romain Gandolphe","url":"https://restaurant.michelin.fr//29nsjme/le-vivier-lisle-sur-la-sorgue"},{"name":"Auberge au Bœuf","postalCode":"67770","chef":"Yannick Germain","url":"https://restaurant.michelin.fr//2b00ufd/auberge-au-boeuf-sessenheim"},{"name":"Maximilien","postalCode":"68340","chef":"Jean-Michel Eblin","url":"https://restaurant.michelin.fr//2aoyre2/maximilien-zellenberg"},{"name":"Auberge de la Brie","postalCode":"77860","chef":"Alain Pavard","url":"https://restaurant.michelin.fr//29ask7o/auberge-de-la-brie-couilly-pont-aux-dames"},{"name":"Le Lido","postalCode":"20110","chef":"Romuald ROYER","url":"https://restaurant.michelin.fr//29ajku0/le-lido-propriano"},{"name":"Le Musigny","postalCode":"59300","chef":"Emmanuel Hernandez","url":"https://restaurant.michelin.fr//3yjthyc/le-musigny-valenciennes"},{"name":"Quai des Saveurs","postalCode":"57300","chef":"Frédéric Sandrini","url":"https://restaurant.michelin.fr//2e9sbx2/quai-des-saveurs-hagondange"},{"name":"Jin","postalCode":"75001","chef":"Takuya Watanabe","url":"https://restaurant.michelin.fr//1t2b08px/jin-paris-01"},{"name":"La Lorraine","postalCode":"57330","chef":"Lucien Keff","url":"https://restaurant.michelin.fr//2bavyqh/la-lorraine-zoufftgen"},{"name":"Auberge du Pont d'Acigné","postalCode":"35530","chef":"Sylvain Guillemot","url":"https://restaurant.michelin.fr//2ao77e3/auberge-du-pont-dacigne-noyal-sur-vilaine"},{"name":"Le Saint-Martin","postalCode":"06140","chef":"Jean-Luc Lefrançois","url":"https://restaurant.michelin.fr//2d1gnwo/le-saint-martin-vence"},{"name":"La Table de l'Alpaga","postalCode":"74120","chef":"Anthony Bisquerra","url":"https://restaurant.michelin.fr//9tlmhvt/la-table-de-lalpaga-megeve"},{"name":"La Table du Gourmet","postalCode":"68340","chef":"Jean-Luc Brendel","url":"https://restaurant.michelin.fr//2aosxv6/la-table-du-gourmet-riquewihr"},{"name":"Skab","postalCode":"30000","chef":"Damien Sanchez","url":"https://restaurant.michelin.fr//olnthqo/skab-nimes"},{"name":"1912","postalCode":"14360","chef":"Johan Thyriot","url":"https://restaurant.michelin.fr//cns0apa3/1912-trouville-sur-mer"},{"name":"Le P'tit Polyte","postalCode":"38860","chef":"Mathew Hegarty","url":"https://restaurant.michelin.fr//2bufvvg87/le-ptit-polyte-venosc"},{"name":"Cicada, Table du Hameau","postalCode":"13520","chef":"Stéphan Paroche","url":"https://restaurant.michelin.fr//xb2s4av1/cicada-table-du-hameau-paradou"},{"name":"La Table de l'Ours","postalCode":"73150","chef":"Antoine Gras","url":"https://restaurant.michelin.fr//2dpd99z/la-table-de-lours-val-disere"},{"name":"Le Grand Bleu","postalCode":"24200","chef":"Maxime Lebrun","url":"https://restaurant.michelin.fr//2d6bc3s/le-grand-bleu-sarlat-la-caneda"},{"name":"La Bastide St-Antoine","postalCode":"06130","chef":"Jacques Chibois","url":"https://restaurant.michelin.fr//29ktfvn/la-bastide-st-antoine-grasse"},{"name":"La Marine","postalCode":"85330","chef":"Alexandre Couillon","url":"https://restaurant.michelin.fr//29n79hz/la-marine-lherbaudiere"},{"name":"Louis","postalCode":"75009","chef":"Stéphane Pitré","url":"https://restaurant.michelin.fr//cmfchcva/louis-paris-09"},{"name":"Apicius","postalCode":"75008","chef":"","url":"https://restaurant.michelin.fr//2affgmi/apicius-paris-08"},{"name":"U Santa Marina","postalCode":"20137","chef":"LE Cheviller Nikolaz","url":"https://restaurant.michelin.fr//2e7dmcj/u-santa-marina-porto-vecchio"},{"name":"Fontevraud Le Restaurant","postalCode":"49590","chef":"Thibaut  Ruggeri","url":"https://restaurant.michelin.fr//9pbvgq6a/fontevraud-le-restaurant-fontevraud-labbaye"},{"name":"Abri","postalCode":"75010","chef":"Katsuaki Okiyama","url":"https://restaurant.michelin.fr//mfh3jse/abri-paris-10"},{"name":"Table - Bruno Verjus","postalCode":"75012","chef":"","url":"https://restaurant.michelin.fr//3ffvej5j/table-bruno-verjus-paris-12"},{"name":"Auberge Le Prieuré","postalCode":"47310","chef":"Benjamin Toursel","url":"https://restaurant.michelin.fr//2dl7htu/auberge-le-prieure-moirax"},{"name":"Haut Bonheur de la Table","postalCode":"59670","chef":"Eugène Hobraiche","url":"https://restaurant.michelin.fr//6274yuk/haut-bonheur-de-la-table-cassel"},{"name":"L'Éveil des Sens","postalCode":"53100","chef":"Nicolas Nobis","url":"https://restaurant.michelin.fr//2f77d7t/leveil-des-sens-mayenne"},{"name":"Le Moulin des Quatre Saisons","postalCode":"72200","chef":"Camille Constantin","url":"https://restaurant.michelin.fr//29hrl09/le-moulin-des-quatre-saisons-la-fleche"},{"name":"ES","postalCode":"75007","chef":"Takayuki Honjo","url":"https://restaurant.michelin.fr//27ym5i25/es-paris-07"},{"name":"Val d'Auge","postalCode":"59910","chef":"Christophe Hagnerelle","url":"https://restaurant.michelin.fr//29rcoot/val-dauge-bondues"},{"name":"Au 14 Février","postalCode":"71570","chef":"Masafumi Hamano","url":"https://restaurant.michelin.fr//3ffziwd6/au-14-fevrier-platre-durand"},{"name":"L'Alchémille","postalCode":"68240","chef":"Jérôme Jaegle","url":"https://restaurant.michelin.fr//ua3c2rxf/lalchemille-kaysersberg-vignoble"},{"name":"Le Sérac","postalCode":"74170","chef":"Raphaël Le Mancq","url":"https://restaurant.michelin.fr//2di661r/le-serac-saint-gervais-les-bains"},{"name":"L'Orée de la Forêt","postalCode":"60600","chef":"Nicolas Leclercq","url":"https://restaurant.michelin.fr//297c2t4/loree-de-la-foret-etouy"},{"name":"Yam'Tcha","postalCode":"75001","chef":"Adeline Grattard","url":"https://restaurant.michelin.fr//2ewldde/yamtcha-paris-01"},{"name":"La Bonne Auberge","postalCode":"57350","chef":"Lydia Egloff","url":"https://restaurant.michelin.fr//29ifnwu/la-bonne-auberge-stiring-wendel"},{"name":"Les Pyrénées","postalCode":"64220","chef":"Philippe Arrambide","url":"https://restaurant.michelin.fr//2cqrobi/les-pyrenees-saint-jean-pied-de-port"},{"name":"Saturne","postalCode":"75002","chef":"Sven Chartier","url":"https://restaurant.michelin.fr//2fe4uol/saturne-paris-02"},{"name":"Ambroisie","postalCode":"38110","chef":"André Taormina","url":"https://restaurant.michelin.fr//2b416ek/ambroisie-saint-didier-de-la-tour"},{"name":"Château de la Treyne","postalCode":"46200","chef":"Stéphane Andrieux","url":"https://restaurant.michelin.fr//2c38ubh/chateau-de-la-treyne-lacave"},{"name":"Auberge du Vieux Puits","postalCode":"11360","chef":"Gilles Goujon","url":"https://restaurant.michelin.fr//29ib1yg/auberge-du-vieux-puits-fontjoncouse"},{"name":"Sur Mesure par Thierry Marx","postalCode":"75001","chef":"Thierry Marx","url":"https://restaurant.michelin.fr//6f226za/sur-mesure-par-thierry-marx-paris-01"},{"name":"Le Carmin","postalCode":"21200","chef":"Christophe Quéant","url":"https://restaurant.michelin.fr//8zb6c2d4/le-carmin-beaune"},{"name":"Le Moulin de la Gorce","postalCode":"87800","chef":"Pierre Bertranet","url":"https://restaurant.michelin.fr//2awwemv/le-moulin-de-la-gorce-la-roche-labeille"},{"name":"Maximin Hellio","postalCode":"14800","chef":"Maximin Hellio","url":"https://restaurant.michelin.fr//u945qtuv/maximin-hellio-deauville"},{"name":"Stéphane Derbord","postalCode":"21000","chef":"Stéphane Derbord","url":"https://restaurant.michelin.fr//29dkmez/stephane-derbord-dijon"},{"name":"Ô Flaveurs","postalCode":"74140","chef":"Jérôme Mamet","url":"https://restaurant.michelin.fr//2dr6qsw/o-flaveurs-douvaine"},{"name":"Le Cloître","postalCode":"04300","chef":"Jérôme Roy","url":"https://restaurant.michelin.fr//2ep5ghq/le-cloitre-mane"},{"name":"Le Coquillage","postalCode":"35350","chef":"Hugo Roellinger","url":"https://restaurant.michelin.fr//291q1xd/le-coquillage-saint-meloir-des-ondes"},{"name":"Loiseau rive Gauche","postalCode":"75007","chef":"Maxime Laurenson","url":"https://restaurant.michelin.fr//2aaahmg/loiseau-rive-gauche-paris-07"},{"name":"Le Bénaton","postalCode":"21200","chef":"Keishi Sugimura","url":"https://restaurant.michelin.fr//28u9h7z/le-benaton-beaune"},{"name":"Ivan Vautier","postalCode":"14000","chef":"Ivan Vautier","url":"https://restaurant.michelin.fr//290z3mh/ivan-vautier-caen"},{"name":"L'Auberge de la Pomme","postalCode":"27340","chef":"William Boquelet","url":"https://restaurant.michelin.fr//2al6a9i/lauberge-de-la-pomme-les-damps"},{"name":"La Table de Patrick Raingeard","postalCode":"06360","chef":"Patrick  Raingeard","url":"https://restaurant.michelin.fr//2e2m5rq/la-table-de-patrick-raingeard-eze-bord-de-mer"},{"name":"Loiseau des Vignes","postalCode":"21200","chef":"Mourad Haddouche","url":"https://restaurant.michelin.fr//2ef8rpt/loiseau-des-vignes-beaune"},{"name":"Assa","postalCode":"41000","chef":"Fumiko et Anthony Maubert","url":"https://restaurant.michelin.fr//3m0pjn8/assa-blois"},{"name":"Pierre Gagnaire","postalCode":"75008","chef":"Pierre GAGNAIRE","url":"https://restaurant.michelin.fr//2abhfav/pierre-gagnaire-paris-08"},{"name":"La Table de Philippe Girardon","postalCode":"38121","chef":"Philippe Girardon","url":"https://restaurant.michelin.fr//2b8j4np/la-table-de-philippe-girardon-chonas-lamballan"},{"name":"La Rotonde","postalCode":"69890","chef":"Jean-François Malle","url":"https://restaurant.michelin.fr//29uqy46/la-rotonde-la-tour-de-salvagny"},{"name":"La Grand'Vigne","postalCode":"33650","chef":"Nicolas Masse","url":"https://restaurant.michelin.fr//28yhuxy/la-grandvigne-martillac"},{"name":"Le Quinzième - Cyril Lignac","postalCode":"75015","chef":"Cyril Lignac","url":"https://restaurant.michelin.fr//2dtfbbi/le-quinzieme-cyril-lignac-paris-15"},{"name":"Château de Sully","postalCode":"14400","chef":"Nicolas Fages","url":"https://restaurant.michelin.fr//2bgynqb/chateau-de-sully-sully"},{"name":"Maison Kieny","postalCode":"68400","chef":"Jean-Marc KIENY","url":"https://restaurant.michelin.fr//2a22p1u/maison-kieny-riedisheim"},{"name":"Hostellerie de l'Abbaye de la Celle","postalCode":"83170","chef":"Nicolas Pierantoni","url":"https://restaurant.michelin.fr//2bn8o1t/hostellerie-de-labbaye-de-la-celle-la-celle"},{"name":"Domaine des Séquoias","postalCode":"38300","chef":"Eric Jambon","url":"https://restaurant.michelin.fr//28zo6i3/domaine-des-sequoias-ruy"},{"name":"Helen","postalCode":"75008","chef":"Sébastien Carmona Porto","url":"https://restaurant.michelin.fr//3o59i9b/helen-paris-08"},{"name":"L'Amaryllis","postalCode":"71100","chef":"Cédric Burtin","url":"https://restaurant.michelin.fr//294rtmv/lamaryllis-saint-remy"},{"name":"Le Jardin des Plumes","postalCode":"27620","chef":"David Gallienne","url":"https://restaurant.michelin.fr//omm63qr/le-jardin-des-plumes-giverny"},{"name":"La Table de Castigno","postalCode":"34360","chef":"Ruben & Pieter de Maesschalck","url":"https://restaurant.michelin.fr//xh15qqss/la-table-de-castigno-assignan"},{"name":"L'Almandin","postalCode":"66750","chef":"Christophe Schmitt","url":"https://restaurant.michelin.fr//2as8r3a/lalmandin-saint-cyprien-plage"},{"name":"L'Auberge Basque","postalCode":"64310","chef":"Cédric Béchade","url":"https://restaurant.michelin.fr//2efx4u4/lauberge-basque-saint-pee-sur-nivelle"},{"name":"Le St-Placide","postalCode":"35400","chef":"Luc Mobihan","url":"https://restaurant.michelin.fr//2av98t5/le-st-placide-saint-malo"},{"name":"Château de Pray","postalCode":"37400","chef":"Arnaud Philippon","url":"https://restaurant.michelin.fr//2bcbfo0/chateau-de-pray-charge"},{"name":"La Table des Merville","postalCode":"31320","chef":"Thierry Merville","url":"https://restaurant.michelin.fr//2b3ktxc/la-table-des-merville-castanet-tolosan"},{"name":"Le Chantecler","postalCode":"06000","chef":"Virginie Basselot","url":"https://restaurant.michelin.fr//2a4echf50/le-chantecler-nice"},{"name":"Pic","postalCode":"26000","chef":"Anne-Sophie Pic","url":"https://restaurant.michelin.fr//2d0hddd/pic-valence"},{"name":"Shang Palace","postalCode":"75016","chef":"Samuel Lee","url":"https://restaurant.michelin.fr//2fcezsf205/shang-palace-paris-16"},{"name":"Château de Vault de Lugny","postalCode":"89200","chef":"Le chef Franco Bowanee et Karina Laval, chef pâtissière.","url":"https://restaurant.michelin.fr//2bezvvp/chateau-de-vault-de-lugny-vault-de-lugny"},{"name":"Le Haut-Allier","postalCode":"43580","chef":"Philippe Brun","url":"https://restaurant.michelin.fr//2bc2prd/le-haut-allier-le-pont-dalleyras"},{"name":"Auguste","postalCode":"75007","chef":"Gaël Orieux","url":"https://restaurant.michelin.fr//2dof8zp/auguste-paris-07"},{"name":"Jérôme Brochot","postalCode":"71300","chef":"Jérôme Brochot","url":"https://restaurant.michelin.fr//29zgkr3/jerome-brochot-montceau-les-mines"},{"name":"La Scène Thélème","postalCode":"75017","chef":"Julien Rocheteau","url":"https://restaurant.michelin.fr//ygx47dyb/la-scene-theleme-paris-17"},{"name":"Hostellerie Jérôme","postalCode":"06320","chef":"Bruno Cirino","url":"https://restaurant.michelin.fr//2b5e0ez/hostellerie-jerome-la-turbie"},{"name":"Les Explorateurs","postalCode":"73440","chef":"Josselin Jeanblanc","url":"https://restaurant.michelin.fr//ui89zrwk/les-explorateurs-val-thorens"},{"name":"La Tour d'Argent","postalCode":"75005","chef":"Philippe LABBÉ","url":"https://restaurant.michelin.fr//2a8xf2a/la-tour-dargent-paris-05"},{"name":"Auberge de l'Île Barbe","postalCode":"69009","chef":"Jean-Christophe Ansanay-Alex","url":"https://restaurant.michelin.fr//29tj1pj/auberge-de-lile-barbe-lyon-09"},{"name":"L'Arôme","postalCode":"75008","chef":"Thomas Boullault","url":"https://restaurant.michelin.fr//2e8vcj7/larome-paris-08"},{"name":"La Côte Saint-Jacques","postalCode":"89300","chef":"Jean-Michel Lorain","url":"https://restaurant.michelin.fr//2c2ma30/la-cote-saint-jacques-joigny"},{"name":"Thierry Schwartz - Le Restaurant","postalCode":"67210","chef":"Thierry Schwartz","url":"https://restaurant.michelin.fr//2a619xs/thierry-schwartz-le-restaurant-obernai"},{"name":"Troisgros - Le Bois sans Feuilles","postalCode":"42155","chef":"Michel et César Troisgros","url":"https://restaurant.michelin.fr//2cm53gy/troisgros-le-bois-sans-feuilles-ouches"},{"name":"Le Moulin de l'Abbaye","postalCode":"24310","chef":"Jean-Michel Bardet","url":"https://restaurant.michelin.fr//2bk4rlv/le-moulin-de-labbaye-brantome-en-perigord"},{"name":"William Frachot","postalCode":"21000","chef":"William Frachot","url":"https://restaurant.michelin.fr//2buprmi/william-frachot-dijon"},{"name":"Régis et Jacques Marcon","postalCode":"43290","chef":"Régis et  Jacques Marcon","url":"https://restaurant.michelin.fr//2dntkxh/regis-et-jacques-marcon-saint-bonnet-le-froid"},{"name":"Auberge de la Tour","postalCode":"15220","chef":"Renaud Darmanin","url":"https://restaurant.michelin.fr//aewyhv0/auberge-de-la-tour-marcoles"},{"name":"Greuze","postalCode":"71700","chef":"Yohann Chapuis","url":"https://restaurant.michelin.fr//3uonmfw/greuze-tournus"},{"name":"Il Carpaccio","postalCode":"75008","chef":"Michele Fortunato ","url":"https://restaurant.michelin.fr//2fdi6av208/il-carpaccio-paris-08"},{"name":"Le Meurice Alain Ducasse","postalCode":"75001","chef":"Jocelyn Herland","url":"https://restaurant.michelin.fr//2a7d9c1/le-meurice-alain-ducasse-paris-01"},{"name":"Le Grand Cerf","postalCode":"51500","chef":"Dominique Giraudeau et Pascal Champion","url":"https://restaurant.michelin.fr//2anw751/le-grand-cerf-montchenot"},{"name":"Cyril Attrazic","postalCode":"48130","chef":"Cyril Attrazic","url":"https://restaurant.michelin.fr//28rd58x/cyril-attrazic-aumont-aubrac"},{"name":"La Madeleine","postalCode":"89100","chef":"Patrick Gauthier","url":"https://restaurant.michelin.fr//2azofoh/la-madeleine-sens"},{"name":"Pont de l'Ouysse","postalCode":"46200","chef":"Daniel et Stéphane Chambon","url":"https://restaurant.michelin.fr//29p8ja1/pont-de-louysse-lacave"},{"name":"Les Hautes Roches","postalCode":"37210","chef":"Didier Edon","url":"https://restaurant.michelin.fr//2cyg6yb/les-hautes-roches-rochecorbon"},{"name":"Le Taillevent","postalCode":"75008","chef":"David  Bizet","url":"https://restaurant.michelin.fr//2ab9sgk/le-taillevent-paris-08"},{"name":"Le Jardin de Benjamin","postalCode":"83510","chef":"Benjamin Collombat","url":"https://restaurant.michelin.fr//xhr5bt96/le-jardin-de-benjamin-lorgues"},{"name":"Auberge Tiegezh","postalCode":"56380","chef":"Baptiste Denieul","url":"https://restaurant.michelin.fr//34milgg2/auberge-tiegezh-guer"},{"name":"Le Jasmin","postalCode":"47140","chef":"Xavier Lesueur","url":"https://restaurant.michelin.fr//u6v6rb42/le-jasmin-saint-sylvestre-sur-lot"},{"name":"Chapelle Saint-Martin","postalCode":"87510","chef":"Gilles Dudognon","url":"https://restaurant.michelin.fr//2c4rgah/chapelle-saint-martin-nieul"},{"name":"Le Gabriel","postalCode":"75008","chef":"Jérôme Banctel","url":"https://restaurant.michelin.fr//9sqrw32m/le-gabriel-paris-08"},{"name":"Nomicos","postalCode":"75016","chef":"Jean-Louis Nomicos","url":"https://restaurant.michelin.fr//2fdwgd3/nomicos-paris-16"},{"name":"L'Ambroisie","postalCode":"75004","chef":"Bernard Pacaud","url":"https://restaurant.michelin.fr//2a8d13e/lambroisie-paris-04"},{"name":"Villa René Lalique","postalCode":"67290","chef":"Jean-Georges Klein et  Paul Stradner","url":"https://restaurant.michelin.fr//t645yf86/villa-rene-lalique-wingen-sur-moder"},{"name":"Virtus","postalCode":"75012","chef":"Chiho Kanzaki","url":"https://restaurant.michelin.fr//3ez7apxd/virtus-paris-12"},{"name":"Les Ducs de Lorraine","postalCode":"88000","chef":"Stéphane Ringer et Rémi Gornet","url":"https://restaurant.michelin.fr//29fq33a/les-ducs-de-lorraine-epinal"},{"name":"Astrance","postalCode":"75016","chef":"Pascal Barbot","url":"https://restaurant.michelin.fr//2aeq3md/astrance-paris-16"},{"name":"Serge Vieira","postalCode":"15110","chef":"Serge Vieira","url":"https://restaurant.michelin.fr//2ey495p/serge-vieira-chaudes-aigues"},{"name":"Le Cinq","postalCode":"75008","chef":"Christian Le Squer","url":"https://restaurant.michelin.fr//2ab2thp/le-cinq-paris-08"},{"name":"Au Crocodile","postalCode":"67000","chef":"Franck Pelux","url":"https://restaurant.michelin.fr//kl196wcf/au-crocodile-strasbourg"},{"name":"La Table Saint-Crescent","postalCode":"11100","chef":"Lionel Giraud","url":"https://restaurant.michelin.fr//2a3kuo9/la-table-saint-crescent-narbonne"},{"name":"Le 7ème Continent","postalCode":"68170","chef":"Laurent Haller","url":"https://restaurant.michelin.fr//9tnfzh4/le-7eme-continent-rixheim"},{"name":"La Maison dans le Parc","postalCode":"54000","chef":"Françoise Mutel","url":"https://restaurant.michelin.fr//2elnjes/la-maison-dans-le-parc-nancy"},{"name":"Gordon Ramsay au Trianon","postalCode":"78000","chef":"Frédéric Larquemin","url":"https://restaurant.michelin.fr//2aiqpqd/gordon-ramsay-au-trianon-versailles"},{"name":"Le Domaine de la Corniche","postalCode":"78270","chef":"Julien Razemon","url":"https://restaurant.michelin.fr//2cmxk0v/le-domaine-de-la-corniche-rolleboise"},{"name":"Les Trois Rochers","postalCode":"29120","chef":"Fréderic Claquin","url":"https://restaurant.michelin.fr//2bi0j2j/les-trois-rochers-sainte-marine"},{"name":"Le Chabichou","postalCode":"73120","chef":"Michel Rochedy et Stéphane Buron","url":"https://restaurant.michelin.fr//2btao3c/le-chabichou-courchevel-1850"},{"name":"Les Climats","postalCode":"75007","chef":"Julien Boscus","url":"https://restaurant.michelin.fr//3x7v6dz/les-climats-paris-07"},{"name":"Les Voiles d'Or","postalCode":"76200","chef":"Tristan Arhan","url":"https://restaurant.michelin.fr//2dtoif7/les-voiles-dor-dieppe"},{"name":"Passage 53","postalCode":"75002","chef":"Shinichi Sato","url":"https://restaurant.michelin.fr//2ezpxm7/passage-53-paris-02"},{"name":"Le Kintessence","postalCode":"73120","chef":"Jean-Rémi Caillon","url":"https://restaurant.michelin.fr//am8q9hp/le-kintessence-courchevel-1850"},{"name":"L'Allée des Vignes","postalCode":"46160","chef":"Claude-Emmanuel Robin","url":"https://restaurant.michelin.fr//aisrm50/lallee-des-vignes-cajarc"},{"name":"Mavrommatis","postalCode":"75005","chef":"Andréas MAVROMMATIS","url":"https://restaurant.michelin.fr//2a95vol/mavrommatis-paris-05"},{"name":"Intuition","postalCode":"50000","chef":"Mickaël Marion","url":"https://restaurant.michelin.fr//3ffxvs0j/intuition-saint-lo"},{"name":"Le Neuvième Art","postalCode":"69006","chef":"Christophe Roure","url":"https://restaurant.michelin.fr//6pz7edt2/le-neuvieme-art-lyon-06"},{"name":"Les Tables de Gaspard","postalCode":"05600","chef":"Sébastien Corniau","url":"https://restaurant.michelin.fr//2duw4bw/les-tables-de-gaspard-saint-crepin"},{"name":"Le Brouillarta","postalCode":"64500","chef":"Guillaume Roget","url":"https://restaurant.michelin.fr//2atl5nc/le-brouillarta-saint-jean-de-luz"},{"name":"Le Montgomerie","postalCode":"73120","chef":"Gatien Demczyna","url":"https://restaurant.michelin.fr//29b4lr4/le-montgomerie-courchevel-1850"},{"name":"Le Château de Sable","postalCode":"29840","chef":"","url":"https://restaurant.michelin.fr//2nnu14s6/le-chateau-de-sable-porspoder"},{"name":"Laurent","postalCode":"75008","chef":"","url":"https://restaurant.michelin.fr//2abdvpo/laurent-paris-08"},{"name":"Auberge St-Walfrid","postalCode":"57200","chef":"Stephan Schneider","url":"https://restaurant.michelin.fr//2ayc9n6/auberge-st-walfrid-sarreguemines"},{"name":"Transparence - La Table de Patrick Fréchin","postalCode":"54000","chef":"","url":"https://restaurant.michelin.fr//2jtf0iqj/transparence-la-table-de-patrick-frechin-nancy"},{"name":"Clovis","postalCode":"06140","chef":"Julien Bousseau","url":"https://restaurant.michelin.fr//2evgb1v/clovis-tourrettes-sur-loup"},{"name":"L'O des Vignes","postalCode":"71960","chef":"Sébastien Chambru","url":"https://restaurant.michelin.fr//3fa7ojh3/lo-des-vignes-fuisse"},{"name":"Allium","postalCode":"29000","chef":"Lionel Hénaff","url":"https://restaurant.michelin.fr//suqhhtor/allium-quimper"},{"name":"Le Pot d'Étain","postalCode":"90400","chef":"Philippe Zeiger","url":"https://restaurant.michelin.fr//28vc6i9/le-pot-detain-danjoutin"},{"name":"L'Hysope","postalCode":"17220","chef":"Nicolas  Durif","url":"https://restaurant.michelin.fr//hq8ezzf7/lhysope-la-jarrie"},{"name":"Les Genêts","postalCode":"85470","chef":"Nicolas Coutand","url":"https://restaurant.michelin.fr//3ws5njk2/les-genets-brem-sur-mer"},{"name":"Le St-Martin","postalCode":"25200","chef":"Olivier Prévôt-Carme","url":"https://restaurant.michelin.fr//29zciea/le-st-martin-montbeliard"},{"name":"L'Océan","postalCode":"64500","chef":"Alexandre Soulier","url":"https://restaurant.michelin.fr//szxhgy9t/locean-saint-jean-de-luz"},{"name":"Baumanière 1850","postalCode":"73120","chef":"Glenn Viel","url":"https://restaurant.michelin.fr//2f4vonu/baumaniere-1850-courchevel-1850"},{"name":"Miraflores","postalCode":"69006","chef":"Carlos Camino","url":"https://restaurant.michelin.fr//2jcivvu3/miraflores-lyon-06"},{"name":"Les Clefs d'Argent","postalCode":"40000","chef":"Christophe Dupouy","url":"https://restaurant.michelin.fr//2e0bvx8/les-clefs-dargent-mont-de-marsan"},{"name":"La Balette","postalCode":"66190","chef":"Frédéric Bacquié","url":"https://restaurant.michelin.fr//2dlsvt0/la-balette-collioure"},{"name":"Prairial","postalCode":"69001","chef":"Gaëtan Gentil","url":"https://restaurant.michelin.fr//cpiyfjc0/prairial-lyon"},{"name":"L'Atelier Yssoirien","postalCode":"63500","chef":"Dorian Van Bronkhorst","url":"https://restaurant.michelin.fr//akc6ovv/latelier-yssoirien-issoire"},{"name":"La Table de Nans","postalCode":"13600","chef":"Nans Gaillard","url":"https://restaurant.michelin.fr//akfvyg8/la-table-de-nans-la-ciotat"},{"name":"La Grange de Belle-Église","postalCode":"60540","chef":"Marc Duval","url":"https://restaurant.michelin.fr//28vem1k/la-grange-de-belle-eglise-belle-eglise"},{"name":"La Promenade","postalCode":"31590","chef":"Nicolas Thomas","url":"https://restaurant.michelin.fr//n3jledr/la-promenade-verfeil"},{"name":"Takao Takano","postalCode":"69006","chef":"Takao Takano","url":"https://restaurant.michelin.fr//1fchzdq5/takao-takano-lyon-06"},{"name":"La Table d'Uzès","postalCode":"30700","chef":"Christophe  Ducros","url":"https://restaurant.michelin.fr//1ss80t3t/la-table-duzes-uzes"},{"name":"Buerehiesel","postalCode":"67000","chef":"Eric Westermann","url":"https://restaurant.michelin.fr//2b0sgrs/buerehiesel-strasbourg"},{"name":"Le Vivier","postalCode":"84800","chef":"Romain Gandolphe","url":"https://restaurant.michelin.fr//29nsjme/le-vivier-lisle-sur-la-sorgue"},{"name":"Auberge au Bœuf","postalCode":"67770","chef":"Yannick Germain","url":"https://restaurant.michelin.fr//2b00ufd/auberge-au-boeuf-sessenheim"},{"name":"Maximilien","postalCode":"68340","chef":"Jean-Michel Eblin","url":"https://restaurant.michelin.fr//2aoyre2/maximilien-zellenberg"},{"name":"Auberge de la Brie","postalCode":"77860","chef":"Alain Pavard","url":"https://restaurant.michelin.fr//29ask7o/auberge-de-la-brie-couilly-pont-aux-dames"},{"name":"Le Lido","postalCode":"20110","chef":"Romuald ROYER","url":"https://restaurant.michelin.fr//29ajku0/le-lido-propriano"},{"name":"Le Musigny","postalCode":"59300","chef":"Emmanuel Hernandez","url":"https://restaurant.michelin.fr//3yjthyc/le-musigny-valenciennes"},{"name":"Quai des Saveurs","postalCode":"57300","chef":"Frédéric Sandrini","url":"https://restaurant.michelin.fr//2e9sbx2/quai-des-saveurs-hagondange"},{"name":"Les Ducs de Lorraine","postalCode":"88000","chef":"Stéphane Ringer et Rémi Gornet","url":"https://restaurant.michelin.fr//29fq33a/les-ducs-de-lorraine-epinal"},{"name":"Astrance","postalCode":"75016","chef":"Pascal Barbot","url":"https://restaurant.michelin.fr//2aeq3md/astrance-paris-16"},{"name":"Serge Vieira","postalCode":"15110","chef":"Serge Vieira","url":"https://restaurant.michelin.fr//2ey495p/serge-vieira-chaudes-aigues"},{"name":"Le Cinq","postalCode":"75008","chef":"Christian Le Squer","url":"https://restaurant.michelin.fr//2ab2thp/le-cinq-paris-08"},{"name":"Au Crocodile","postalCode":"67000","chef":"Franck Pelux","url":"https://restaurant.michelin.fr//kl196wcf/au-crocodile-strasbourg"},{"name":"La Table Saint-Crescent","postalCode":"11100","chef":"Lionel Giraud","url":"https://restaurant.michelin.fr//2a3kuo9/la-table-saint-crescent-narbonne"},{"name":"Le 7ème Continent","postalCode":"68170","chef":"Laurent Haller","url":"https://restaurant.michelin.fr//9tnfzh4/le-7eme-continent-rixheim"},{"name":"La Maison dans le Parc","postalCode":"54000","chef":"Françoise Mutel","url":"https://restaurant.michelin.fr//2elnjes/la-maison-dans-le-parc-nancy"},{"name":"Gordon Ramsay au Trianon","postalCode":"78000","chef":"Frédéric Larquemin","url":"https://restaurant.michelin.fr//2aiqpqd/gordon-ramsay-au-trianon-versailles"},{"name":"Le Domaine de la Corniche","postalCode":"78270","chef":"Julien Razemon","url":"https://restaurant.michelin.fr//2cmxk0v/le-domaine-de-la-corniche-rolleboise"},{"name":"Les Trois Rochers","postalCode":"29120","chef":"Fréderic Claquin","url":"https://restaurant.michelin.fr//2bi0j2j/les-trois-rochers-sainte-marine"},{"name":"Le Chabichou","postalCode":"73120","chef":"Michel Rochedy et Stéphane Buron","url":"https://restaurant.michelin.fr//2btao3c/le-chabichou-courchevel-1850"},{"name":"Les Climats","postalCode":"75007","chef":"Julien Boscus","url":"https://restaurant.michelin.fr//3x7v6dz/les-climats-paris-07"},{"name":"Les Voiles d'Or","postalCode":"76200","chef":"Tristan Arhan","url":"https://restaurant.michelin.fr//2dtoif7/les-voiles-dor-dieppe"},{"name":"Passage 53","postalCode":"75002","chef":"Shinichi Sato","url":"https://restaurant.michelin.fr//2ezpxm7/passage-53-paris-02"},{"name":"Le Kintessence","postalCode":"73120","chef":"Jean-Rémi Caillon","url":"https://restaurant.michelin.fr//am8q9hp/le-kintessence-courchevel-1850"},{"name":"L'Allée des Vignes","postalCode":"46160","chef":"Claude-Emmanuel Robin","url":"https://restaurant.michelin.fr//aisrm50/lallee-des-vignes-cajarc"},{"name":"Mavrommatis","postalCode":"75005","chef":"Andréas MAVROMMATIS","url":"https://restaurant.michelin.fr//2a95vol/mavrommatis-paris-05"},{"name":"La Table des Cordeliers","postalCode":"32100","chef":"Éric Sampietro","url":"https://restaurant.michelin.fr//2d7x1hk/la-table-des-cordeliers-condom"},{"name":"1741","postalCode":"67000","chef":"","url":"https://restaurant.michelin.fr//amv21i8/1741-strasbourg"},{"name":"Le Prieuré","postalCode":"42820","chef":"Thierry Fernandes","url":"https://restaurant.michelin.fr//28od0rp/le-prieure-ambierle"},{"name":"Mon Plaisir","postalCode":"25190","chef":"Christian Pilloud","url":"https://restaurant.michelin.fr//2d6m1yv/mon-plaisir-chamesol"},{"name":"Au 14 Février","postalCode":"69005","chef":"Tsuyoshi Arai","url":"https://restaurant.michelin.fr//2f8f1gn/au-14-fevrier-lyon-05"},{"name":"Côté Jardin","postalCode":"45500","chef":"Arnaud Billard","url":"https://restaurant.michelin.fr//29jyv6a/cote-jardin-gien"},{"name":"Jérémy Galvan","postalCode":"69005","chef":"Jérémy Galvan","url":"https://restaurant.michelin.fr//3plxd2e/jeremy-galvan-lyon-05"},{"name":"Lulu Rouget","postalCode":"44000","chef":"Ludovic Pouzelgues","url":"https://restaurant.michelin.fr//5kf1f62/lulu-rouget-nantes"},{"name":"Il Cortile","postalCode":"68100","chef":"Jean-Michel Feger","url":"https://restaurant.michelin.fr//2dcdnms/il-cortile-mulhouse"},{"name":"La Ville Blanche","postalCode":"22300","chef":"Jean-Yves Jaguin","url":"https://restaurant.michelin.fr//29pm63n/la-ville-blanche-la-ville-blanche"},{"name":"Lou Cigalon - Maison Martin","postalCode":"06560","chef":"Christophe Martin","url":"https://restaurant.michelin.fr//41vsxiz/lou-cigalon-maison-martin-valbonne"},{"name":"Hostellerie de la Pointe St-Mathieu","postalCode":"29217","chef":"Nolwenn Corre","url":"https://restaurant.michelin.fr//2brleio/hostellerie-de-la-pointe-st-mathieu-le-conquet"},{"name":"La Robe","postalCode":"85600","chef":"Xavier Giraudet","url":"https://restaurant.michelin.fr//3ffqpazw/la-robe-montaigu"},{"name":"Château Blanchard","postalCode":"42140","chef":"Sylvain Roux","url":"https://restaurant.michelin.fr//ou4s65x/chateau-blanchard-chazelles-sur-lyon"},{"name":"Villa de l'Étang Blanc","postalCode":"40510","chef":"David Sulpice","url":"https://restaurant.michelin.fr//2dtglr4/villa-de-letang-blanc-seignosse"},{"name":"Le Cerf","postalCode":"67520","chef":"Michel Husser et Joël Philipps","url":"https://restaurant.michelin.fr//2c74pw3/le-cerf-marlenheim"},{"name":"À Contre Sens","postalCode":"14000","chef":"Anthony Caillot","url":"https://restaurant.michelin.fr//3wc5nsy/contre-sens-caen"},{"name":"La Carambole","postalCode":"67300","chef":"","url":"https://restaurant.michelin.fr//3zm7yv8/la-carambole-schiltigheim"},{"name":"La Table des Blot - Auberge du Château","postalCode":"78720","chef":"Christophe Blot","url":"https://restaurant.michelin.fr//2agz71j/la-table-des-blot-auberge-du-chateau-dampierre-en-yvelines"},{"name":"La Petite Maison de Cucuron","postalCode":"84160","chef":"Eric Sapet","url":"https://restaurant.michelin.fr//29c2o3y/la-petite-maison-de-cucuron-cucuron"},{"name":"SaQuaNa","postalCode":"14600","chef":"Alexandre Bourdas","url":"https://restaurant.michelin.fr//2e11xi8/saquana-honfleur"},{"name":"En Pleine Nature","postalCode":"31130","chef":"Sylvain Joffre","url":"https://restaurant.michelin.fr//s5y0mmq/en-pleine-nature-fonsegrives"},{"name":"Mariottat","postalCode":"47000","chef":"Éric Mariottat","url":"https://restaurant.michelin.fr//28n68fe/mariottat-agen"},{"name":"Le Figuier de St-Esprit","postalCode":"06600","chef":"Christian Morisset","url":"https://restaurant.michelin.fr//2ejmich/le-figuier-de-st-esprit-antibes"},{"name":"Roscanvec","postalCode":"56000","chef":"Thierry Seychelles","url":"https://restaurant.michelin.fr//2b6s3ty/roscanvec-vannes"},{"name":"L'Olivier","postalCode":"83400","chef":"Julien Le Goff","url":"https://restaurant.michelin.fr//2c1rglq/lolivier-hyeres"},{"name":"Umami","postalCode":"67000","chef":"René Fieger","url":"https://restaurant.michelin.fr//2ei9xex/umami-strasbourg"},{"name":"L'Atelier de Joël Robuchon - St-Germain","postalCode":"75007","chef":"","url":"https://restaurant.michelin.fr//2dduyu5/latelier-de-joel-robuchon-st-germain-paris-07"},{"name":"Michel Sarran","postalCode":"31000","chef":"Michel Sarran","url":"https://restaurant.michelin.fr//2b380z8/michel-sarran-toulouse"},{"name":"Hostellerie de Levernois","postalCode":"21200","chef":"","url":"https://restaurant.michelin.fr//28updvu/hostellerie-de-levernois-levernois"},{"name":"La Table de Chaintré","postalCode":"71570","chef":"Sébastien Grospellier","url":"https://restaurant.michelin.fr//294fsc5/la-table-de-chaintre-chaintre"},{"name":"Le Puits du Trésor","postalCode":"11600","chef":"Jean-Marc Boyer","url":"https://restaurant.michelin.fr//29pxfvs/le-puits-du-tresor-lastours"},{"name":"Le Bistrot de Lagarde","postalCode":"84400","chef":"Lloyd Tropeano","url":"https://restaurant.michelin.fr//jfxt32k/le-bistrot-de-lagarde-lagarde-dapt"},{"name":"Le Gambetta","postalCode":"49400","chef":"Mickael Pihours","url":"https://restaurant.michelin.fr//2ayqw5m/le-gambetta-saumur"},{"name":"Michel Trama","postalCode":"47270","chef":"Michel Trama","url":"https://restaurant.michelin.fr//2ckuncq/michel-trama-puymirol"},{"name":"Le Chiquito","postalCode":"95540","chef":"Alain Mihura","url":"https://restaurant.michelin.fr//2ago3w6/le-chiquito-mery-sur-oise"},{"name":"Le Camélia","postalCode":"78380","chef":"Thierry Conte","url":"https://restaurant.michelin.fr//2agf0d1/le-camelia-bougival"},{"name":"Le Village","postalCode":"78160","chef":"Tomohiro Uido","url":"https://restaurant.michelin.fr//2ahm97s/le-village-marly-le-roi"},{"name":"La Table d'Eugène","postalCode":"75018","chef":"Geoffroy Maillard","url":"https://restaurant.michelin.fr//2et2alx/la-table-deugene-paris-18"},{"name":"L'Amphitryon","postalCode":"56100","chef":"Olivier Beurné","url":"https://restaurant.michelin.fr//29saut6/lamphitryon-lorient"},{"name":"Le Bon Accueil","postalCode":"25160","chef":"Marc Faivre","url":"https://restaurant.michelin.fr//29v2jed/le-bon-accueil-malbuisson"},{"name":"La Rastègue","postalCode":"83230","chef":"Jérôme Masson","url":"https://restaurant.michelin.fr//2dfjaik/la-rastegue-bormes-les-mimosas"},{"name":"Aux Terrasses","postalCode":"71700","chef":"Jean-Michel Carrette","url":"https://restaurant.michelin.fr//2b44str/aux-terrasses-tournus"},{"name":"Le Foch","postalCode":"51100","chef":"Jacky Louazé","url":"https://restaurant.michelin.fr//2anjd1l/le-foch-reims"},{"name":"Auberge du Dun","postalCode":"76740","chef":"Pierre Chrétien","url":"https://restaurant.michelin.fr//28z3n7r/auberge-du-dun-le-bourg-dun"},{"name":"La Marande","postalCode":"71260","chef":"Philippe Michel","url":"https://restaurant.michelin.fr//2dcnkds/la-marande-mirande"},{"name":"Auberge St-Jean","postalCode":"33420","chef":"Thomas L'Hérisson","url":"https://restaurant.michelin.fr//2athka8/auberge-st-jean-saint-jean-de-blaignac"},{"name":"Vieux Pont","postalCode":"12390","chef":"Nicole Fagegaltier et Bruno Rouquier","url":"https://restaurant.michelin.fr//28vap07/vieux-pont-belcastel"},{"name":"Le Belvédère","postalCode":"12340","chef":"Guillaume Viala","url":"https://restaurant.michelin.fr//2d4rcim/le-belvedere-bozouls"},{"name":"David Toutain","postalCode":"75007","chef":"","url":"https://restaurant.michelin.fr//2ei5hub/david-toutain-paris-07"},{"name":"L'Atlantide 1874 - Maison Guého","postalCode":"44100","chef":"Jean-Yves Guého","url":"https://restaurant.michelin.fr//2a32200/latlantide-1874-maison-gueho-nantes"},{"name":"Le Pily","postalCode":"50100","chef":"Pierre Marion","url":"https://restaurant.michelin.fr//2eh8fjc/le-pily-cherbourg-en-cotentin"},{"name":"Château du Mont Joly","postalCode":"39100","chef":"Romuald Fassenet","url":"https://restaurant.michelin.fr//2ejhn11/chateau-du-mont-joly-sampans"},{"name":"Étincelles - La Gentilhommière","postalCode":"24440","chef":"Vincent Lucas","url":"https://restaurant.michelin.fr//2ejolq7/etincelles-la-gentilhommiere-sainte-sabine"},{"name":"Shang Palace","postalCode":"75016","chef":"Samuel Lee","url":"https://restaurant.michelin.fr//2fcezsf205/shang-palace-paris-16"},{"name":"Château de Vault de Lugny","postalCode":"89200","chef":"Le chef Franco Bowanee et Karina Laval, chef pâtissière.","url":"https://restaurant.michelin.fr//2bezvvp/chateau-de-vault-de-lugny-vault-de-lugny"},{"name":"Le Haut-Allier","postalCode":"43580","chef":"Philippe Brun","url":"https://restaurant.michelin.fr//2bc2prd/le-haut-allier-le-pont-dalleyras"},{"name":"Auguste","postalCode":"75007","chef":"Gaël Orieux","url":"https://restaurant.michelin.fr//2dof8zp/auguste-paris-07"},{"name":"Jérôme Brochot","postalCode":"71300","chef":"Jérôme Brochot","url":"https://restaurant.michelin.fr//29zgkr3/jerome-brochot-montceau-les-mines"},{"name":"La Scène Thélème","postalCode":"75017","chef":"Julien Rocheteau","url":"https://restaurant.michelin.fr//ygx47dyb/la-scene-theleme-paris-17"},{"name":"Hostellerie Jérôme","postalCode":"06320","chef":"Bruno Cirino","url":"https://restaurant.michelin.fr//2b5e0ez/hostellerie-jerome-la-turbie"},{"name":"Les Explorateurs","postalCode":"73440","chef":"Josselin Jeanblanc","url":"https://restaurant.michelin.fr//ui89zrwk/les-explorateurs-val-thorens"},{"name":"La Tour d'Argent","postalCode":"75005","chef":"Philippe LABBÉ","url":"https://restaurant.michelin.fr//2a8xf2a/la-tour-dargent-paris-05"},{"name":"Auberge de l'Île Barbe","postalCode":"69009","chef":"Jean-Christophe Ansanay-Alex","url":"https://restaurant.michelin.fr//29tj1pj/auberge-de-lile-barbe-lyon-09"},{"name":"L'Arôme","postalCode":"75008","chef":"Thomas Boullault","url":"https://restaurant.michelin.fr//2e8vcj7/larome-paris-08"},{"name":"La Côte Saint-Jacques","postalCode":"89300","chef":"Jean-Michel Lorain","url":"https://restaurant.michelin.fr//2c2ma30/la-cote-saint-jacques-joigny"},{"name":"Thierry Schwartz - Le Restaurant","postalCode":"67210","chef":"Thierry Schwartz","url":"https://restaurant.michelin.fr//2a619xs/thierry-schwartz-le-restaurant-obernai"},{"name":"Troisgros - Le Bois sans Feuilles","postalCode":"42155","chef":"Michel et César Troisgros","url":"https://restaurant.michelin.fr//2cm53gy/troisgros-le-bois-sans-feuilles-ouches"},{"name":"Le Moulin de l'Abbaye","postalCode":"24310","chef":"Jean-Michel Bardet","url":"https://restaurant.michelin.fr//2bk4rlv/le-moulin-de-labbaye-brantome-en-perigord"},{"name":"William Frachot","postalCode":"21000","chef":"William Frachot","url":"https://restaurant.michelin.fr//2buprmi/william-frachot-dijon"},{"name":"Régis et Jacques Marcon","postalCode":"43290","chef":"Régis et  Jacques Marcon","url":"https://restaurant.michelin.fr//2dntkxh/regis-et-jacques-marcon-saint-bonnet-le-froid"},{"name":"Auberge de la Tour","postalCode":"15220","chef":"Renaud Darmanin","url":"https://restaurant.michelin.fr//aewyhv0/auberge-de-la-tour-marcoles"},{"name":"Le Camélia","postalCode":"78380","chef":"Thierry Conte","url":"https://restaurant.michelin.fr//2agf0d1/le-camelia-bougival"},{"name":"Le Village","postalCode":"78160","chef":"Tomohiro Uido","url":"https://restaurant.michelin.fr//2ahm97s/le-village-marly-le-roi"},{"name":"La Table d'Eugène","postalCode":"75018","chef":"Geoffroy Maillard","url":"https://restaurant.michelin.fr//2et2alx/la-table-deugene-paris-18"},{"name":"L'Amphitryon","postalCode":"56100","chef":"Olivier Beurné","url":"https://restaurant.michelin.fr//29saut6/lamphitryon-lorient"},{"name":"Le Bon Accueil","postalCode":"25160","chef":"Marc Faivre","url":"https://restaurant.michelin.fr//29v2jed/le-bon-accueil-malbuisson"},{"name":"La Rastègue","postalCode":"83230","chef":"Jérôme Masson","url":"https://restaurant.michelin.fr//2dfjaik/la-rastegue-bormes-les-mimosas"},{"name":"Aux Terrasses","postalCode":"71700","chef":"Jean-Michel Carrette","url":"https://restaurant.michelin.fr//2b44str/aux-terrasses-tournus"},{"name":"Le Foch","postalCode":"51100","chef":"Jacky Louazé","url":"https://restaurant.michelin.fr//2anjd1l/le-foch-reims"},{"name":"Auberge du Dun","postalCode":"76740","chef":"Pierre Chrétien","url":"https://restaurant.michelin.fr//28z3n7r/auberge-du-dun-le-bourg-dun"},{"name":"La Marande","postalCode":"71260","chef":"Philippe Michel","url":"https://restaurant.michelin.fr//2dcnkds/la-marande-mirande"},{"name":"Auberge St-Jean","postalCode":"33420","chef":"Thomas L'Hérisson","url":"https://restaurant.michelin.fr//2athka8/auberge-st-jean-saint-jean-de-blaignac"},{"name":"Vieux Pont","postalCode":"12390","chef":"Nicole Fagegaltier et Bruno Rouquier","url":"https://restaurant.michelin.fr//28vap07/vieux-pont-belcastel"},{"name":"Le Belvédère","postalCode":"12340","chef":"Guillaume Viala","url":"https://restaurant.michelin.fr//2d4rcim/le-belvedere-bozouls"},{"name":"David Toutain","postalCode":"75007","chef":"","url":"https://restaurant.michelin.fr//2ei5hub/david-toutain-paris-07"},{"name":"L'Atlantide 1874 - Maison Guého","postalCode":"44100","chef":"Jean-Yves Guého","url":"https://restaurant.michelin.fr//2a32200/latlantide-1874-maison-gueho-nantes"},{"name":"Le Pily","postalCode":"50100","chef":"Pierre Marion","url":"https://restaurant.michelin.fr//2eh8fjc/le-pily-cherbourg-en-cotentin"},{"name":"Château du Mont Joly","postalCode":"39100","chef":"Romuald Fassenet","url":"https://restaurant.michelin.fr//2ejhn11/chateau-du-mont-joly-sampans"},{"name":"Étincelles - La Gentilhommière","postalCode":"24440","chef":"Vincent Lucas","url":"https://restaurant.michelin.fr//2ejolq7/etincelles-la-gentilhommiere-sainte-sabine"},{"name":"Côté Cuisine","postalCode":"56340","chef":"Laëtitia et Stéphane Cosnier","url":"https://restaurant.michelin.fr//mhm4jdd/cote-cuisine-carnac"},{"name":"Pages","postalCode":"75016","chef":"Ryuji Teshima","url":"https://restaurant.michelin.fr//9idrgh03/pages-paris-16"},{"name":"La Marine","postalCode":"50270","chef":"Damien Goguet","url":"https://restaurant.michelin.fr//2bgh04f/la-marine-carteret"},{"name":"Rodolphe","postalCode":"76000","chef":"Rodolphe Pottier","url":"https://restaurant.michelin.fr//j9cof0s1/rodolphe-rouen"},{"name":"La Vieille Tour","postalCode":"22190","chef":"Nicolas Adam","url":"https://restaurant.michelin.fr//2arxchk/la-vieille-tour-plerin"},{"name":"SEPT","postalCode":"31000","chef":"Guillaume Momboisse","url":"https://restaurant.michelin.fr//2b38wht/sept-toulouse"},{"name":"Le Roc Alto","postalCode":"05350","chef":"Alexandre Lechêne","url":"https://restaurant.michelin.fr//8xdk7lc4/le-roc-alto-saint-veran"},{"name":"Le Pousse-Pied","postalCode":"85360","chef":"Anthony Lumet","url":"https://restaurant.michelin.fr//376ocf6f/le-pousse-pied-la-tranche-sur-mer"},{"name":"Le Clos St-Pierre","postalCode":"06650","chef":"Daniel Ettlinger","url":"https://restaurant.michelin.fr//2aqst5c/le-clos-st-pierre-saint-pons"},{"name":"Garopapilles","postalCode":"33000","chef":"Tanguy Laviale","url":"https://restaurant.michelin.fr//3wsi04j3/garopapilles-bordeaux"},{"name":"Auberge du Paradis","postalCode":"71570","chef":"Cyril Laugier","url":"https://restaurant.michelin.fr//2armsjm/auberge-du-paradis-platre-durand"},{"name":"Le Pavillon","postalCode":"62520","chef":"William Elliott","url":"https://restaurant.michelin.fr//2b3t8kh/le-pavillon-le-touquet-paris-plage"},{"name":"Racine","postalCode":"51100","chef":"Kazuyuki Tanaka","url":"https://restaurant.michelin.fr//eiak4cnv/racine-reims"},{"name":"Frenchie","postalCode":"75002","chef":"Gregory Marchand","url":"https://restaurant.michelin.fr//2f44u91/frenchie-paris-02"},{"name":"Château de Vauchoux","postalCode":"70170","chef":"Jean-Michel Turin","url":"https://restaurant.michelin.fr//2alwjjs/chateau-de-vauchoux-vauchoux"},{"name":"Pèir","postalCode":"84220","chef":"Loris Cornacchia","url":"https://restaurant.michelin.fr//r9fvmyyv/peir-gordes"},{"name":"Palégrié","postalCode":"38250","chef":"Guillaume Monjuré","url":"https://restaurant.michelin.fr//2d2itah0/palegrie-correncon-en-vercors"},{"name":"Pertinence","postalCode":"75007","chef":"Kwen Liew et Ryunosuke Naito","url":"https://restaurant.michelin.fr//5sermc3/pertinence-paris-07"},{"name":"Agapé","postalCode":"75017","chef":"Benoit Dumas","url":"https://restaurant.michelin.fr//2eo1t6h/agape-paris-17"},{"name":"Les Morainières","postalCode":"73170","chef":"Michaël Arnoult","url":"https://restaurant.michelin.fr//2dd2ann/les-morainieres-jongieux"},{"name":"Le Brittany","postalCode":"29681","chef":"Loic Le Bail","url":"https://restaurant.michelin.fr//2cnbixn/le-brittany-roscoff"},{"name":"Faventia","postalCode":"83440","chef":"Philippe  Jourdin","url":"https://restaurant.michelin.fr//2dix4nq137/faventia-tourrettes"},{"name":"Domaine d'Auriac","postalCode":"11000","chef":"Philippe Deschamps","url":"https://restaurant.michelin.fr//2bmf006/domaine-dauriac-carcassonne"},{"name":"Le Moulin de Léré","postalCode":"74470","chef":"Frédéric Molina","url":"https://restaurant.michelin.fr//bca0zrw3/le-moulin-de-lere-vailly"},{"name":"Dyades au Domaine des Étangs","postalCode":"16310","chef":"Loïc Lecoin","url":"https://restaurant.michelin.fr//2f0stuh/dyades-au-domaine-des-etangs-massignac"},{"name":"Le Clos des Sens","postalCode":"74940","chef":"Laurent Petit","url":"https://restaurant.michelin.fr//28pf13h/le-clos-des-sens-annecy-le-vieux"},{"name":"Le Prince Noir - Vivien Durand","postalCode":"33310","chef":"Vivien Durand","url":"https://restaurant.michelin.fr//4g00u3j8/le-prince-noir-vivien-durand-lormont"},{"name":"Auberge des Templiers","postalCode":"45290","chef":"Martin Simonart","url":"https://restaurant.michelin.fr//2bicgcl/auberge-des-templiers-les-bezards"},{"name":"Hostellerie la Montagne","postalCode":"52330","chef":"Jean-Baptiste Natali","url":"https://restaurant.michelin.fr//298i34w/hostellerie-la-montagne-colombey-les-deux-eglises"},{"name":"Anne de Bretagne","postalCode":"44770","chef":"Mathieu Guibert","url":"https://restaurant.michelin.fr//2ciults/anne-de-bretagne-la-plaine-sur-mer"},{"name":"Le Refuge des Gourmets","postalCode":"74140","chef":"Jean-Marie et Hubert Chanove","url":"https://restaurant.michelin.fr//29uv8a7/le-refuge-des-gourmets-machilly"},{"name":"Au Vieux Couvent","postalCode":"67860","chef":"Alexis Albrecht","url":"https://restaurant.michelin.fr//2aogs9u/au-vieux-couvent-rhinau"},{"name":"La Grande Cascade","postalCode":"75016","chef":"Frédéric Robert","url":"https://restaurant.michelin.fr//2af5lql/la-grande-cascade-paris-16"},{"name":"La Coopérative","postalCode":"66720","chef":"Laurent Lemal","url":"https://restaurant.michelin.fr//3w3putu/la-cooperative-belesta"},{"name":"1217","postalCode":"69620","chef":"Jean-Alexandre Ouaratta","url":"https://restaurant.michelin.fr//2bfuk4c/1217-bagnols"},{"name":"Le Corot","postalCode":"92410","chef":"Rémi Chambard","url":"https://restaurant.michelin.fr//2aiulws5/le-corot-ville-davray"},{"name":"Au Déjeuner de Sousceyrac","postalCode":"46190","chef":"Patrick Lagnès","url":"https://restaurant.michelin.fr//2b0i0m7/au-dejeuner-de-sousceyrac-sousceyrac-en-quercy"},{"name":"Le Cercle","postalCode":"18000","chef":"Pascal Chaupitre et Christophe Lot","url":"https://restaurant.michelin.fr//9trxkaz/le-cercle-bourges"},{"name":"Pertica","postalCode":"41100","chef":"Guillaume Foucault","url":"https://restaurant.michelin.fr//3u9bmm3c/pertica-vendome"},{"name":"Cayola","postalCode":"85180","chef":"Sébastien Bonavita","url":"https://restaurant.michelin.fr//2arajo6/cayola-chateau-dolonne"},{"name":"La Closerie","postalCode":"84240","chef":"Olivier Alemany","url":"https://restaurant.michelin.fr//2eebgpo/la-closerie-ansouis"},{"name":"Au Souper Fin","postalCode":"76690","chef":"Eric Buisset","url":"https://restaurant.michelin.fr//29783wk/au-souper-fin-frichemesnil"},{"name":"Le Lièvre Gourmand","postalCode":"45000","chef":"Tristan Robreau","url":"https://restaurant.michelin.fr//2f48mjv/le-lievre-gourmand-orleans"},{"name":"Septime","postalCode":"75011","chef":"Bertrand Grébaut","url":"https://restaurant.michelin.fr//3xrgyvn/septime-paris-11"},{"name":"L'Atelier de Joël Robuchon - Étoile","postalCode":"75008","chef":"","url":"https://restaurant.michelin.fr//2feca5y/latelier-de-joel-robuchon-etoile-paris-08"},{"name":"L'Esquisse","postalCode":"74000","chef":"Stéphane Dattrino","url":"https://restaurant.michelin.fr//9tr3fvt/lesquisse-annecy"},{"name":"La Ribaudière","postalCode":"16200","chef":"Thierry Verrat","url":"https://restaurant.michelin.fr//29o99va/la-ribaudiere-bourg-charente"},{"name":"L'Essentiel","postalCode":"24000","chef":"Eric Vidal","url":"https://restaurant.michelin.fr//2dwdwxo/lessentiel-perigueux"},{"name":"Brikéténia","postalCode":"64210","chef":"Martin et David Ibarboure","url":"https://restaurant.michelin.fr//2es4wcd/briketenia-guethary"},{"name":"Auberge du Vert Mont","postalCode":"59299","chef":"Florent Ladeyn","url":"https://restaurant.michelin.fr//13ppe4f4/auberge-du-vert-mont-boeschepe"},{"name":"Auberge de l'Abbaye","postalCode":"01500","chef":"Ivan Lavaux","url":"https://restaurant.michelin.fr//2dnoa2o/auberge-de-labbaye-ambronay"},{"name":"Un Parfum de Gourmandise","postalCode":"24000","chef":"Sébastien Riou","url":"https://restaurant.michelin.fr//p47009z/un-parfum-de-gourmandise-perigueux"},{"name":"Hervé Busset","postalCode":"12320","chef":"Hervé Busset","url":"https://restaurant.michelin.fr//2brjniu/herve-busset-conques-en-rouergue"},{"name":"Le Favre d'Anne","postalCode":"49000","chef":"Pascal Favre d'Anne","url":"https://restaurant.michelin.fr//dekdkvvj/le-favre-danne-angers"},{"name":"Abri","postalCode":"75010","chef":"Katsuaki Okiyama","url":"https://restaurant.michelin.fr//mfh3jse/abri-paris-10"},{"name":"Table - Bruno Verjus","postalCode":"75012","chef":"","url":"https://restaurant.michelin.fr//3ffvej5j/table-bruno-verjus-paris-12"},{"name":"Auberge Le Prieuré","postalCode":"47310","chef":"Benjamin Toursel","url":"https://restaurant.michelin.fr//2dl7htu/auberge-le-prieure-moirax"},{"name":"Haut Bonheur de la Table","postalCode":"59670","chef":"Eugène Hobraiche","url":"https://restaurant.michelin.fr//6274yuk/haut-bonheur-de-la-table-cassel"},{"name":"L'Éveil des Sens","postalCode":"53100","chef":"Nicolas Nobis","url":"https://restaurant.michelin.fr//2f77d7t/leveil-des-sens-mayenne"},{"name":"Le Moulin des Quatre Saisons","postalCode":"72200","chef":"Camille Constantin","url":"https://restaurant.michelin.fr//29hrl09/le-moulin-des-quatre-saisons-la-fleche"},{"name":"ES","postalCode":"75007","chef":"Takayuki Honjo","url":"https://restaurant.michelin.fr//27ym5i25/es-paris-07"},{"name":"Val d'Auge","postalCode":"59910","chef":"Christophe Hagnerelle","url":"https://restaurant.michelin.fr//29rcoot/val-dauge-bondues"},{"name":"Au 14 Février","postalCode":"71570","chef":"Masafumi Hamano","url":"https://restaurant.michelin.fr//3ffziwd6/au-14-fevrier-platre-durand"},{"name":"L'Alchémille","postalCode":"68240","chef":"Jérôme Jaegle","url":"https://restaurant.michelin.fr//ua3c2rxf/lalchemille-kaysersberg-vignoble"},{"name":"Le Sérac","postalCode":"74170","chef":"Raphaël Le Mancq","url":"https://restaurant.michelin.fr//2di661r/le-serac-saint-gervais-les-bains"},{"name":"L'Orée de la Forêt","postalCode":"60600","chef":"Nicolas Leclercq","url":"https://restaurant.michelin.fr//297c2t4/loree-de-la-foret-etouy"},{"name":"Yam'Tcha","postalCode":"75001","chef":"Adeline Grattard","url":"https://restaurant.michelin.fr//2ewldde/yamtcha-paris-01"},{"name":"La Bonne Auberge","postalCode":"57350","chef":"Lydia Egloff","url":"https://restaurant.michelin.fr//29ifnwu/la-bonne-auberge-stiring-wendel"},{"name":"Les Pyrénées","postalCode":"64220","chef":"Philippe Arrambide","url":"https://restaurant.michelin.fr//2cqrobi/les-pyrenees-saint-jean-pied-de-port"},{"name":"Saturne","postalCode":"75002","chef":"Sven Chartier","url":"https://restaurant.michelin.fr//2fe4uol/saturne-paris-02"},{"name":"Ambroisie","postalCode":"38110","chef":"André Taormina","url":"https://restaurant.michelin.fr//2b416ek/ambroisie-saint-didier-de-la-tour"},{"name":"Château de la Treyne","postalCode":"46200","chef":"Stéphane Andrieux","url":"https://restaurant.michelin.fr//2c38ubh/chateau-de-la-treyne-lacave"},{"name":"La Rotonde","postalCode":"69890","chef":"Jean-François Malle","url":"https://restaurant.michelin.fr//29uqy46/la-rotonde-la-tour-de-salvagny"},{"name":"La Grand'Vigne","postalCode":"33650","chef":"Nicolas Masse","url":"https://restaurant.michelin.fr//28yhuxy/la-grandvigne-martillac"},{"name":"Le Quinzième - Cyril Lignac","postalCode":"75015","chef":"Cyril Lignac","url":"https://restaurant.michelin.fr//2dtfbbi/le-quinzieme-cyril-lignac-paris-15"},{"name":"Château de Sully","postalCode":"14400","chef":"Nicolas Fages","url":"https://restaurant.michelin.fr//2bgynqb/chateau-de-sully-sully"},{"name":"Maison Kieny","postalCode":"68400","chef":"Jean-Marc KIENY","url":"https://restaurant.michelin.fr//2a22p1u/maison-kieny-riedisheim"},{"name":"Hostellerie de l'Abbaye de la Celle","postalCode":"83170","chef":"Nicolas Pierantoni","url":"https://restaurant.michelin.fr//2bn8o1t/hostellerie-de-labbaye-de-la-celle-la-celle"},{"name":"Domaine des Séquoias","postalCode":"38300","chef":"Eric Jambon","url":"https://restaurant.michelin.fr//28zo6i3/domaine-des-sequoias-ruy"},{"name":"Helen","postalCode":"75008","chef":"Sébastien Carmona Porto","url":"https://restaurant.michelin.fr//3o59i9b/helen-paris-08"},{"name":"L'Amaryllis","postalCode":"71100","chef":"Cédric Burtin","url":"https://restaurant.michelin.fr//294rtmv/lamaryllis-saint-remy"},{"name":"Le Jardin des Plumes","postalCode":"27620","chef":"David Gallienne","url":"https://restaurant.michelin.fr//omm63qr/le-jardin-des-plumes-giverny"},{"name":"La Table de Castigno","postalCode":"34360","chef":"Ruben & Pieter de Maesschalck","url":"https://restaurant.michelin.fr//xh15qqss/la-table-de-castigno-assignan"},{"name":"L'Almandin","postalCode":"66750","chef":"Christophe Schmitt","url":"https://restaurant.michelin.fr//2as8r3a/lalmandin-saint-cyprien-plage"},{"name":"L'Auberge Basque","postalCode":"64310","chef":"Cédric Béchade","url":"https://restaurant.michelin.fr//2efx4u4/lauberge-basque-saint-pee-sur-nivelle"},{"name":"Le St-Placide","postalCode":"35400","chef":"Luc Mobihan","url":"https://restaurant.michelin.fr//2av98t5/le-st-placide-saint-malo"},{"name":"Château de Pray","postalCode":"37400","chef":"Arnaud Philippon","url":"https://restaurant.michelin.fr//2bcbfo0/chateau-de-pray-charge"},{"name":"La Table des Merville","postalCode":"31320","chef":"Thierry Merville","url":"https://restaurant.michelin.fr//2b3ktxc/la-table-des-merville-castanet-tolosan"},{"name":"Le Chantecler","postalCode":"06000","chef":"Virginie Basselot","url":"https://restaurant.michelin.fr//2a4echf50/le-chantecler-nice"},{"name":"Pic","postalCode":"26000","chef":"Anne-Sophie Pic","url":"https://restaurant.michelin.fr//2d0hddd/pic-valence"},{"name":"Le Quincangrogne","postalCode":"77400","chef":"Franck Charpentier","url":"https://restaurant.michelin.fr//u1pjp7ux/le-quincangrogne-dampmart"},{"name":"G.a. au Manoir de Rétival","postalCode":"76490","chef":"David Goerne","url":"https://restaurant.michelin.fr//9rnckmj/ga-au-manoir-de-retival-caudebec-en-caux"},{"name":"Le Parc Les Crayères","postalCode":"51100","chef":"Philippe Mille","url":"https://restaurant.michelin.fr//2clh5yg/le-parc-les-crayeres-reims"},{"name":"Ô Saveurs","postalCode":"31180","chef":"David Biasibetti","url":"https://restaurant.michelin.fr//2b3jb0y/o-saveurs-rouffiac-tolosan"},{"name":"Ed.Em","postalCode":"21190","chef":"Edouard Mignot","url":"https://restaurant.michelin.fr//295xqfd/edem-chassagne-montrachet"},{"name":"Lucas Carton","postalCode":"75008","chef":"Julien Dumas","url":"https://restaurant.michelin.fr//2abav0l/lucas-carton-paris-08"},{"name":"Hostellerie Les Gorges de Pennafort","postalCode":"83830","chef":"Philippe  Da Silva","url":"https://restaurant.michelin.fr//2blmwvy/hostellerie-les-gorges-de-pennafort-callas"},{"name":"La Table de La Butte","postalCode":"29260","chef":"Nicolas Conraux","url":"https://restaurant.michelin.fr//2cj2itx/la-table-de-la-butte-plouider"},{"name":"JAN","postalCode":"06000","chef":"Jan Hendrik van der Westhuizen","url":"https://restaurant.michelin.fr//38z104i7/jan-nice"},{"name":"La Mare aux Oiseaux","postalCode":"44720","chef":"Eric Guérin","url":"https://restaurant.michelin.fr//2atvlv0/la-mare-aux-oiseaux-saint-joachim"},{"name":"L'Abeille","postalCode":"75016","chef":"Christophe Moret","url":"https://restaurant.michelin.fr//2fcezsf/labeille-paris-16"},{"name":"Le Georges","postalCode":"28000","chef":"Thomas Parnaud","url":"https://restaurant.michelin.fr//2boyz17/le-georges-chartres"},{"name":"Auberge à la Bonne Idée","postalCode":"60350","chef":"Yves Giustiniani","url":"https://restaurant.michelin.fr//2ak8isu/auberge-la-bonne-idee-saint-jean-aux-bois"},{"name":"Xavier Mathieu","postalCode":"84220","chef":"Xavier Mathieu","url":"https://restaurant.michelin.fr//2c2u7lh/xavier-mathieu-joucas"},{"name":"En Marge","postalCode":"31320","chef":"Frank Renimel","url":"https://restaurant.michelin.fr//q8lel2a/en-marge-aureville"},{"name":"La Passagère","postalCode":"06160","chef":"Aurélien Véquaud","url":"https://restaurant.michelin.fr//29odhbw/la-passagere-juan-les-pins"},{"name":"La Chassagnette","postalCode":"13200","chef":"Armand Arnal","url":"https://restaurant.michelin.fr//28qr6q2/la-chassagnette-arles"},{"name":"Étude","postalCode":"75116","chef":"Keisuke Yamagishi","url":"https://restaurant.michelin.fr//3g8qf775/etude-paris-16"},{"name":"Pilgrim","postalCode":"75015","chef":"Saito Terumitsu","url":"https://restaurant.michelin.fr//4033946/pilgrim-paris-15"},{"name":"Les Funambules","postalCode":"67000","chef":"","url":"https://restaurant.michelin.fr//4035231/les-funambules-strasbourg"},{"name":"Rozo","postalCode":"59000","chef":"Camille Pailleau et Diego Delbecq","url":"https://restaurant.michelin.fr//4036171/rozo-lille"},{"name":"Accents Table Bourse","postalCode":"75002","chef":"Ayumi Sugiyama et  Romain Mahi","url":"https://restaurant.michelin.fr//4036951/accents-table-bourse-paris-02"},{"name":"La Sommelière","postalCode":"69005","chef":"","url":"https://restaurant.michelin.fr//4037936/la-sommeliere-lyon-05"},{"name":"L'Orchidée","postalCode":"68130","chef":"Chatchai Klanklong","url":"https://restaurant.michelin.fr//4039781/lorchidee-altkirch"},{"name":"L'Aspérule","postalCode":"21000","chef":"Keigo Kimura","url":"https://restaurant.michelin.fr//4040011/lasperule-dijon"},{"name":"Sarkara","postalCode":"73120","chef":"Sébastien Vauxion","url":"https://restaurant.michelin.fr//4040361/sarkara-courchevel-1850"},{"name":"Äponem - Auberge du Presbytère","postalCode":"34320","chef":"Amélie Darvas","url":"https://restaurant.michelin.fr//4040591/aponem-auberge-du-presbytere-vailhan"},{"name":"NESO","postalCode":"75009","chef":"Guillaume Sanchez","url":"https://restaurant.michelin.fr//4041136/neso-paris-09"},{"name":"Restaurant De Lauzun","postalCode":"34120","chef":"","url":"https://restaurant.michelin.fr//4041396/restaurant-de-lauzun-pezenas"},{"name":"The Marcel","postalCode":"34200","chef":"Fabien Fage","url":"https://restaurant.michelin.fr//4041601/marcel-sete"},{"name":"La Poule au Pot","postalCode":"75001","chef":"","url":"https://restaurant.michelin.fr//4042311/la-poule-au-pot-paris-01"},{"name":"Restaurant de Tourrel","postalCode":"13210","chef":"Jérémy  Scalia","url":"https://restaurant.michelin.fr//4038001/restaurant-de-tourrel-saint-remy-de-provence"},{"name":"Gill","postalCode":"76000","chef":"Gilles Tournadre","url":"https://restaurant.michelin.fr//2aqe7bm/gill-rouen"},{"name":"La Pyramide - Patrick Henriroux","postalCode":"38200","chef":"Patrick Henriroux","url":"https://restaurant.michelin.fr//2f4bg71/la-pyramide-patrick-henriroux-vienne"},{"name":"L'Ostal","postalCode":"63000","chef":"Emmanuel Hebrard","url":"https://restaurant.michelin.fr//uhpabnjd/lostal-clermont-ferrand"},{"name":"Le Grand Véfour","postalCode":"75001","chef":"Guy Martin","url":"https://restaurant.michelin.fr//2a7edmf/le-grand-vefour-paris-01"},{"name":"Restaurant des Rois","postalCode":"06310","chef":"Yannick Franques","url":"https://restaurant.michelin.fr//2bh3p7k/restaurant-des-rois-beaulieu-sur-mer"},{"name":"La Table d'Olivier Nasti","postalCode":"68240","chef":"Olivier Nasti","url":"https://restaurant.michelin.fr//2c30770n/la-table-dolivier-nasti-kaysersberg-vignoble"},{"name":"Le Passe Temps","postalCode":"69006","chef":"Younghoon Lee","url":"https://restaurant.michelin.fr//44ahwpa/le-passe-temps-lyon-06"},{"name":"L'Ecrin","postalCode":"75008","chef":"","url":"https://restaurant.michelin.fr//3503291/lecrin-paris-08"},{"name":"Le Relais des Moines","postalCode":"83460","chef":"Sébastien Sanjou","url":"https://restaurant.michelin.fr//28qae64/le-relais-des-moines-les-arcs"},{"name":"Entre Vigne et Garrigue","postalCode":"30131","chef":"Serge et Maxime Chenet","url":"https://restaurant.michelin.fr//2etuup9/entre-vigne-et-garrigue-pujaut"},{"name":"Le Pourquoi Pas","postalCode":"35800","chef":"Le chef breton Julien Hennote","url":"https://restaurant.michelin.fr//a6rns6u0/le-pourquoi-pas-dinard"},{"name":"Relais Louis XIII","postalCode":"75006","chef":"Manuel Martinez","url":"https://restaurant.michelin.fr//2a92anu/relais-louis-xiii-paris-06"},{"name":"Les Bories","postalCode":"84220","chef":"Grégory Mirer","url":"https://restaurant.michelin.fr//2byq8tg/les-bories-gordes"},{"name":"La Barbacane","postalCode":"11000","chef":"Jérôme Ryon","url":"https://restaurant.michelin.fr//292xja3/la-barbacane-carcassonne"},{"name":"Toya","postalCode":"57380","chef":"Loïc Villemin","url":"https://restaurant.michelin.fr//3vxe9bf/toya-faulquemont"},{"name":"Auberge de la Charme","postalCode":"21370","chef":"Nicolas Isnard et David Le Comte","url":"https://restaurant.michelin.fr//29dyqga/auberge-de-la-charme-prenois"},{"name":"La Renaissance","postalCode":"61200","chef":"Arnaud Viel","url":"https://restaurant.michelin.fr//28qk3fo/la-renaissance-argentan"},{"name":"Château de Courban","postalCode":"21520","chef":"Takashi Kinoshita","url":"https://restaurant.michelin.fr//2emcabb/chateau-de-courban-courban"},{"name":"L'Aparté","postalCode":"31850","chef":"Jérémy Morin","url":"https://restaurant.michelin.fr//xay649ax/laparte-montrabe"},{"name":"Ithurria","postalCode":"64250","chef":"Xavier Isabal","url":"https://restaurant.michelin.fr//2bbain5/ithurria-ainhoa"},{"name":"Le Kléber","postalCode":"26400","chef":"Sébastien Bonnet","url":"https://restaurant.michelin.fr//29bkalt/le-kleber-crest"},{"name":"Julien Binz","postalCode":"68770","chef":"Le Chef Julien Binz","url":"https://restaurant.michelin.fr//yi79hbnh/julien-binz-ammerschwihr"},{"name":"La Scène","postalCode":"75008","chef":"Stéphanie Le Quellec","url":"https://restaurant.michelin.fr//1ore4aj2/la-scene-paris-08"},{"name":"La Bastide de Moustiers","postalCode":"04360","chef":"Frédéric Garnier","url":"https://restaurant.michelin.fr//2cbq46s/la-bastide-de-moustiers-moustiers-sainte-marie"},{"name":"L'Atelier d'Edmond","postalCode":"73150","chef":"Benoit Vidal","url":"https://restaurant.michelin.fr//2e1ykis/latelier-dedmond-val-disere"},{"name":"Initial","postalCode":"14000","chef":"Yohann Lemonnier","url":"https://restaurant.michelin.fr//sd2y8ik/initial-caen"},{"name":"Auberge La Pomme d'Api","postalCode":"29250","chef":"Jérémie Le Calvez","url":"https://restaurant.michelin.fr//2aw36e7/auberge-la-pomme-dapi-saint-pol-de-leon"},{"name":"L'Ekrin by Laurent Azoulay","postalCode":"73550","chef":"Laurent Azoulay","url":"https://restaurant.michelin.fr//9isyik39/lekrin-laurent-azoulay-meribel-mottaret"},{"name":"Le Moulin du Roc","postalCode":"24530","chef":"Alain Gardillou","url":"https://restaurant.michelin.fr//2bk7w2q/le-moulin-du-roc-champagnac-de-belair"},{"name":"La Bonne Étape","postalCode":"04160","chef":"Jany Gleize","url":"https://restaurant.michelin.fr//2bp5jf6/la-bonne-etape-chateau-arnoux"},{"name":"Chez Michèle","postalCode":"57810","chef":"Bruno Poiré","url":"https://restaurant.michelin.fr//29pia6z/chez-michele-languimberg"},{"name":"Alléno Paris au Pavillon Ledoyen","postalCode":"75008","chef":"Yannick Alléno","url":"https://restaurant.michelin.fr//2ab5qlx/alleno-paris-au-pavillon-ledoyen-paris-08"},{"name":"Le M","postalCode":"29200","chef":"Philippe Le Bigot","url":"https://restaurant.michelin.fr//2epv4gf/le-m-brest"},{"name":"Les Oliviers","postalCode":"83150","chef":"Jérémy Czaplicki","url":"https://restaurant.michelin.fr//2e1on31/les-oliviers-bandol"},{"name":"1920","postalCode":"74120","chef":"Julien Gatillon","url":"https://restaurant.michelin.fr//3409276/1920-megeve"},{"name":"Le Baudelaire","postalCode":"75001","chef":"Guillaume Goupil","url":"https://restaurant.michelin.fr//2fdc0eg/le-baudelaire-paris-01"},{"name":"Le Sénéchal","postalCode":"12800","chef":"Michel Truchon","url":"https://restaurant.michelin.fr//2cv1ygx/le-senechal-sauveterre-de-rouergue"},{"name":"L'Olivier","postalCode":"83990","chef":"Phillipe Colinet","url":"https://restaurant.michelin.fr//2css2bw/lolivier-saint-tropez"},{"name":"Le Pré Catelan","postalCode":"75016","chef":"","url":"https://restaurant.michelin.fr//2af46v7/le-pre-catelan-paris-16"},{"name":"Les Trois Dômes","postalCode":"69002","chef":"Christian Lherm","url":"https://restaurant.michelin.fr//29svngf/les-trois-domes-lyon-02"},{"name":"Le Gourmet de Sèze","postalCode":"69006","chef":"Bernard Mariller","url":"https://restaurant.michelin.fr//29trkin/le-gourmet-de-seze-lyon-06"},{"name":"Les Loges","postalCode":"69005","chef":"Anthony Bonnet","url":"https://restaurant.michelin.fr//29t3z0x/les-loges-lyon-05"},{"name":"Le Prieuré","postalCode":"30400","chef":"Marc Fontanne","url":"https://restaurant.michelin.fr//2d2wqpd/le-prieure-villeneuve-les-avignon"},{"name":"Le Candille","postalCode":"06250","chef":"Xavier Burelle","url":"https://restaurant.michelin.fr//2a1fgdk/le-candille-mougins"},{"name":"Le Cénacle","postalCode":"31000","chef":"Thomas Vonderscher","url":"https://restaurant.michelin.fr//ua83vloo/le-cenacle-toulouse"},{"name":"Stéphane Tournié - Les Jardins de l'Opéra","postalCode":"31000","chef":"Stéphane Tournié","url":"https://restaurant.michelin.fr//2b3631b/stephane-tournie-les-jardins-de-lopera-toulouse"},{"name":"Lasserre","postalCode":"75008","chef":"Nicolas le Tirrand","url":"https://restaurant.michelin.fr//2abcqvg/lasserre-paris-08"},{"name":"Hostellerie de Plaisance","postalCode":"33330","chef":"Ronan Kervarrec","url":"https://restaurant.michelin.fr//2cp6y7n/hostellerie-de-plaisance-saint-emilion"},{"name":"L'Orangerie","postalCode":"75008","chef":"Alan Taudon","url":"https://restaurant.michelin.fr//2851286/lorangerie-paris-08"},{"name":"114, Faubourg","postalCode":"75008","chef":"Loïc Dantec","url":"https://restaurant.michelin.fr//2f3fs2n/114-faubourg-paris-08"},{"name":"Copenhague","postalCode":"75008","chef":"Andreas Møller","url":"https://restaurant.michelin.fr//2916876/copenhague-paris-08"},{"name":"Yoshinori","postalCode":"75006","chef":"Yoshinori Morié","url":"https://restaurant.michelin.fr//3361741/yoshinori-paris-06"},{"name":"Alexandre","postalCode":"30128","chef":"Michel Kayser","url":"https://restaurant.michelin.fr//2a57m2j/alexandre-garons"},{"name":"Divellec","postalCode":"75007","chef":"Mathieu Pacaud","url":"https://restaurant.michelin.fr//2852181/divellec-paris-07"},{"name":"Le Chateaubriand","postalCode":"75011","chef":"Inaki Aizpitarte","url":"https://restaurant.michelin.fr//2e6jtym/le-chateaubriand-paris-11"},{"name":"Jérôme Feck","postalCode":"51000","chef":"","url":"https://restaurant.michelin.fr//294k5c0/jerome-feck-chalons-en-champagne"},{"name":"Racines","postalCode":"35000","chef":"","url":"https://restaurant.michelin.fr//3rs0bg1/racines-rennes"},{"name":"La Table","postalCode":"59000","chef":"Thibaut Gamba","url":"https://restaurant.michelin.fr//ua271jkd/la-table-lille"},{"name":"Quinsou","postalCode":"75006","chef":"Antonin Bonnet","url":"https://restaurant.michelin.fr//a22cmkwd/quinsou-paris-06"},{"name":"Ken Kawasaki","postalCode":"75018","chef":"","url":"https://restaurant.michelin.fr//ximkypex/ken-kawasaki-paris-18"},{"name":"Le Skiff Club","postalCode":"33260","chef":"Stéphane Carrade","url":"https://restaurant.michelin.fr//2851256/le-skiff-club-la-teste-de-buch"},{"name":"Akrame","postalCode":"75008","chef":"Akrame Benallal","url":"https://restaurant.michelin.fr//2851396/akrame-paris-08"},{"name":"Le Grand Cap","postalCode":"11370","chef":"Erwan Houssin","url":"https://restaurant.michelin.fr//2851511/le-grand-cap-leucate"},{"name":"Restaurant H","postalCode":"75004","chef":"Hubert Duchenne","url":"https://restaurant.michelin.fr//2851556/restaurant-h-paris-04"},{"name":"Sushi B","postalCode":"75002","chef":"","url":"https://restaurant.michelin.fr//2852091/sushi-b-paris-02"},{"name":"Tomy & Co","postalCode":"75007","chef":"Tomy Gousset","url":"https://restaurant.michelin.fr//2852136/tomy-co-paris-07"},{"name":"Saisons","postalCode":"13006","chef":"Julien Diaz","url":"https://restaurant.michelin.fr//2852226/saisons-marseille-06"},{"name":"La Tour des Sens","postalCode":"38570","chef":"Jérémie Izarn","url":"https://restaurant.michelin.fr//2dr8ble/la-tour-des-sens-tencin"},{"name":"La Merise","postalCode":"67580","chef":"Cédric Deckert","url":"https://restaurant.michelin.fr//3614676/la-merise-laubach"},{"name":"Jean Chauvel","postalCode":"92100","chef":"Jean Chauvel","url":"https://restaurant.michelin.fr//3614956/jean-chauvel-boulogne-billancourt"},{"name":"Montée","postalCode":"75014","chef":"Takayuki Nameura","url":"https://restaurant.michelin.fr//3615586/montee-paris-14"},{"name":"Auberge Quintessence","postalCode":"06420","chef":"Christophe Billau","url":"https://restaurant.michelin.fr//3615836/auberge-quintessence-roubion"},{"name":"Les Trois Soleils de Montal","postalCode":"46400","chef":"Frédérik Bizat","url":"https://restaurant.michelin.fr//2coonxc/les-trois-soleils-de-montal-saint-cere"},{"name":"Girardin - Gastronomique","postalCode":"68000","chef":"Éric Girardin","url":"https://restaurant.michelin.fr//xha7r0xl/girardin-gastronomique-colmar"},{"name":"Les Prés d'Eugénie - Michel Guérard","postalCode":"40320","chef":"Michel Guérard","url":"https://restaurant.michelin.fr//29g9pvw/les-pres-deugenie-michel-guerard-eugenie-les-bains"},{"name":"La Ferme de l'Hospital","postalCode":"74160","chef":"Jean-Jacques Noguier","url":"https://restaurant.michelin.fr//2atzy38/la-ferme-de-lhospital-bossey"},{"name":"La Réserve Rimbaud","postalCode":"34000","chef":"Charles Fontes","url":"https://restaurant.michelin.fr//2d8d9p1/la-reserve-rimbaud-montpellier"},{"name":"Le 1947","postalCode":"73120","chef":"Yannick Alléno","url":"https://restaurant.michelin.fr//2eac1q1/le-1947-courchevel-1850"},{"name":"Auberge Grand'Maison","postalCode":"22530","chef":"Christophe Le Fur","url":"https://restaurant.michelin.fr//2a2flya/auberge-grandmaison-mur-de-bretagne"},{"name":"ERH","postalCode":"75002","chef":"Keita Kitamura","url":"https://restaurant.michelin.fr//3345846/erh-paris-02"},{"name":"Oka","postalCode":"75005","chef":"Raphaël Rego","url":"https://restaurant.michelin.fr//3855601/oka-paris-05"},{"name":"Casadelmar","postalCode":"20137","chef":"Fabio Bragagnolo","url":"https://restaurant.michelin.fr//2dk81h5143/casadelmar-porto-vecchio"},{"name":"Ursus","postalCode":"73320","chef":"Clément Bouvier","url":"https://restaurant.michelin.fr//2f5gm14/ursus-tignes"},{"name":"Le Millénaire","postalCode":"51100","chef":"Laurent et Thibault Laplaige","url":"https://restaurant.michelin.fr//2ank1c1/le-millenaire-reims"},{"name":"Stéphane Carbone","postalCode":"14000","chef":"Stéphane Carbone","url":"https://restaurant.michelin.fr//2enzj8x/stephane-carbone-caen"},{"name":"L'Émulsion","postalCode":"38080","chef":"Romain Hubert","url":"https://restaurant.michelin.fr//5jdkm0u/lemulsion-saint-alban-de-roche"},{"name":"La Maison des Bois - Marc Veyrat","postalCode":"74230","chef":"Marc Veyrat","url":"https://restaurant.michelin.fr//8zgzs262/la-maison-des-bois-marc-veyrat-manigod"},{"name":"Flaveurs","postalCode":"26000","chef":"Baptiste Poinot","url":"https://restaurant.michelin.fr//2e043qi/flaveurs-valence"},{"name":"Le Beaulieu","postalCode":"72000","chef":"Olivier Boussard","url":"https://restaurant.michelin.fr//29vchdk/le-beaulieu-le-mans"},{"name":"L'Axel","postalCode":"77300","chef":"Kunihisa Goto","url":"https://restaurant.michelin.fr//29i66ux/laxel-fontainebleau"},{"name":"Auberge du Vieux Puits","postalCode":"11360","chef":"Gilles Goujon","url":"https://restaurant.michelin.fr//29ib1yg/auberge-du-vieux-puits-fontjoncouse"},{"name":"Sur Mesure par Thierry Marx","postalCode":"75001","chef":"Thierry Marx","url":"https://restaurant.michelin.fr//6f226za/sur-mesure-par-thierry-marx-paris-01"},{"name":"Le Carmin","postalCode":"21200","chef":"Christophe Quéant","url":"https://restaurant.michelin.fr//8zb6c2d4/le-carmin-beaune"},{"name":"Le Moulin de la Gorce","postalCode":"87800","chef":"Pierre Bertranet","url":"https://restaurant.michelin.fr//2awwemv/le-moulin-de-la-gorce-la-roche-labeille"},{"name":"Maximin Hellio","postalCode":"14800","chef":"Maximin Hellio","url":"https://restaurant.michelin.fr//u945qtuv/maximin-hellio-deauville"},{"name":"Stéphane Derbord","postalCode":"21000","chef":"Stéphane Derbord","url":"https://restaurant.michelin.fr//29dkmez/stephane-derbord-dijon"},{"name":"Ô Flaveurs","postalCode":"74140","chef":"Jérôme Mamet","url":"https://restaurant.michelin.fr//2dr6qsw/o-flaveurs-douvaine"},{"name":"Le Cloître","postalCode":"04300","chef":"Jérôme Roy","url":"https://restaurant.michelin.fr//2ep5ghq/le-cloitre-mane"},{"name":"Le Coquillage","postalCode":"35350","chef":"Hugo Roellinger","url":"https://restaurant.michelin.fr//291q1xd/le-coquillage-saint-meloir-des-ondes"},{"name":"Loiseau rive Gauche","postalCode":"75007","chef":"Maxime Laurenson","url":"https://restaurant.michelin.fr//2aaahmg/loiseau-rive-gauche-paris-07"},{"name":"Le Bénaton","postalCode":"21200","chef":"Keishi Sugimura","url":"https://restaurant.michelin.fr//28u9h7z/le-benaton-beaune"},{"name":"Ivan Vautier","postalCode":"14000","chef":"Ivan Vautier","url":"https://restaurant.michelin.fr//290z3mh/ivan-vautier-caen"},{"name":"L'Auberge de la Pomme","postalCode":"27340","chef":"William Boquelet","url":"https://restaurant.michelin.fr//2al6a9i/lauberge-de-la-pomme-les-damps"},{"name":"La Table de Patrick Raingeard","postalCode":"06360","chef":"Patrick  Raingeard","url":"https://restaurant.michelin.fr//2e2m5rq/la-table-de-patrick-raingeard-eze-bord-de-mer"},{"name":"Loiseau des Vignes","postalCode":"21200","chef":"Mourad Haddouche","url":"https://restaurant.michelin.fr//2ef8rpt/loiseau-des-vignes-beaune"},{"name":"Assa","postalCode":"41000","chef":"Fumiko et Anthony Maubert","url":"https://restaurant.michelin.fr//3m0pjn8/assa-blois"},{"name":"Pierre Gagnaire","postalCode":"75008","chef":"Pierre GAGNAIRE","url":"https://restaurant.michelin.fr//2abhfav/pierre-gagnaire-paris-08"},{"name":"La Table de Philippe Girardon","postalCode":"38121","chef":"Philippe Girardon","url":"https://restaurant.michelin.fr//2b8j4np/la-table-de-philippe-girardon-chonas-lamballan"},{"name":"Le Strasbourg","postalCode":"57230","chef":"Lutz Janisch","url":"https://restaurant.michelin.fr//28x69qn/le-strasbourg-bitche"},{"name":"Carré des Feuillants","postalCode":"75001","chef":"Alain Dutournier","url":"https://restaurant.michelin.fr//2a7gjv9/carre-des-feuillants-paris-01"},{"name":"Ritz Paris - Les Jardins de l'Espadon","postalCode":"75001","chef":"Nicolas Sale","url":"https://restaurant.michelin.fr//2a7bw8d/ritz-paris-les-jardins-de-lespadon-paris-01"},{"name":"Sylvestre","postalCode":"75007","chef":"Sylvestre Wahid","url":"https://restaurant.michelin.fr//2fe7j1g/sylvestre-paris-07"},{"name":"Maison Lameloise","postalCode":"71150","chef":"Eric Pras","url":"https://restaurant.michelin.fr//2bnef6m/maison-lameloise-chagny"},{"name":"Ritz Paris - La Table de l'Espadon","postalCode":"75001","chef":"Nicolas Sale","url":"https://restaurant.michelin.fr//yhoi9vry/ritz-paris-la-table-de-lespadon-paris-01"},{"name":"Le Gindreau","postalCode":"46150","chef":"Pascal Bardet","url":"https://restaurant.michelin.fr//2avrk5m/le-gindreau-saint-medard"},{"name":"Auberge de Clochemerle","postalCode":"69460","chef":"Romain Barthe","url":"https://restaurant.michelin.fr//2dckc0s/auberge-de-clochemerle-vaux-en-beaujolais"},{"name":"Aigue Marine","postalCode":"22220","chef":"LAISNEY Stanislas","url":"https://restaurant.michelin.fr//2cz1lgu/aigue-marine-treguier"},{"name":"Atmosphères","postalCode":"73370","chef":"Alain Périllat-Mercerot","url":"https://restaurant.michelin.fr//28zmco9/atmospheres-le-bourget-du-lac"},{"name":"La Grande Maison de Bernard Magrez","postalCode":"33000","chef":"Jean-Denis Lebras","url":"https://restaurant.michelin.fr//a7u4fcer/la-grande-maison-de-bernard-magrez-bordeaux"},{"name":"Le France","postalCode":"25130","chef":"Hugues Droz","url":"https://restaurant.michelin.fr//2d32mvv/le-france-villers-le-lac"},{"name":"La Galinette","postalCode":"66000","chef":"Christophe Comes","url":"https://restaurant.michelin.fr//2ajskia/la-galinette-perpignan"},{"name":"Thierry Drapeau","postalCode":"85260","chef":"Thierry Drapeau","url":"https://restaurant.michelin.fr//2dnrb62/thierry-drapeau-saint-sulpice-le-verdon"},{"name":"Maison Jeunet","postalCode":"39600","chef":"Steven Naessens","url":"https://restaurant.michelin.fr//28pylpu/maison-jeunet-arbois"},{"name":"L'Amphitryon","postalCode":"31770","chef":"Yannick Delpech","url":"https://restaurant.michelin.fr//2b3pf5k/lamphitryon-colomiers"},{"name":"Paloma","postalCode":"06250","chef":"Nicolas Decherchi","url":"https://restaurant.michelin.fr//280mq6yn/paloma-mougins"},{"name":"L'Atelier de Jean-Luc Rabanel","postalCode":"13200","chef":"Jean-Luc Rabanel","url":"https://restaurant.michelin.fr//2e06dui/latelier-de-jean-luc-rabanel-arles"},{"name":"Dan B. - La Table de Ventabren","postalCode":"13122","chef":"Dan Bessoudo","url":"https://restaurant.michelin.fr//2b7at88/dan-b-la-table-de-ventabren-ventabren"},{"name":"Aida","postalCode":"75007","chef":"Koji Aida","url":"https://restaurant.michelin.fr//2dzh7q2/aida-paris-07"},{"name":"Auberge La Fenière","postalCode":"84160","chef":"Reine et Nadia Sammut","url":"https://restaurant.michelin.fr//29sgjsx279/auberge-la-feniere-cadenet"},{"name":"Christopher Coutanceau","postalCode":"17000","chef":"Christopher Coutanceau","url":"https://restaurant.michelin.fr//2apfrj5/christopher-coutanceau-la-rochelle"},{"name":"Le Manoir du Lys","postalCode":"61140","chef":"Franck Quinton","url":"https://restaurant.michelin.fr//2bfnmbt/le-manoir-du-lys-bagnoles-de-lorne-normandie"},{"name":"L'Étang du Moulin","postalCode":"25210","chef":"Jacques Barnachon","url":"https://restaurant.michelin.fr//28xqe8v/letang-du-moulin-bonnetage"},{"name":"Une Île","postalCode":"49000","chef":"Gérard Bossé","url":"https://restaurant.michelin.fr//2erjwfi/une-ile-angers"},{"name":"Le Clocher des Pères","postalCode":"73130","chef":"Pierre Troccaz","url":"https://restaurant.michelin.fr//h43i086/le-clocher-des-peres-saint-martin-sur-la-chambre"},{"name":"Qui plume la Lune","postalCode":"75011","chef":"Jacky Ribault","url":"https://restaurant.michelin.fr//jh83esx/qui-plume-la-lune-paris-11"},{"name":"La Vague d'Or - Cheval Blanc St-Tropez","postalCode":"83990","chef":"Arnaud Donckele","url":"https://restaurant.michelin.fr//2csqkr7/la-vague-dor-cheval-blanc-st-tropez-saint-tropez"},{"name":"René et Maxime Meilleur","postalCode":"73440","chef":"René et Maxime Meilleur","url":"https://restaurant.michelin.fr//2avet55/rene-et-maxime-meilleur-saint-martin-de-belleville"},{"name":"Marsan - Hélène Darroze","postalCode":"75006","chef":"Hélène Darroze","url":"https://restaurant.michelin.fr//2a93ort/marsan-helene-darroze-paris-06"},{"name":"Maison Dufossé - La Table","postalCode":"57000","chef":"Christophe Dufossé","url":"https://restaurant.michelin.fr//2dse7wh/maison-dufosse-la-table-metz"},{"name":"Flocons de Sel","postalCode":"74120","chef":"Emmanuel Renaut","url":"https://restaurant.michelin.fr//29wzk9t/flocons-de-sel-megeve"},{"name":"Likoké","postalCode":"07140","chef":"Piet Huysentruyt","url":"https://restaurant.michelin.fr//1ad26y4c/likoke-les-vans"},{"name":"Albert 1er","postalCode":"74400","chef":"Damien Leveau","url":"https://restaurant.michelin.fr//2bnvpvu/albert-1er-chamonix-mont-blanc"},{"name":"Le Champ des Lunes","postalCode":"84360","chef":"Jérôme Faure","url":"https://restaurant.michelin.fr//ua2fx9zg/le-champ-des-lunes-lauris"},{"name":"La Table du 11","postalCode":"78000","chef":"Jean-Baptiste Lavergne-Morazzani","url":"https://restaurant.michelin.fr//d4dm7ddr/la-table-du-11-versailles"},{"name":"Le Strasbourg","postalCode":"57230","chef":"Lutz Janisch","url":"https://restaurant.michelin.fr//28x69qn/le-strasbourg-bitche"},{"name":"Carré des Feuillants","postalCode":"75001","chef":"Alain Dutournier","url":"https://restaurant.michelin.fr//2a7gjv9/carre-des-feuillants-paris-01"},{"name":"Ritz Paris - Les Jardins de l'Espadon","postalCode":"75001","chef":"Nicolas Sale","url":"https://restaurant.michelin.fr//2a7bw8d/ritz-paris-les-jardins-de-lespadon-paris-01"},{"name":"Sylvestre","postalCode":"75007","chef":"Sylvestre Wahid","url":"https://restaurant.michelin.fr//2fe7j1g/sylvestre-paris-07"},{"name":"Maison Lameloise","postalCode":"71150","chef":"Eric Pras","url":"https://restaurant.michelin.fr//2bnef6m/maison-lameloise-chagny"},{"name":"Ritz Paris - La Table de l'Espadon","postalCode":"75001","chef":"Nicolas Sale","url":"https://restaurant.michelin.fr//yhoi9vry/ritz-paris-la-table-de-lespadon-paris-01"},{"name":"Le Gindreau","postalCode":"46150","chef":"Pascal Bardet","url":"https://restaurant.michelin.fr//2avrk5m/le-gindreau-saint-medard"},{"name":"Auberge de Clochemerle","postalCode":"69460","chef":"Romain Barthe","url":"https://restaurant.michelin.fr//2dckc0s/auberge-de-clochemerle-vaux-en-beaujolais"},{"name":"Aigue Marine","postalCode":"22220","chef":"LAISNEY Stanislas","url":"https://restaurant.michelin.fr//2cz1lgu/aigue-marine-treguier"},{"name":"Atmosphères","postalCode":"73370","chef":"Alain Périllat-Mercerot","url":"https://restaurant.michelin.fr//28zmco9/atmospheres-le-bourget-du-lac"},{"name":"La Grande Maison de Bernard Magrez","postalCode":"33000","chef":"Jean-Denis Lebras","url":"https://restaurant.michelin.fr//a7u4fcer/la-grande-maison-de-bernard-magrez-bordeaux"},{"name":"Le France","postalCode":"25130","chef":"Hugues Droz","url":"https://restaurant.michelin.fr//2d32mvv/le-france-villers-le-lac"},{"name":"La Galinette","postalCode":"66000","chef":"Christophe Comes","url":"https://restaurant.michelin.fr//2ajskia/la-galinette-perpignan"},{"name":"Thierry Drapeau","postalCode":"85260","chef":"Thierry Drapeau","url":"https://restaurant.michelin.fr//2dnrb62/thierry-drapeau-saint-sulpice-le-verdon"},{"name":"Maison Jeunet","postalCode":"39600","chef":"Steven Naessens","url":"https://restaurant.michelin.fr//28pylpu/maison-jeunet-arbois"},{"name":"L'Amphitryon","postalCode":"31770","chef":"Yannick Delpech","url":"https://restaurant.michelin.fr//2b3pf5k/lamphitryon-colomiers"},{"name":"Paloma","postalCode":"06250","chef":"Nicolas Decherchi","url":"https://restaurant.michelin.fr//280mq6yn/paloma-mougins"},{"name":"L'Atelier de Jean-Luc Rabanel","postalCode":"13200","chef":"Jean-Luc Rabanel","url":"https://restaurant.michelin.fr//2e06dui/latelier-de-jean-luc-rabanel-arles"},{"name":"Au Déjeuner de Sousceyrac","postalCode":"46190","chef":"Patrick Lagnès","url":"https://restaurant.michelin.fr//2b0i0m7/au-dejeuner-de-sousceyrac-sousceyrac-en-quercy"},{"name":"Le Cercle","postalCode":"18000","chef":"Pascal Chaupitre et Christophe Lot","url":"https://restaurant.michelin.fr//9trxkaz/le-cercle-bourges"},{"name":"Pertica","postalCode":"41100","chef":"Guillaume Foucault","url":"https://restaurant.michelin.fr//3u9bmm3c/pertica-vendome"},{"name":"Cayola","postalCode":"85180","chef":"Sébastien Bonavita","url":"https://restaurant.michelin.fr//2arajo6/cayola-chateau-dolonne"},{"name":"La Closerie","postalCode":"84240","chef":"Olivier Alemany","url":"https://restaurant.michelin.fr//2eebgpo/la-closerie-ansouis"},{"name":"Au Souper Fin","postalCode":"76690","chef":"Eric Buisset","url":"https://restaurant.michelin.fr//29783wk/au-souper-fin-frichemesnil"},{"name":"Le Lièvre Gourmand","postalCode":"45000","chef":"Tristan Robreau","url":"https://restaurant.michelin.fr//2f48mjv/le-lievre-gourmand-orleans"},{"name":"Septime","postalCode":"75011","chef":"Bertrand Grébaut","url":"https://restaurant.michelin.fr//3xrgyvn/septime-paris-11"},{"name":"L'Atelier de Joël Robuchon - Étoile","postalCode":"75008","chef":"","url":"https://restaurant.michelin.fr//2feca5y/latelier-de-joel-robuchon-etoile-paris-08"},{"name":"L'Esquisse","postalCode":"74000","chef":"Stéphane Dattrino","url":"https://restaurant.michelin.fr//9tr3fvt/lesquisse-annecy"},{"name":"La Ribaudière","postalCode":"16200","chef":"Thierry Verrat","url":"https://restaurant.michelin.fr//29o99va/la-ribaudiere-bourg-charente"},{"name":"L'Essentiel","postalCode":"24000","chef":"Eric Vidal","url":"https://restaurant.michelin.fr//2dwdwxo/lessentiel-perigueux"},{"name":"Brikéténia","postalCode":"64210","chef":"Martin et David Ibarboure","url":"https://restaurant.michelin.fr//2es4wcd/briketenia-guethary"},{"name":"Auberge du Vert Mont","postalCode":"59299","chef":"Florent Ladeyn","url":"https://restaurant.michelin.fr//13ppe4f4/auberge-du-vert-mont-boeschepe"},{"name":"Auberge de l'Abbaye","postalCode":"01500","chef":"Ivan Lavaux","url":"https://restaurant.michelin.fr//2dnoa2o/auberge-de-labbaye-ambronay"},{"name":"Un Parfum de Gourmandise","postalCode":"24000","chef":"Sébastien Riou","url":"https://restaurant.michelin.fr//p47009z/un-parfum-de-gourmandise-perigueux"},{"name":"Hervé Busset","postalCode":"12320","chef":"Hervé Busset","url":"https://restaurant.michelin.fr//2brjniu/herve-busset-conques-en-rouergue"},{"name":"Le Favre d'Anne","postalCode":"49000","chef":"Pascal Favre d'Anne","url":"https://restaurant.michelin.fr//dekdkvvj/le-favre-danne-angers"},{"name":"Assiette Champenoise","postalCode":"51430","chef":"Arnaud Lallement","url":"https://restaurant.michelin.fr//2cliodi/assiette-champenoise-tinqueux"},{"name":"La Table de Franck Putelat","postalCode":"11000","chef":"Franck Putelat","url":"https://restaurant.michelin.fr//2e06z2s/la-table-de-franck-putelat-carcassonne"},{"name":"Les Pêcheurs","postalCode":"06600","chef":"Nicolas Rondelli","url":"https://restaurant.michelin.fr//29ol879/les-pecheurs-antibes"},{"name":"Le Relais Bernard Loiseau","postalCode":"21210","chef":"Patrick Bertron","url":"https://restaurant.michelin.fr//2cur8yy/le-relais-bernard-loiseau-saulieu"},{"name":"La Marelle","postalCode":"01960","chef":"Didier Goiffon","url":"https://restaurant.michelin.fr//28zbkc6/la-marelle-peronnas"},{"name":"Le Violon d'Ingres","postalCode":"75007","chef":"Christian Constant","url":"https://restaurant.michelin.fr//2aa5u1w/le-violon-dingres-paris-07"},{"name":"Relais de la Poste","postalCode":"40140","chef":"Jean Coussau","url":"https://restaurant.michelin.fr//2c6dfrz/relais-de-la-poste-magescq"},{"name":"L'Auberge des Glazicks","postalCode":"29550","chef":"Olivier Bellin","url":"https://restaurant.michelin.fr//2akhln2/lauberge-des-glazicks-plomodiern"},{"name":"Aux Pesked","postalCode":"22000","chef":"Mathieu Aumont","url":"https://restaurant.michelin.fr//2aru9pt/aux-pesked-saint-brieuc"},{"name":"Paul Bocuse","postalCode":"69660","chef":"Paul BOCUSE","url":"https://restaurant.michelin.fr//29tbf1t/paul-bocuse-collonges-au-mont-dor"},{"name":"Le Petit Nice","postalCode":"13007","chef":"Gérald Passédat","url":"https://restaurant.michelin.fr//2c76rmd/le-petit-nice-marseille-07"},{"name":"L'Oustau de Baumanière","postalCode":"13520","chef":"Glenn Viel","url":"https://restaurant.michelin.fr//28tn79w/loustau-de-baumaniere-les-baux-de-provence"},{"name":"Dominique Bouchet","postalCode":"75008","chef":"Dominique Bouchet","url":"https://restaurant.michelin.fr//2doe0bh/dominique-bouchet-paris-08"},{"name":"Les Fresques","postalCode":"24240","chef":"Didier Casaguana","url":"https://restaurant.michelin.fr//2ax5yy8/les-fresques-monestier"},{"name":"La Dame de Pic","postalCode":"75001","chef":"Anne-Sophie Pic","url":"https://restaurant.michelin.fr//jgnpf8y/la-dame-de-pic-paris-01"},{"name":"Neige d'Été","postalCode":"75015","chef":"Hideki Nishi","url":"https://restaurant.michelin.fr//9fkib5i9/neige-dete-paris-15"},{"name":"Le Pressoir","postalCode":"56890","chef":"Vincent David","url":"https://restaurant.michelin.fr//2b6sa1u/le-pressoir-saint-ave"},{"name":"Bruno","postalCode":"83510","chef":"Benjamin Bruno","url":"https://restaurant.michelin.fr//29s5co3/bruno-lorgues"},{"name":"Le Vivarais","postalCode":"07600","chef":"Stéphane Polly","url":"https://restaurant.michelin.fr//2fay1do/le-vivarais-vals-les-bains"},{"name":"L'Odas","postalCode":"76000","chef":"Olivier Da Silva","url":"https://restaurant.michelin.fr//33tyod0j/lodas-rouen"},{"name":"Les Bacchanales","postalCode":"06140","chef":"Christophe Dufau","url":"https://restaurant.michelin.fr//2en7eas/les-bacchanales-vence"},{"name":"Auberge du Cheval Blanc","postalCode":"67510","chef":"Pascal Bastian","url":"https://restaurant.michelin.fr//29qf1y7/auberge-du-cheval-blanc-lembach"},{"name":"Domaine des Hauts de Loire","postalCode":"41150","chef":"Rémy Giraud","url":"https://restaurant.michelin.fr//2cedaza/domaine-des-hauts-de-loire-onzain"},{"name":"Radio","postalCode":"63400","chef":"Wilfrid Chaplain","url":"https://restaurant.michelin.fr//2bqajf6/radio-chamalieres"},{"name":"L'Arcane","postalCode":"75018","chef":"Laurent Magnin","url":"https://restaurant.michelin.fr//vx40rloc/larcane-paris-18"},{"name":"Georges Blanc","postalCode":"01540","chef":"Georges BLANC","url":"https://restaurant.michelin.fr//2d3ergs/georges-blanc-vonnas"},{"name":"Le Carré d'Alethius","postalCode":"07800","chef":"Olivier Samin","url":"https://restaurant.michelin.fr//2fa4jx5/le-carre-dalethius-charmes-sur-rhone"},{"name":"Le Fanal","postalCode":"66650","chef":"Pascal Borrell","url":"https://restaurant.michelin.fr//yw26sgs/le-fanal-banyuls-sur-mer"},{"name":"1131","postalCode":"21360","chef":"Guillaume Royer","url":"https://restaurant.michelin.fr//2e4epe8/1131-la-bussiere-sur-ouche"},{"name":"Guy Savoy","postalCode":"75006","chef":"Guy SAVOY","url":"https://restaurant.michelin.fr//2afciv4/guy-savoy-paris-06"},{"name":"La Licorne Royale","postalCode":"27480","chef":"Christophe Poirier","url":"https://restaurant.michelin.fr//2ehwc2a/la-licorne-royale-lyons-la-foret"},{"name":"Les Rosiers","postalCode":"64200","chef":"Andrée et Stéphane Rosier","url":"https://restaurant.michelin.fr//2epi2a4/les-rosiers-biarritz"},{"name":"Le Pergolèse","postalCode":"75116","chef":"Stéphane Gaborieau","url":"https://restaurant.michelin.fr//2aeinde/le-pergolese-paris-16"},{"name":"Villa Archange","postalCode":"06110","chef":"Bruno Oger","url":"https://restaurant.michelin.fr//2f4ok2n/villa-archange-le-cannet"},{"name":"Loiseau des Ducs","postalCode":"21000","chef":"Louis-Philippe Vigilant","url":"https://restaurant.michelin.fr//2jd4ivca/loiseau-des-ducs-dijon"},{"name":"Raphaël Vionnet","postalCode":"74200","chef":"Raphaël Vionnet","url":"https://restaurant.michelin.fr//6pyhps6h/raphael-vionnet-thonon-les-bains"},{"name":"Maison Chabran - La Grande Table","postalCode":"26600","chef":"Sandrine Dupin","url":"https://restaurant.michelin.fr//2d0la2d/maison-chabran-la-grande-table-pont-de-lisere"},{"name":"Têtedoie","postalCode":"69005","chef":"Christian Têtedoie","url":"https://restaurant.michelin.fr//29tfnmd288/tetedoie-lyon-05"},{"name":"Domaine de Rochevilaine","postalCode":"56190","chef":"Maxime Nouail","url":"https://restaurant.michelin.fr//2bij0t1/domaine-de-rochevilaine-billiers"},{"name":"Mère Brazier","postalCode":"69001","chef":"Mathieu Viannay","url":"https://restaurant.michelin.fr//2et3r6g/mere-brazier-lyon"},{"name":"Alcyone","postalCode":"13002","chef":"Lionel Levy","url":"https://restaurant.michelin.fr//3f9eksg5n/alcyone-marseille-02"},{"name":"L'Épuisette","postalCode":"13007","chef":"Guillaume Sourrieu","url":"https://restaurant.michelin.fr//29w1hx9/lepuisette-marseille-07"},{"name":"Cobéa","postalCode":"75014","chef":"Philippe Bélissent","url":"https://restaurant.michelin.fr//2adr3mu/cobea-paris-14"},{"name":"Auberge Frankenbourg","postalCode":"67730","chef":"Sébastien Buecher","url":"https://restaurant.michelin.fr//29qv5p8/auberge-frankenbourg-la-vancelle"},{"name":"Une Table au Sud","postalCode":"13002","chef":"Ludovic Turac","url":"https://restaurant.michelin.fr//29w4kky/une-table-au-sud-marseille-02"},{"name":"L'Escarbille","postalCode":"92190","chef":"Régis Douysset","url":"https://restaurant.michelin.fr//2dtzs6c/lescarbille-meudon"},{"name":"La Nouvelle Auberge","postalCode":"68230","chef":"Bernard Leray","url":"https://restaurant.michelin.fr//2a2adlj/la-nouvelle-auberge-wihr-au-val"},{"name":"Les Terrasses de Lyon","postalCode":"69005","chef":"David Delsart","url":"https://restaurant.michelin.fr//29t2ib7/les-terrasses-de-lyon-lyon-05"},{"name":"La Signoria","postalCode":"20260","chef":"Alexandre Fabris","url":"https://restaurant.michelin.fr//2bs90l6/la-signoria-calvi"},{"name":"La Chaumière","postalCode":"39100","chef":"Joël Césari","url":"https://restaurant.michelin.fr//2buz227/la-chaumiere-dole"},{"name":"Alain Llorca","postalCode":"06480","chef":"Alain Llorca","url":"https://restaurant.michelin.fr//2e4vi29/alain-llorca-la-colle-sur-loup"},{"name":"Pur' - Jean-François Rouquette","postalCode":"75002","chef":"Jean-François Rouquette","url":"https://restaurant.michelin.fr//2dqiunf/pur-jean-francois-rouquette-paris-02"},{"name":"Maison Decoret","postalCode":"03200","chef":"Jacques Decoret","url":"https://restaurant.michelin.fr//2b7zqic/maison-decoret-vichy"},{"name":"Château d'Adoménil","postalCode":"54300","chef":"Cyril Leclerc","url":"https://restaurant.michelin.fr//2c5ztru/chateau-dadomenil-luneville"},{"name":"L'Oasis","postalCode":"06210","chef":"Alain Montigny","url":"https://restaurant.michelin.fr//29v9df2/loasis-mandelieu-la-napoule"},{"name":"Penati al Baretto","postalCode":"75008","chef":"Alberico Penati","url":"https://restaurant.michelin.fr//9oo4cel/penati-al-baretto-paris-08"},{"name":"Frédéric Simonin","postalCode":"75017","chef":"FREDERIC SIMONIN","url":"https://restaurant.michelin.fr//2f8857v/frederic-simonin-paris-17"},{"name":"Logis de la Cadène","postalCode":"33330","chef":"Alexandre Baumard","url":"https://restaurant.michelin.fr//3kw7mh1/logis-de-la-cadene-saint-emilion"},{"name":"La Gourmandière - La Table d'Olivier","postalCode":"56000","chef":"Olivier Samson","url":"https://restaurant.michelin.fr//3n5gkk2/la-gourmandiere-la-table-dolivier-vannes"},{"name":"AM par Alexandre Mazzia","postalCode":"13008","chef":"Alexandre Mazzia","url":"https://restaurant.michelin.fr//4gq15sff/am-par-alexandre-mazzia-marseille-08"},{"name":"Arpège","postalCode":"75007","chef":"Alain Passard","url":"https://restaurant.michelin.fr//2aa11xs/arpege-paris-07"},{"name":"Les Cèdres","postalCode":"26600","chef":"Jacques Bertrand","url":"https://restaurant.michelin.fr//2appio4/les-cedres-granges-les-beaumont"},{"name":"Benoit","postalCode":"75004","chef":"Fabienne Eymard","url":"https://restaurant.michelin.fr//2a8isn4/benoit-paris-04"},{"name":"Les Berceaux","postalCode":"51200","chef":"Patrick Michelon","url":"https://restaurant.michelin.fr//29fhuzu/les-berceaux-epernay"},{"name":"Dominique Bucaille","postalCode":"04100","chef":"Dominique et Julia Bucaille","url":"https://restaurant.michelin.fr//nwxo8h9/dominique-bucaille-manosque"},{"name":"La Table du Connétable","postalCode":"60500","chef":"Julien Lucas","url":"https://restaurant.michelin.fr//jgutdlg/la-table-du-connetable-chantilly"},{"name":"Auberge St-Laurent","postalCode":"68510","chef":"Laurent Arbeit","url":"https://restaurant.michelin.fr//2b05ga9/auberge-st-laurent-sierentz"},{"name":"L'Aupiho","postalCode":"13520","chef":"Lieven Van Aken","url":"https://restaurant.michelin.fr//9wstvf9t/laupiho-les-baux-de-provence"},{"name":"Flaveur","postalCode":"06000","chef":"Gaël et Mickaël Tourteaux","url":"https://restaurant.michelin.fr//2exgwy4/flaveur-nice"},{"name":"Apicius","postalCode":"63000","chef":"Arkadiusz Zuchmanski","url":"https://restaurant.michelin.fr//2ek9zhh/apicius-clermont-ferrand"},{"name":"Jean-Claude Leclerc","postalCode":"63000","chef":"Jean-Claude  Leclerc","url":"https://restaurant.michelin.fr//297ge86/jean-claude-leclerc-clermont-ferrand"},{"name":"Jean-Luc Tartarin","postalCode":"76600","chef":"Jean-Luc Tartarin","url":"https://restaurant.michelin.fr//2enmc29/jean-luc-tartarin-le-havre"},{"name":"Côté Cuisine","postalCode":"56340","chef":"Laëtitia et Stéphane Cosnier","url":"https://restaurant.michelin.fr//mhm4jdd/cote-cuisine-carnac"},{"name":"Pages","postalCode":"75016","chef":"Ryuji Teshima","url":"https://restaurant.michelin.fr//9idrgh03/pages-paris-16"},{"name":"La Marine","postalCode":"50270","chef":"Damien Goguet","url":"https://restaurant.michelin.fr//2bgh04f/la-marine-carteret"},{"name":"Rodolphe","postalCode":"76000","chef":"Rodolphe Pottier","url":"https://restaurant.michelin.fr//j9cof0s1/rodolphe-rouen"},{"name":"La Vieille Tour","postalCode":"22190","chef":"Nicolas Adam","url":"https://restaurant.michelin.fr//2arxchk/la-vieille-tour-plerin"},{"name":"SEPT","postalCode":"31000","chef":"Guillaume Momboisse","url":"https://restaurant.michelin.fr//2b38wht/sept-toulouse"},{"name":"Le Roc Alto","postalCode":"05350","chef":"Alexandre Lechêne","url":"https://restaurant.michelin.fr//8xdk7lc4/le-roc-alto-saint-veran"},{"name":"Le Pousse-Pied","postalCode":"85360","chef":"Anthony Lumet","url":"https://restaurant.michelin.fr//376ocf6f/le-pousse-pied-la-tranche-sur-mer"},{"name":"Le Clos St-Pierre","postalCode":"06650","chef":"Daniel Ettlinger","url":"https://restaurant.michelin.fr//2aqst5c/le-clos-st-pierre-saint-pons"},{"name":"Garopapilles","postalCode":"33000","chef":"Tanguy Laviale","url":"https://restaurant.michelin.fr//3wsi04j3/garopapilles-bordeaux"},{"name":"Auberge du Paradis","postalCode":"71570","chef":"Cyril Laugier","url":"https://restaurant.michelin.fr//2armsjm/auberge-du-paradis-platre-durand"},{"name":"Le Pavillon","postalCode":"62520","chef":"William Elliott","url":"https://restaurant.michelin.fr//2b3t8kh/le-pavillon-le-touquet-paris-plage"},{"name":"Racine","postalCode":"51100","chef":"Kazuyuki Tanaka","url":"https://restaurant.michelin.fr//eiak4cnv/racine-reims"},{"name":"Frenchie","postalCode":"75002","chef":"Gregory Marchand","url":"https://restaurant.michelin.fr//2f44u91/frenchie-paris-02"},{"name":"Château de Vauchoux","postalCode":"70170","chef":"Jean-Michel Turin","url":"https://restaurant.michelin.fr//2alwjjs/chateau-de-vauchoux-vauchoux"},{"name":"Pèir","postalCode":"84220","chef":"Loris Cornacchia","url":"https://restaurant.michelin.fr//r9fvmyyv/peir-gordes"},{"name":"Palégrié","postalCode":"38250","chef":"Guillaume Monjuré","url":"https://restaurant.michelin.fr//2d2itah0/palegrie-correncon-en-vercors"},{"name":"Pertinence","postalCode":"75007","chef":"Kwen Liew et Ryunosuke Naito","url":"https://restaurant.michelin.fr//5sermc3/pertinence-paris-07"},{"name":"L'Impertinent","postalCode":"64200","chef":"Fabian Feldmann","url":"https://restaurant.michelin.fr//h2j2em3/limpertinent-biarritz"},{"name":"La Matelote","postalCode":"62200","chef":"Tony Lestienne","url":"https://restaurant.michelin.fr//28yvb9u/la-matelote-boulogne-sur-mer"},{"name":"Le Farçon","postalCode":"73125","chef":"Julien Machet","url":"https://restaurant.michelin.fr//2dczscn/le-farcon-la-tania"},{"name":"Kasbür","postalCode":"67700","chef":"Yves Kieffer","url":"https://restaurant.michelin.fr//2az3rad/kasbur-monswiller"},{"name":"Le Hittau","postalCode":"40230","chef":"Yannick Duc","url":"https://restaurant.michelin.fr//2d9288s/le-hittau-saint-vincent-de-tyrosse"},{"name":"La Mirande","postalCode":"84000","chef":"Florent Pietravalle","url":"https://restaurant.michelin.fr//2bf3czu/la-mirande-avignon"},{"name":"Le Pressoir d'Argent - Gordon Ramsay","postalCode":"33000","chef":"Gordon Ramsay et le Chef Exécutif Gilad Peled","url":"https://restaurant.michelin.fr//2epcrm9/le-pressoir-dargent-gordon-ramsay-bordeaux"},{"name":"Manoir de la Boulaie","postalCode":"44115","chef":"Laurent Saudeau","url":"https://restaurant.michelin.fr//2a3ey4n/manoir-de-la-boulaie-haute-goulaine"},{"name":"Le Saison","postalCode":"35760","chef":"David Etcheverry","url":"https://restaurant.michelin.fr//2ao631n/le-saison-saint-gregoire"},{"name":"La Maison d'à Côté","postalCode":"41350","chef":"Christophe Hay","url":"https://restaurant.michelin.fr//2dxwn73/la-maison-da-cote-montlivault"},{"name":"La Fourchette des Ducs","postalCode":"67210","chef":"Nicolas Stamm","url":"https://restaurant.michelin.fr//2a5ztne/la-fourchette-des-ducs-obernai"},{"name":"Lamartine","postalCode":"73370","chef":"Pierre Marin","url":"https://restaurant.michelin.fr//28zi7ln/lamartine-le-bourget-du-lac"},{"name":"Jérôme Nutile - Le Mas de Boudan","postalCode":"30000","chef":"Jérôme Nutile","url":"https://restaurant.michelin.fr//cne1oxue/jerome-nutile-le-mas-de-boudan-nimes"},{"name":"Aux Anges","postalCode":"42300","chef":"Marco Viganò","url":"https://restaurant.michelin.fr//3m56yu9/aux-anges-roanne"},{"name":"Le Petit Hôtel du Grand Large","postalCode":"56510","chef":"Hervé Bourdon","url":"https://restaurant.michelin.fr//2dy7rqn/le-petit-hotel-du-grand-large-portivy"},{"name":"Le Patio","postalCode":"33120","chef":"Thierry Renou","url":"https://restaurant.michelin.fr//28q4ohd/le-patio-arcachon"},{"name":"Épicure","postalCode":"75008","chef":"Eric Frechon","url":"https://restaurant.michelin.fr//2ab8pfp/epicure-paris-08"},{"name":"La Promenade","postalCode":"37350","chef":"Fabrice et Jacky Dallais","url":"https://restaurant.michelin.fr//2ajy6gr/la-promenade-le-petit-pressigny"},{"name":"Alliance","postalCode":"75005","chef":"Toshitaka Omiya","url":"https://restaurant.michelin.fr//t4cp5kaa/alliance-paris-05"},{"name":"Le Vieux Logis","postalCode":"24510","chef":"Vincent Arnould","url":"https://restaurant.michelin.fr//2cz3yz2/le-vieux-logis-tremolat"},{"name":"Le Grand Restaurant - Jean-François Piège","postalCode":"75008","chef":"Jean-François Piège","url":"https://restaurant.michelin.fr//u5aaw2ah/le-grand-restaurant-jean-francois-piege-paris-08"},{"name":"Pierre Reboul","postalCode":"13290","chef":"Pierre Reboul","url":"https://restaurant.michelin.fr//9pmxzh3/pierre-reboul-aix-en-provence"},{"name":"Baieta","postalCode":"75005","chef":"Julia Sedefdjian","url":"https://restaurant.michelin.fr//3750236/baieta-paris-05"},{"name":"Prima","postalCode":"74120","chef":"Nicolas Hensinger","url":"https://restaurant.michelin.fr//3492296/prima-megeve"},{"name":"La Palmeraie","postalCode":"83420","chef":"Jimmy Coutel","url":"https://restaurant.michelin.fr//2btuhm0/la-palmeraie-la-croix-valmer"},{"name":"La Palme d'Or","postalCode":"06400","chef":"Christian Sinicropi","url":"https://restaurant.michelin.fr//292bk5u/la-palme-dor-cannes"},{"name":"Automne","postalCode":"75011","chef":"Nobuyuki Akishige","url":"https://restaurant.michelin.fr//3547121/automne-paris-11"},{"name":"Le Pré - Xavier Beaudiment","postalCode":"63830","chef":"Xavier Beaudiment","url":"https://restaurant.michelin.fr//2ev16nl/le-pre-xavier-beaudiment-durtol"},{"name":"Auberge des Saints Pères","postalCode":"93600","chef":"Jean-Claude Cahagnet","url":"https://restaurant.michelin.fr//2aga7gz/auberge-des-saints-peres-aulnay-sous-bois"},{"name":"Louison","postalCode":"13610","chef":"Gérald Passedat","url":"https://restaurant.michelin.fr//3068881/louison-le-puy-sainte-reparade"},{"name":"Le Pavé d'Auge","postalCode":"14430","chef":"Jérôme Bansard","url":"https://restaurant.michelin.fr//28wgjgo/le-pave-dauge-beuvron-en-auge"},{"name":"Auberge du Cellier","postalCode":"66720","chef":"Pierre-Louis Marin","url":"https://restaurant.michelin.fr//2a02pjj/auberge-du-cellier-montner"},{"name":"Elsa","postalCode":"06190","chef":"Paolo Sari","url":"https://restaurant.michelin.fr//9p2kj2b/elsa-cap-martin"},{"name":"La Condesa","postalCode":"75009","chef":"Indra Carrillo","url":"https://restaurant.michelin.fr//3491071/la-condesa-paris-09"},{"name":"L'Aromate","postalCode":"06000","chef":"Mickaël Gracieux","url":"https://restaurant.michelin.fr//2epn29l/laromate-nice"},{"name":"Sola","postalCode":"75005","chef":"Kosuke Nabeta","url":"https://restaurant.michelin.fr//3yamflk/sola-paris-05"},{"name":"Restaurant du Palais Royal","postalCode":"75001","chef":"Philip Chronopoulos","url":"https://restaurant.michelin.fr//2a7qx35/restaurant-du-palais-royal-paris-01"},{"name":"La Tour des Vents","postalCode":"24240","chef":"Damien Fagette","url":"https://restaurant.michelin.fr//28vws7k/la-tour-des-vents-monbazillac"},{"name":"Le Jardin des Remparts","postalCode":"21200","chef":"Christophe Bocquillon","url":"https://restaurant.michelin.fr//28u6ql7/le-jardin-des-remparts-beaune"},{"name":"Fanny Rey & Jonathan Wahid","postalCode":"13210","chef":"Fanny Rey","url":"https://restaurant.michelin.fr//389tiwsv/fanny-rey-jonathan-wahid-saint-remy-de-provence"},{"name":"Les Fresques","postalCode":"74500","chef":"Patrice Vander","url":"https://restaurant.michelin.fr//29gdnxp256n/les-fresques-evian-les-bains"},{"name":"Frédéric Doucet","postalCode":"71120","chef":"Frédéric Doucet","url":"https://restaurant.michelin.fr//295q5w8/frederic-doucet-charolles"},{"name":"Mirazur","postalCode":"06500","chef":"Mauro Colagreco","url":"https://restaurant.michelin.fr//2d440f7/mirazur-menton"},{"name":"La Liégeoise","postalCode":"62930","chef":"Benjamin Delpierre","url":"https://restaurant.michelin.fr//2fa1zgi202/la-liegeoise-wimereux"},{"name":"Hostellerie Bérard","postalCode":"83740","chef":"Jean-François Bérard","url":"https://restaurant.michelin.fr//2bl33gu/hostellerie-berard-la-cadiere-dazur"},{"name":"Le Chiberta","postalCode":"75008","chef":"Stéphane Laruelle","url":"https://restaurant.michelin.fr//2abl39j/le-chiberta-paris-08"},{"name":"Patrick Jeffroy","postalCode":"29660","chef":"Patrick Jeffroy","url":"https://restaurant.michelin.fr//2bm9rwc/patrick-jeffroy-carantec"},{"name":"Yoann Conte","postalCode":"74290","chef":"Yoann Conte","url":"https://restaurant.michelin.fr//2fcm39b/yoann-conte-veyrier-du-lac"},{"name":"Le Saint-Estève","postalCode":"13100","chef":"Mathias Dandine","url":"https://restaurant.michelin.fr//2x1lce26/le-saint-esteve-le-tholonet"},{"name":"Auberge de l'Ill","postalCode":"68970","chef":"Marc Haeberlin","url":"https://restaurant.michelin.fr//29nft26/auberge-de-lill-illhaeusern"},{"name":"Le Saint-James","postalCode":"33270","chef":"Nicolas Magie","url":"https://restaurant.michelin.fr//2bj8gr9/le-saint-james-bouliac"},{"name":"Le Clarence","postalCode":"75008","chef":"Christophe Pelé","url":"https://restaurant.michelin.fr//sntd30zx/le-clarence-paris-08"},{"name":"Jean-Marc Pérochon","postalCode":"85470","chef":"Perochon Jean Marc","url":"https://restaurant.michelin.fr//2dyiess/jean-marc-perochon-bretignolles-sur-mer"},{"name":"Christophe Bacquié","postalCode":"83330","chef":"Christophe Bacquié","url":"https://restaurant.michelin.fr//2bmu0gi/christophe-bacquie-le-castellet"},{"name":"Le Raisin","postalCode":"01190","chef":"Frédéric Michel","url":"https://restaurant.michelin.fr//2al9714/le-raisin-pont-de-vaux"},{"name":"L'Archeste","postalCode":"75116","chef":"Yoshiaki Ito","url":"https://restaurant.michelin.fr//2852206/larcheste-paris-16"},{"name":"Le Colombier","postalCode":"76550","chef":"Laurent Kleczewski","url":"https://restaurant.michelin.fr//29d8fg4/le-colombier-offranville"},{"name":"L'Arnsbourg","postalCode":"57230","chef":"Fabien Mengus","url":"https://restaurant.michelin.fr//yjkdc8kf/larnsbourg-baerenthal"},{"name":"Le Duèze","postalCode":"46090","chef":"Julien Poisot","url":"https://restaurant.michelin.fr//2blc3qr/le-dueze-mercues"},{"name":"Auberge de la Mine","postalCode":"61450","chef":"Hubert Nobis","url":"https://restaurant.michelin.fr//29hyxpk/auberge-de-la-mine-gue-plat"},{"name":"La Villa Madie","postalCode":"13260","chef":"Dimitri Droisneau","url":"https://restaurant.michelin.fr//2eb50c1n/la-villa-madie-cassis"},{"name":"Armani Ristorante","postalCode":"75006","chef":"Massimo Tringali","url":"https://restaurant.michelin.fr//3044086/armani-ristorante-paris-06"},{"name":"Kei","postalCode":"75001","chef":"Kei Kobayashi","url":"https://restaurant.michelin.fr//9tmwymw/kei-paris-01"},{"name":"L'Oustalet","postalCode":"84190","chef":"Laurent Deconinck","url":"https://restaurant.michelin.fr//2dfwq14/loustalet-gigondas"},{"name":"La Voile","postalCode":"83350","chef":"Éric  Canino","url":"https://restaurant.michelin.fr//9tangja/la-voile-ramatuelle"},{"name":"Alain Ducasse au Plaza Athénée","postalCode":"75008","chef":"","url":"https://restaurant.michelin.fr//2ab76wf/alain-ducasse-au-plaza-athenee-paris-08"},{"name":"Le Mascaret","postalCode":"50560","chef":"Philippe Hardy","url":"https://restaurant.michelin.fr//2edzchf/le-mascaret-blainville-sur-mer"},{"name":"Le Pavillon des Boulevards","postalCode":"33000","chef":"Thomas Morel","url":"https://restaurant.michelin.fr//28y19tl/le-pavillon-des-boulevards-bordeaux"},{"name":"JY'S","postalCode":"68000","chef":"Jean-Yves Schillinger","url":"https://restaurant.michelin.fr//298563e/jys-colmar"},{"name":"Auberge de Montfleury","postalCode":"07170","chef":"Richard Rocle","url":"https://restaurant.michelin.fr//2b9eb0t/auberge-de-montfleury-villeneuve-de-berg"},{"name":"La Table de la Bergerie","postalCode":"49380","chef":"David Guitton","url":"https://restaurant.michelin.fr//i1i7i9b/la-table-de-la-bergerie-le-champ-sur-layon"},{"name":"Maison Rostang","postalCode":"75017","chef":"Nicolas Beaumann","url":"https://restaurant.michelin.fr//2afdah0/maison-rostang-paris-17"},{"name":"Gill","postalCode":"76000","chef":"Gilles Tournadre","url":"https://restaurant.michelin.fr//2aqe7bm/gill-rouen"},{"name":"La Pyramide - Patrick Henriroux","postalCode":"38200","chef":"Patrick Henriroux","url":"https://restaurant.michelin.fr//2f4bg71/la-pyramide-patrick-henriroux-vienne"},{"name":"L'Ostal","postalCode":"63000","chef":"Emmanuel Hebrard","url":"https://restaurant.michelin.fr//uhpabnjd/lostal-clermont-ferrand"},{"name":"Le Grand Véfour","postalCode":"75001","chef":"Guy Martin","url":"https://restaurant.michelin.fr//2a7edmf/le-grand-vefour-paris-01"},{"name":"Restaurant des Rois","postalCode":"06310","chef":"Yannick Franques","url":"https://restaurant.michelin.fr//2bh3p7k/restaurant-des-rois-beaulieu-sur-mer"},{"name":"La Table d'Olivier Nasti","postalCode":"68240","chef":"Olivier Nasti","url":"https://restaurant.michelin.fr//2c30770n/la-table-dolivier-nasti-kaysersberg-vignoble"},{"name":"Le Passe Temps","postalCode":"69006","chef":"Younghoon Lee","url":"https://restaurant.michelin.fr//44ahwpa/le-passe-temps-lyon-06"},{"name":"L'Ecrin","postalCode":"75008","chef":"","url":"https://restaurant.michelin.fr//3503291/lecrin-paris-08"},{"name":"Le Relais des Moines","postalCode":"83460","chef":"Sébastien Sanjou","url":"https://restaurant.michelin.fr//28qae64/le-relais-des-moines-les-arcs"},{"name":"Entre Vigne et Garrigue","postalCode":"30131","chef":"Serge et Maxime Chenet","url":"https://restaurant.michelin.fr//2etuup9/entre-vigne-et-garrigue-pujaut"},{"name":"Le Pourquoi Pas","postalCode":"35800","chef":"Le chef breton Julien Hennote","url":"https://restaurant.michelin.fr//a6rns6u0/le-pourquoi-pas-dinard"},{"name":"Relais Louis XIII","postalCode":"75006","chef":"Manuel Martinez","url":"https://restaurant.michelin.fr//2a92anu/relais-louis-xiii-paris-06"},{"name":"Les Bories","postalCode":"84220","chef":"Grégory Mirer","url":"https://restaurant.michelin.fr//2byq8tg/les-bories-gordes"},{"name":"La Barbacane","postalCode":"11000","chef":"Jérôme Ryon","url":"https://restaurant.michelin.fr//292xja3/la-barbacane-carcassonne"},{"name":"Toya","postalCode":"57380","chef":"Loïc Villemin","url":"https://restaurant.michelin.fr//3vxe9bf/toya-faulquemont"},{"name":"Auberge de la Charme","postalCode":"21370","chef":"Nicolas Isnard et David Le Comte","url":"https://restaurant.michelin.fr//29dyqga/auberge-de-la-charme-prenois"},{"name":"La Renaissance","postalCode":"61200","chef":"Arnaud Viel","url":"https://restaurant.michelin.fr//28qk3fo/la-renaissance-argentan"},{"name":"Château de Courban","postalCode":"21520","chef":"Takashi Kinoshita","url":"https://restaurant.michelin.fr//2emcabb/chateau-de-courban-courban"},{"name":"Restaurant du Palais Royal","postalCode":"75001","chef":"Philip Chronopoulos","url":"https://restaurant.michelin.fr//2a7qx35/restaurant-du-palais-royal-paris-01"},{"name":"La Tour des Vents","postalCode":"24240","chef":"Damien Fagette","url":"https://restaurant.michelin.fr//28vws7k/la-tour-des-vents-monbazillac"},{"name":"Le Jardin des Remparts","postalCode":"21200","chef":"Christophe Bocquillon","url":"https://restaurant.michelin.fr//28u6ql7/le-jardin-des-remparts-beaune"},{"name":"Fanny Rey & Jonathan Wahid","postalCode":"13210","chef":"Fanny Rey","url":"https://restaurant.michelin.fr//389tiwsv/fanny-rey-jonathan-wahid-saint-remy-de-provence"},{"name":"Les Fresques","postalCode":"74500","chef":"Patrice Vander","url":"https://restaurant.michelin.fr//29gdnxp256n/les-fresques-evian-les-bains"},{"name":"Frédéric Doucet","postalCode":"71120","chef":"Frédéric Doucet","url":"https://restaurant.michelin.fr//295q5w8/frederic-doucet-charolles"},{"name":"Mirazur","postalCode":"06500","chef":"Mauro Colagreco","url":"https://restaurant.michelin.fr//2d440f7/mirazur-menton"},{"name":"La Liégeoise","postalCode":"62930","chef":"Benjamin Delpierre","url":"https://restaurant.michelin.fr//2fa1zgi202/la-liegeoise-wimereux"},{"name":"Hostellerie Bérard","postalCode":"83740","chef":"Jean-François Bérard","url":"https://restaurant.michelin.fr//2bl33gu/hostellerie-berard-la-cadiere-dazur"},{"name":"Le Chiberta","postalCode":"75008","chef":"Stéphane Laruelle","url":"https://restaurant.michelin.fr//2abl39j/le-chiberta-paris-08"},{"name":"Patrick Jeffroy","postalCode":"29660","chef":"Patrick Jeffroy","url":"https://restaurant.michelin.fr//2bm9rwc/patrick-jeffroy-carantec"},{"name":"Yoann Conte","postalCode":"74290","chef":"Yoann Conte","url":"https://restaurant.michelin.fr//2fcm39b/yoann-conte-veyrier-du-lac"},{"name":"Le Saint-Estève","postalCode":"13100","chef":"Mathias Dandine","url":"https://restaurant.michelin.fr//2x1lce26/le-saint-esteve-le-tholonet"},{"name":"Auberge de l'Ill","postalCode":"68970","chef":"Marc Haeberlin","url":"https://restaurant.michelin.fr//29nft26/auberge-de-lill-illhaeusern"},{"name":"Le Saint-James","postalCode":"33270","chef":"Nicolas Magie","url":"https://restaurant.michelin.fr//2bj8gr9/le-saint-james-bouliac"},{"name":"Le Clarence","postalCode":"75008","chef":"Christophe Pelé","url":"https://restaurant.michelin.fr//sntd30zx/le-clarence-paris-08"},{"name":"Jean-Marc Pérochon","postalCode":"85470","chef":"Perochon Jean Marc","url":"https://restaurant.michelin.fr//2dyiess/jean-marc-perochon-bretignolles-sur-mer"},{"name":"Christophe Bacquié","postalCode":"83330","chef":"Christophe Bacquié","url":"https://restaurant.michelin.fr//2bmu0gi/christophe-bacquie-le-castellet"},{"name":"Château Cordeillan-Bages","postalCode":"33250","chef":"Julien Lefebvre","url":"https://restaurant.michelin.fr//2chq5p0/chateau-cordeillan-bages-pauillac"},{"name":"Pierre","postalCode":"71000","chef":"Christian Gaulin","url":"https://restaurant.michelin.fr//29uvz3j/pierre-macon"},{"name":"Restaurant Christian Étienne","postalCode":"84000","chef":"Guilhem Sevin","url":"https://restaurant.michelin.fr//28s2o1u/restaurant-christian-etienne-avignon"},{"name":"L'Essentiel","postalCode":"14800","chef":"Mi-Ra et Charles Thuillant","url":"https://restaurant.michelin.fr//40jnqvq/lessentiel-deauville"},{"name":"La Chèvre d'Or","postalCode":"06360","chef":"Arnaud Faye, Chef Exécutif et Julien Dugourd, Chef Pâtissier","url":"https://restaurant.michelin.fr//2bwkh5l/la-chevre-dor-eze"},{"name":"Les Terraillers","postalCode":"06410","chef":"Michaël Fulci","url":"https://restaurant.michelin.fr//28x308q/les-terraillers-biot"},{"name":"La Table Breizh Café","postalCode":"35260","chef":"Fumio KUDAKA","url":"https://restaurant.michelin.fr//2f8ln9w/la-table-breizh-cafe-cancale"},{"name":"Antoine","postalCode":"75116","chef":"Thibault Sombardier","url":"https://restaurant.michelin.fr//2euo0rk/antoine-paris-16"},{"name":"L'Atelier du Peintre","postalCode":"68000","chef":"Loïc Lefebvre","url":"https://restaurant.michelin.fr//2ewn3lj/latelier-du-peintre-colmar"},{"name":"La Gouesnière","postalCode":"35350","chef":"Jonathan Bigaré","url":"https://restaurant.michelin.fr//2byuiv7/la-gouesniere-saint-meloir-des-ondes"},{"name":"Le Bec au Cauchois","postalCode":"76540","chef":"Pierre Caillet","url":"https://restaurant.michelin.fr//2b6gbtl/le-bec-au-cauchois-valmont"},{"name":"Nakatani","postalCode":"75007","chef":"Shinsuke Nakatani","url":"https://restaurant.michelin.fr//3x81832/nakatani-paris-07"},{"name":"Alan Geaam","postalCode":"75016","chef":"Alan Geaam","url":"https://restaurant.michelin.fr//3045466/alan-geaam-paris-16"},{"name":"Le Clair de la Plume","postalCode":"26230","chef":"Julien Allano","url":"https://restaurant.michelin.fr//2faahd5/le-clair-de-la-plume-grignan"},{"name":"La Cachette","postalCode":"26000","chef":"Masashi Ijichi","url":"https://restaurant.michelin.fr//2dyaa0w/la-cachette-valence"},{"name":"Lalique","postalCode":"33210","chef":"Jérôme Schilling","url":"https://restaurant.michelin.fr//3803186/lalique-bommes"},{"name":"Meurin","postalCode":"62350","chef":"Marc Meurin","url":"https://restaurant.michelin.fr//2dyfstx/meurin-busnes"},{"name":"Le Cap","postalCode":"06230","chef":"Yoric Tièche","url":"https://restaurant.michelin.fr//2cqc8op/le-cap-saint-jean-cap-ferrat"},{"name":"Pilgrim","postalCode":"75015","chef":"Saito Terumitsu","url":"https://restaurant.michelin.fr//4033946/pilgrim-paris-15"},{"name":"Les Funambules","postalCode":"67000","chef":"","url":"https://restaurant.michelin.fr//4035231/les-funambules-strasbourg"},{"name":"Rozo","postalCode":"59000","chef":"Camille Pailleau et Diego Delbecq","url":"https://restaurant.michelin.fr//4036171/rozo-lille"},{"name":"Accents Table Bourse","postalCode":"75002","chef":"Ayumi Sugiyama et  Romain Mahi","url":"https://restaurant.michelin.fr//4036951/accents-table-bourse-paris-02"},{"name":"La Sommelière","postalCode":"69005","chef":"","url":"https://restaurant.michelin.fr//4037936/la-sommeliere-lyon-05"},{"name":"L'Orchidée","postalCode":"68130","chef":"Chatchai Klanklong","url":"https://restaurant.michelin.fr//4039781/lorchidee-altkirch"},{"name":"L'Aspérule","postalCode":"21000","chef":"Keigo Kimura","url":"https://restaurant.michelin.fr//4040011/lasperule-dijon"},{"name":"Sarkara","postalCode":"73120","chef":"Sébastien Vauxion","url":"https://restaurant.michelin.fr//4040361/sarkara-courchevel-1850"},{"name":"Äponem - Auberge du Presbytère","postalCode":"34320","chef":"Amélie Darvas","url":"https://restaurant.michelin.fr//4040591/aponem-auberge-du-presbytere-vailhan"},{"name":"NESO","postalCode":"75009","chef":"Guillaume Sanchez","url":"https://restaurant.michelin.fr//4041136/neso-paris-09"},{"name":"Restaurant De Lauzun","postalCode":"34120","chef":"","url":"https://restaurant.michelin.fr//4041396/restaurant-de-lauzun-pezenas"},{"name":"The Marcel","postalCode":"34200","chef":"Fabien Fage","url":"https://restaurant.michelin.fr//4041601/marcel-sete"},{"name":"La Poule au Pot","postalCode":"75001","chef":"","url":"https://restaurant.michelin.fr//4042311/la-poule-au-pot-paris-01"},{"name":"Restaurant de Tourrel","postalCode":"13210","chef":"Jérémy  Scalia","url":"https://restaurant.michelin.fr//4038001/restaurant-de-tourrel-saint-remy-de-provence"},{"name":"L'Oasis","postalCode":"06210","chef":"Alain Montigny","url":"https://restaurant.michelin.fr//29v9df2/loasis-mandelieu-la-napoule"},{"name":"Penati al Baretto","postalCode":"75008","chef":"Alberico Penati","url":"https://restaurant.michelin.fr//9oo4cel/penati-al-baretto-paris-08"},{"name":"Frédéric Simonin","postalCode":"75017","chef":"FREDERIC SIMONIN","url":"https://restaurant.michelin.fr//2f8857v/frederic-simonin-paris-17"},{"name":"Logis de la Cadène","postalCode":"33330","chef":"Alexandre Baumard","url":"https://restaurant.michelin.fr//3kw7mh1/logis-de-la-cadene-saint-emilion"},{"name":"La Gourmandière - La Table d'Olivier","postalCode":"56000","chef":"Olivier Samson","url":"https://restaurant.michelin.fr//3n5gkk2/la-gourmandiere-la-table-dolivier-vannes"},{"name":"AM par Alexandre Mazzia","postalCode":"13008","chef":"Alexandre Mazzia","url":"https://restaurant.michelin.fr//4gq15sff/am-par-alexandre-mazzia-marseille-08"},{"name":"Arpège","postalCode":"75007","chef":"Alain Passard","url":"https://restaurant.michelin.fr//2aa11xs/arpege-paris-07"},{"name":"Les Cèdres","postalCode":"26600","chef":"Jacques Bertrand","url":"https://restaurant.michelin.fr//2appio4/les-cedres-granges-les-beaumont"},{"name":"Benoit","postalCode":"75004","chef":"Fabienne Eymard","url":"https://restaurant.michelin.fr//2a8isn4/benoit-paris-04"},{"name":"Les Berceaux","postalCode":"51200","chef":"Patrick Michelon","url":"https://restaurant.michelin.fr//29fhuzu/les-berceaux-epernay"},{"name":"Dominique Bucaille","postalCode":"04100","chef":"Dominique et Julia Bucaille","url":"https://restaurant.michelin.fr//nwxo8h9/dominique-bucaille-manosque"},{"name":"La Table du Connétable","postalCode":"60500","chef":"Julien Lucas","url":"https://restaurant.michelin.fr//jgutdlg/la-table-du-connetable-chantilly"},{"name":"Auberge St-Laurent","postalCode":"68510","chef":"Laurent Arbeit","url":"https://restaurant.michelin.fr//2b05ga9/auberge-st-laurent-sierentz"},{"name":"L'Aupiho","postalCode":"13520","chef":"Lieven Van Aken","url":"https://restaurant.michelin.fr//9wstvf9t/laupiho-les-baux-de-provence"},{"name":"Flaveur","postalCode":"06000","chef":"Gaël et Mickaël Tourteaux","url":"https://restaurant.michelin.fr//2exgwy4/flaveur-nice"},{"name":"Apicius","postalCode":"63000","chef":"Arkadiusz Zuchmanski","url":"https://restaurant.michelin.fr//2ek9zhh/apicius-clermont-ferrand"},{"name":"Jean-Claude Leclerc","postalCode":"63000","chef":"Jean-Claude  Leclerc","url":"https://restaurant.michelin.fr//297ge86/jean-claude-leclerc-clermont-ferrand"},{"name":"Jean-Luc Tartarin","postalCode":"76600","chef":"Jean-Luc Tartarin","url":"https://restaurant.michelin.fr//2enmc29/jean-luc-tartarin-le-havre"},{"name":"Le Kaïku","postalCode":"64500","chef":"Nicolas Borombo","url":"https://restaurant.michelin.fr//2atmq22/le-kaiku-saint-jean-de-luz"},{"name":"Au 14 Février","postalCode":"36100","chef":"","url":"https://restaurant.michelin.fr//2f80e2p/au-14-fevrier-saint-valentin"},{"name":"La Table des Frères Ibarboure","postalCode":"64210","chef":"Xabi et Patrice Ibarboure","url":"https://restaurant.michelin.fr//28x2q9k/la-table-des-freres-ibarboure-bidart"},{"name":"Py-r","postalCode":"31000","chef":"Pierre Lambinon","url":"https://restaurant.michelin.fr//2fdyj14/py-r-toulouse"},{"name":"La Grenouillère","postalCode":"62170","chef":"Alexandre Gauthier","url":"https://restaurant.michelin.fr//2a0ne3f/la-grenouillere-la-madelaine-sous-montreuil"},{"name":"Guy Lassausaie","postalCode":"69380","chef":"Guy  Lassausaie","url":"https://restaurant.michelin.fr//295zuzb/guy-lassausaie-chasselay"},{"name":"Le George","postalCode":"75008","chef":"Simone Zanoni","url":"https://restaurant.michelin.fr//9q8vl0jf/le-george-paris-08"},{"name":"L'Anthocyane","postalCode":"22300","chef":"Marc Briand","url":"https://restaurant.michelin.fr//30sfws39/lanthocyane-lannion"},{"name":"Bras","postalCode":"12210","chef":"Sébastien Bras","url":"https://restaurant.michelin.fr//2c3ezsd/bras-laguiole"},{"name":"Le Puits St-Jacques","postalCode":"32600","chef":"Bernard Bach et William Candelon","url":"https://restaurant.michelin.fr//29nnrkd/le-puits-st-jacques-pujaudran"},{"name":"La Table d'Olivier","postalCode":"19100","chef":"Pierre Neveu","url":"https://restaurant.michelin.fr//5f24ty3/la-table-dolivier-brive-la-gaillarde"},{"name":"Numéro 3","postalCode":"78490","chef":"Laurent Trochain","url":"https://restaurant.michelin.fr//2dnmje9/numero-3-le-tremblay-sur-mauldre"},{"name":"La Bastide de Capelongue","postalCode":"84480","chef":"Édouard Loubet","url":"https://restaurant.michelin.fr//2bj1jms/la-bastide-de-capelongue-bonnieux"},{"name":"L'Aquarelle","postalCode":"17920","chef":"Xavier Taffart","url":"https://restaurant.michelin.fr//2dk9wkt/laquarelle-breuillet"},{"name":"Maison Prévôt","postalCode":"84300","chef":"Jean-Jacques Prévôt","url":"https://restaurant.michelin.fr//2947j86/maison-prevot-cavaillon"},{"name":"Avel Vor","postalCode":"56290","chef":"Patrice Gahinet","url":"https://restaurant.michelin.fr//2da93ps/avel-vor-port-louis"},{"name":"Ze Kitchen Galerie","postalCode":"75006","chef":"William Ledeuil","url":"https://restaurant.michelin.fr//2a9xcsf/ze-kitchen-galerie-paris-06"},{"name":"Terre-Mer","postalCode":"56400","chef":"Anthony Jéhanno","url":"https://restaurant.michelin.fr//2f8kr60/terre-mer-auray"},{"name":"Les Trois Soleils de Montal","postalCode":"46400","chef":"Frédérik Bizat","url":"https://restaurant.michelin.fr//2coonxc/les-trois-soleils-de-montal-saint-cere"},{"name":"Girardin - Gastronomique","postalCode":"68000","chef":"Éric Girardin","url":"https://restaurant.michelin.fr//xha7r0xl/girardin-gastronomique-colmar"},{"name":"Les Prés d'Eugénie - Michel Guérard","postalCode":"40320","chef":"Michel Guérard","url":"https://restaurant.michelin.fr//29g9pvw/les-pres-deugenie-michel-guerard-eugenie-les-bains"},{"name":"La Ferme de l'Hospital","postalCode":"74160","chef":"Jean-Jacques Noguier","url":"https://restaurant.michelin.fr//2atzy38/la-ferme-de-lhospital-bossey"},{"name":"La Réserve Rimbaud","postalCode":"34000","chef":"Charles Fontes","url":"https://restaurant.michelin.fr//2d8d9p1/la-reserve-rimbaud-montpellier"},{"name":"Le 1947","postalCode":"73120","chef":"Yannick Alléno","url":"https://restaurant.michelin.fr//2eac1q1/le-1947-courchevel-1850"},{"name":"Auberge Grand'Maison","postalCode":"22530","chef":"Christophe Le Fur","url":"https://restaurant.michelin.fr//2a2flya/auberge-grandmaison-mur-de-bretagne"},{"name":"ERH","postalCode":"75002","chef":"Keita Kitamura","url":"https://restaurant.michelin.fr//3345846/erh-paris-02"},{"name":"Oka","postalCode":"75005","chef":"Raphaël Rego","url":"https://restaurant.michelin.fr//3855601/oka-paris-05"},{"name":"Casadelmar","postalCode":"20137","chef":"Fabio Bragagnolo","url":"https://restaurant.michelin.fr//2dk81h5143/casadelmar-porto-vecchio"},{"name":"Ursus","postalCode":"73320","chef":"Clément Bouvier","url":"https://restaurant.michelin.fr//2f5gm14/ursus-tignes"},{"name":"Le Millénaire","postalCode":"51100","chef":"Laurent et Thibault Laplaige","url":"https://restaurant.michelin.fr//2ank1c1/le-millenaire-reims"},{"name":"Stéphane Carbone","postalCode":"14000","chef":"Stéphane Carbone","url":"https://restaurant.michelin.fr//2enzj8x/stephane-carbone-caen"},{"name":"L'Émulsion","postalCode":"38080","chef":"Romain Hubert","url":"https://restaurant.michelin.fr//5jdkm0u/lemulsion-saint-alban-de-roche"},{"name":"La Maison des Bois - Marc Veyrat","postalCode":"74230","chef":"Marc Veyrat","url":"https://restaurant.michelin.fr//8zgzs262/la-maison-des-bois-marc-veyrat-manigod"},{"name":"Flaveurs","postalCode":"26000","chef":"Baptiste Poinot","url":"https://restaurant.michelin.fr//2e043qi/flaveurs-valence"},{"name":"Le Beaulieu","postalCode":"72000","chef":"Olivier Boussard","url":"https://restaurant.michelin.fr//29vchdk/le-beaulieu-le-mans"},{"name":"L'Axel","postalCode":"77300","chef":"Kunihisa Goto","url":"https://restaurant.michelin.fr//29i66ux/laxel-fontainebleau"},{"name":"Le Chateaubriand","postalCode":"75011","chef":"Inaki Aizpitarte","url":"https://restaurant.michelin.fr//2e6jtym/le-chateaubriand-paris-11"},{"name":"Jérôme Feck","postalCode":"51000","chef":"","url":"https://restaurant.michelin.fr//294k5c0/jerome-feck-chalons-en-champagne"},{"name":"Racines","postalCode":"35000","chef":"","url":"https://restaurant.michelin.fr//3rs0bg1/racines-rennes"},{"name":"La Table","postalCode":"59000","chef":"Thibaut Gamba","url":"https://restaurant.michelin.fr//ua271jkd/la-table-lille"},{"name":"Quinsou","postalCode":"75006","chef":"Antonin Bonnet","url":"https://restaurant.michelin.fr//a22cmkwd/quinsou-paris-06"},{"name":"Ken Kawasaki","postalCode":"75018","chef":"","url":"https://restaurant.michelin.fr//ximkypex/ken-kawasaki-paris-18"},{"name":"Le Skiff Club","postalCode":"33260","chef":"Stéphane Carrade","url":"https://restaurant.michelin.fr//2851256/le-skiff-club-la-teste-de-buch"},{"name":"Akrame","postalCode":"75008","chef":"Akrame Benallal","url":"https://restaurant.michelin.fr//2851396/akrame-paris-08"},{"name":"Le Grand Cap","postalCode":"11370","chef":"Erwan Houssin","url":"https://restaurant.michelin.fr//2851511/le-grand-cap-leucate"},{"name":"Restaurant H","postalCode":"75004","chef":"Hubert Duchenne","url":"https://restaurant.michelin.fr//2851556/restaurant-h-paris-04"},{"name":"Sushi B","postalCode":"75002","chef":"","url":"https://restaurant.michelin.fr//2852091/sushi-b-paris-02"},{"name":"Tomy & Co","postalCode":"75007","chef":"Tomy Gousset","url":"https://restaurant.michelin.fr//2852136/tomy-co-paris-07"},{"name":"Saisons","postalCode":"13006","chef":"Julien Diaz","url":"https://restaurant.michelin.fr//2852226/saisons-marseille-06"},{"name":"La Tour des Sens","postalCode":"38570","chef":"Jérémie Izarn","url":"https://restaurant.michelin.fr//2dr8ble/la-tour-des-sens-tencin"},{"name":"La Merise","postalCode":"67580","chef":"Cédric Deckert","url":"https://restaurant.michelin.fr//3614676/la-merise-laubach"},{"name":"Jean Chauvel","postalCode":"92100","chef":"Jean Chauvel","url":"https://restaurant.michelin.fr//3614956/jean-chauvel-boulogne-billancourt"},{"name":"Montée","postalCode":"75014","chef":"Takayuki Nameura","url":"https://restaurant.michelin.fr//3615586/montee-paris-14"},{"name":"Auberge Quintessence","postalCode":"06420","chef":"Christophe Billau","url":"https://restaurant.michelin.fr//3615836/auberge-quintessence-roubion"},{"name":"Assiette Champenoise","postalCode":"51430","chef":"Arnaud Lallement","url":"https://restaurant.michelin.fr//2cliodi/assiette-champenoise-tinqueux"},{"name":"La Table de Franck Putelat","postalCode":"11000","chef":"Franck Putelat","url":"https://restaurant.michelin.fr//2e06z2s/la-table-de-franck-putelat-carcassonne"},{"name":"Les Pêcheurs","postalCode":"06600","chef":"Nicolas Rondelli","url":"https://restaurant.michelin.fr//29ol879/les-pecheurs-antibes"},{"name":"Le Relais Bernard Loiseau","postalCode":"21210","chef":"Patrick Bertron","url":"https://restaurant.michelin.fr//2cur8yy/le-relais-bernard-loiseau-saulieu"},{"name":"La Marelle","postalCode":"01960","chef":"Didier Goiffon","url":"https://restaurant.michelin.fr//28zbkc6/la-marelle-peronnas"},{"name":"Le Violon d'Ingres","postalCode":"75007","chef":"Christian Constant","url":"https://restaurant.michelin.fr//2aa5u1w/le-violon-dingres-paris-07"},{"name":"Relais de la Poste","postalCode":"40140","chef":"Jean Coussau","url":"https://restaurant.michelin.fr//2c6dfrz/relais-de-la-poste-magescq"},{"name":"L'Auberge des Glazicks","postalCode":"29550","chef":"Olivier Bellin","url":"https://restaurant.michelin.fr//2akhln2/lauberge-des-glazicks-plomodiern"},{"name":"Aux Pesked","postalCode":"22000","chef":"Mathieu Aumont","url":"https://restaurant.michelin.fr//2aru9pt/aux-pesked-saint-brieuc"},{"name":"Paul Bocuse","postalCode":"69660","chef":"Paul BOCUSE","url":"https://restaurant.michelin.fr//29tbf1t/paul-bocuse-collonges-au-mont-dor"},{"name":"Le Petit Nice","postalCode":"13007","chef":"Gérald Passédat","url":"https://restaurant.michelin.fr//2c76rmd/le-petit-nice-marseille-07"},{"name":"L'Oustau de Baumanière","postalCode":"13520","chef":"Glenn Viel","url":"https://restaurant.michelin.fr//28tn79w/loustau-de-baumaniere-les-baux-de-provence"},{"name":"Dominique Bouchet","postalCode":"75008","chef":"Dominique Bouchet","url":"https://restaurant.michelin.fr//2doe0bh/dominique-bouchet-paris-08"},{"name":"Les Fresques","postalCode":"24240","chef":"Didier Casaguana","url":"https://restaurant.michelin.fr//2ax5yy8/les-fresques-monestier"},{"name":"La Dame de Pic","postalCode":"75001","chef":"Anne-Sophie Pic","url":"https://restaurant.michelin.fr//jgnpf8y/la-dame-de-pic-paris-01"},{"name":"Neige d'Été","postalCode":"75015","chef":"Hideki Nishi","url":"https://restaurant.michelin.fr//9fkib5i9/neige-dete-paris-15"},{"name":"Le Pressoir","postalCode":"56890","chef":"Vincent David","url":"https://restaurant.michelin.fr//2b6sa1u/le-pressoir-saint-ave"},{"name":"Bruno","postalCode":"83510","chef":"Benjamin Bruno","url":"https://restaurant.michelin.fr//29s5co3/bruno-lorgues"},{"name":"L'Auberge de Bagatelle","postalCode":"72000","chef":"Jean-Sébastien Monné","url":"https://restaurant.michelin.fr//3616226/lauberge-de-bagatelle-le-mans"},{"name":"L'Or Q'idée","postalCode":"95000","chef":"Naoëlle d'Hainaut","url":"https://restaurant.michelin.fr//3616391/lor-qidee-pontoise"},{"name":"Ima","postalCode":"35000","chef":"Julien Lemarié","url":"https://restaurant.michelin.fr//3616751/ima-rennes"},{"name":"Comice","postalCode":"75016","chef":"Noam Gedalof","url":"https://restaurant.michelin.fr//3616836/comice-paris-16"},{"name":"La Table d'Hôtes - Le Quatrième Mur","postalCode":"33000","chef":"Philippe Etchebest","url":"https://restaurant.michelin.fr//3623606/la-table-dhotes-le-quatrieme-mur-bordeaux"},{"name":"La Table de la Ferme","postalCode":"20100","chef":"","url":"https://restaurant.michelin.fr//3623651/la-table-de-la-ferme-sartene"},{"name":"Jean Sulpice","postalCode":"74290","chef":"Jean Sulpice","url":"https://restaurant.michelin.fr//3636676/jean-sulpice-talloires-montmin"},{"name":"La Table d'à Côté","postalCode":"45160","chef":"Aurélien Largeau","url":"https://restaurant.michelin.fr//4022946/la-table-da-cote-ardon"},{"name":"Maison Aribert","postalCode":"38410","chef":"Christophe Aribert","url":"https://restaurant.michelin.fr//4023881/maison-aribert-saint-martin-duriage"},{"name":"L'Évidence","postalCode":"37250","chef":"Gaëtan Evrard","url":"https://restaurant.michelin.fr//4024611/levidence-montbazon"},{"name":"Nature","postalCode":"59280","chef":"Nicolas Gautier","url":"https://restaurant.michelin.fr//4024971/nature-armentieres"},{"name":"La Terrasse","postalCode":"83700","chef":"José  Bailly","url":"https://restaurant.michelin.fr//4025851/la-terrasse-saint-raphael"},{"name":"La Source","postalCode":"42330","chef":"Antoine Bergeron","url":"https://restaurant.michelin.fr//4025941/la-source-saint-galmier"},{"name":"Lait Thym Sel","postalCode":"49000","chef":"Gaëtan Morvan","url":"https://restaurant.michelin.fr//4027706/lait-thym-sel-angers"},{"name":"L'Ours","postalCode":"94300","chef":"Jacky Ribault","url":"https://restaurant.michelin.fr//4030051/lours-vincennes"},{"name":"Racines","postalCode":"75002","chef":"Simone Tondo","url":"https://restaurant.michelin.fr//4031571/racines-paris-02"},{"name":"L'Abysse au Pavillon Ledoyen","postalCode":"75008","chef":"","url":"https://restaurant.michelin.fr//4033636/labysse-au-pavillon-ledoyen-paris-08"},{"name":"Le Royal","postalCode":"51160","chef":"","url":"https://restaurant.michelin.fr//4033846/le-royal-champillon"},{"name":"Le Kaïku","postalCode":"64500","chef":"Nicolas Borombo","url":"https://restaurant.michelin.fr//2atmq22/le-kaiku-saint-jean-de-luz"},{"name":"Au 14 Février","postalCode":"36100","chef":"","url":"https://restaurant.michelin.fr//2f80e2p/au-14-fevrier-saint-valentin"},{"name":"La Table des Frères Ibarboure","postalCode":"64210","chef":"Xabi et Patrice Ibarboure","url":"https://restaurant.michelin.fr//28x2q9k/la-table-des-freres-ibarboure-bidart"},{"name":"Py-r","postalCode":"31000","chef":"Pierre Lambinon","url":"https://restaurant.michelin.fr//2fdyj14/py-r-toulouse"},{"name":"La Grenouillère","postalCode":"62170","chef":"Alexandre Gauthier","url":"https://restaurant.michelin.fr//2a0ne3f/la-grenouillere-la-madelaine-sous-montreuil"},{"name":"Guy Lassausaie","postalCode":"69380","chef":"Guy  Lassausaie","url":"https://restaurant.michelin.fr//295zuzb/guy-lassausaie-chasselay"},{"name":"Le George","postalCode":"75008","chef":"Simone Zanoni","url":"https://restaurant.michelin.fr//9q8vl0jf/le-george-paris-08"},{"name":"L'Anthocyane","postalCode":"22300","chef":"Marc Briand","url":"https://restaurant.michelin.fr//30sfws39/lanthocyane-lannion"},{"name":"Bras","postalCode":"12210","chef":"Sébastien Bras","url":"https://restaurant.michelin.fr//2c3ezsd/bras-laguiole"},{"name":"Le Puits St-Jacques","postalCode":"32600","chef":"Bernard Bach et William Candelon","url":"https://restaurant.michelin.fr//29nnrkd/le-puits-st-jacques-pujaudran"},{"name":"La Table d'Olivier","postalCode":"19100","chef":"Pierre Neveu","url":"https://restaurant.michelin.fr//5f24ty3/la-table-dolivier-brive-la-gaillarde"},{"name":"Numéro 3","postalCode":"78490","chef":"Laurent Trochain","url":"https://restaurant.michelin.fr//2dnmje9/numero-3-le-tremblay-sur-mauldre"},{"name":"La Bastide de Capelongue","postalCode":"84480","chef":"Édouard Loubet","url":"https://restaurant.michelin.fr//2bj1jms/la-bastide-de-capelongue-bonnieux"},{"name":"L'Aquarelle","postalCode":"17920","chef":"Xavier Taffart","url":"https://restaurant.michelin.fr//2dk9wkt/laquarelle-breuillet"},{"name":"Maison Prévôt","postalCode":"84300","chef":"Jean-Jacques Prévôt","url":"https://restaurant.michelin.fr//2947j86/maison-prevot-cavaillon"},{"name":"Avel Vor","postalCode":"56290","chef":"Patrice Gahinet","url":"https://restaurant.michelin.fr//2da93ps/avel-vor-port-louis"},{"name":"Ze Kitchen Galerie","postalCode":"75006","chef":"William Ledeuil","url":"https://restaurant.michelin.fr//2a9xcsf/ze-kitchen-galerie-paris-06"},{"name":"Terre-Mer","postalCode":"56400","chef":"Anthony Jéhanno","url":"https://restaurant.michelin.fr//2f8kr60/terre-mer-auray"},{"name":"La Table des Blot - Auberge du Château","postalCode":"78720","chef":"Christophe Blot","url":"https://restaurant.michelin.fr//2agz71j/la-table-des-blot-auberge-du-chateau-dampierre-en-yvelines"},{"name":"La Petite Maison de Cucuron","postalCode":"84160","chef":"Eric Sapet","url":"https://restaurant.michelin.fr//29c2o3y/la-petite-maison-de-cucuron-cucuron"},{"name":"SaQuaNa","postalCode":"14600","chef":"Alexandre Bourdas","url":"https://restaurant.michelin.fr//2e11xi8/saquana-honfleur"},{"name":"En Pleine Nature","postalCode":"31130","chef":"Sylvain Joffre","url":"https://restaurant.michelin.fr//s5y0mmq/en-pleine-nature-fonsegrives"},{"name":"Mariottat","postalCode":"47000","chef":"Éric Mariottat","url":"https://restaurant.michelin.fr//28n68fe/mariottat-agen"},{"name":"Le Figuier de St-Esprit","postalCode":"06600","chef":"Christian Morisset","url":"https://restaurant.michelin.fr//2ejmich/le-figuier-de-st-esprit-antibes"},{"name":"Roscanvec","postalCode":"56000","chef":"Thierry Seychelles","url":"https://restaurant.michelin.fr//2b6s3ty/roscanvec-vannes"},{"name":"L'Olivier","postalCode":"83400","chef":"Julien Le Goff","url":"https://restaurant.michelin.fr//2c1rglq/lolivier-hyeres"},{"name":"Umami","postalCode":"67000","chef":"René Fieger","url":"https://restaurant.michelin.fr//2ei9xex/umami-strasbourg"},{"name":"L'Atelier de Joël Robuchon - St-Germain","postalCode":"75007","chef":"","url":"https://restaurant.michelin.fr//2dduyu5/latelier-de-joel-robuchon-st-germain-paris-07"},{"name":"Michel Sarran","postalCode":"31000","chef":"Michel Sarran","url":"https://restaurant.michelin.fr//2b380z8/michel-sarran-toulouse"},{"name":"Hostellerie de Levernois","postalCode":"21200","chef":"","url":"https://restaurant.michelin.fr//28updvu/hostellerie-de-levernois-levernois"},{"name":"La Table de Chaintré","postalCode":"71570","chef":"Sébastien Grospellier","url":"https://restaurant.michelin.fr//294fsc5/la-table-de-chaintre-chaintre"},{"name":"Le Puits du Trésor","postalCode":"11600","chef":"Jean-Marc Boyer","url":"https://restaurant.michelin.fr//29pxfvs/le-puits-du-tresor-lastours"},{"name":"Le Bistrot de Lagarde","postalCode":"84400","chef":"Lloyd Tropeano","url":"https://restaurant.michelin.fr//jfxt32k/le-bistrot-de-lagarde-lagarde-dapt"},{"name":"Le Gambetta","postalCode":"49400","chef":"Mickael Pihours","url":"https://restaurant.michelin.fr//2ayqw5m/le-gambetta-saumur"},{"name":"Michel Trama","postalCode":"47270","chef":"Michel Trama","url":"https://restaurant.michelin.fr//2ckuncq/michel-trama-puymirol"},{"name":"Le Chiquito","postalCode":"95540","chef":"Alain Mihura","url":"https://restaurant.michelin.fr//2ago3w6/le-chiquito-mery-sur-oise"},{"name":"La Table des Cordeliers","postalCode":"32100","chef":"Éric Sampietro","url":"https://restaurant.michelin.fr//2d7x1hk/la-table-des-cordeliers-condom"},{"name":"1741","postalCode":"67000","chef":"","url":"https://restaurant.michelin.fr//amv21i8/1741-strasbourg"},{"name":"Le Prieuré","postalCode":"42820","chef":"Thierry Fernandes","url":"https://restaurant.michelin.fr//28od0rp/le-prieure-ambierle"},{"name":"Mon Plaisir","postalCode":"25190","chef":"Christian Pilloud","url":"https://restaurant.michelin.fr//2d6m1yv/mon-plaisir-chamesol"},{"name":"Au 14 Février","postalCode":"69005","chef":"Tsuyoshi Arai","url":"https://restaurant.michelin.fr//2f8f1gn/au-14-fevrier-lyon-05"},{"name":"Côté Jardin","postalCode":"45500","chef":"Arnaud Billard","url":"https://restaurant.michelin.fr//29jyv6a/cote-jardin-gien"},{"name":"Jérémy Galvan","postalCode":"69005","chef":"Jérémy Galvan","url":"https://restaurant.michelin.fr//3plxd2e/jeremy-galvan-lyon-05"},{"name":"Lulu Rouget","postalCode":"44000","chef":"Ludovic Pouzelgues","url":"https://restaurant.michelin.fr//5kf1f62/lulu-rouget-nantes"},{"name":"Il Cortile","postalCode":"68100","chef":"Jean-Michel Feger","url":"https://restaurant.michelin.fr//2dcdnms/il-cortile-mulhouse"},{"name":"La Ville Blanche","postalCode":"22300","chef":"Jean-Yves Jaguin","url":"https://restaurant.michelin.fr//29pm63n/la-ville-blanche-la-ville-blanche"},{"name":"Lou Cigalon - Maison Martin","postalCode":"06560","chef":"Christophe Martin","url":"https://restaurant.michelin.fr//41vsxiz/lou-cigalon-maison-martin-valbonne"},{"name":"Hostellerie de la Pointe St-Mathieu","postalCode":"29217","chef":"Nolwenn Corre","url":"https://restaurant.michelin.fr//2brleio/hostellerie-de-la-pointe-st-mathieu-le-conquet"},{"name":"La Robe","postalCode":"85600","chef":"Xavier Giraudet","url":"https://restaurant.michelin.fr//3ffqpazw/la-robe-montaigu"},{"name":"Château Blanchard","postalCode":"42140","chef":"Sylvain Roux","url":"https://restaurant.michelin.fr//ou4s65x/chateau-blanchard-chazelles-sur-lyon"},{"name":"Villa de l'Étang Blanc","postalCode":"40510","chef":"David Sulpice","url":"https://restaurant.michelin.fr//2dtglr4/villa-de-letang-blanc-seignosse"},{"name":"Le Cerf","postalCode":"67520","chef":"Michel Husser et Joël Philipps","url":"https://restaurant.michelin.fr//2c74pw3/le-cerf-marlenheim"},{"name":"À Contre Sens","postalCode":"14000","chef":"Anthony Caillot","url":"https://restaurant.michelin.fr//3wc5nsy/contre-sens-caen"},{"name":"La Carambole","postalCode":"67300","chef":"","url":"https://restaurant.michelin.fr//3zm7yv8/la-carambole-schiltigheim"},{"name":"Le Quincangrogne","postalCode":"77400","chef":"Franck Charpentier","url":"https://restaurant.michelin.fr//u1pjp7ux/le-quincangrogne-dampmart"},{"name":"G.a. au Manoir de Rétival","postalCode":"76490","chef":"David Goerne","url":"https://restaurant.michelin.fr//9rnckmj/ga-au-manoir-de-retival-caudebec-en-caux"},{"name":"Le Parc Les Crayères","postalCode":"51100","chef":"Philippe Mille","url":"https://restaurant.michelin.fr//2clh5yg/le-parc-les-crayeres-reims"},{"name":"Ô Saveurs","postalCode":"31180","chef":"David Biasibetti","url":"https://restaurant.michelin.fr//2b3jb0y/o-saveurs-rouffiac-tolosan"},{"name":"Ed.Em","postalCode":"21190","chef":"Edouard Mignot","url":"https://restaurant.michelin.fr//295xqfd/edem-chassagne-montrachet"},{"name":"Lucas Carton","postalCode":"75008","chef":"Julien Dumas","url":"https://restaurant.michelin.fr//2abav0l/lucas-carton-paris-08"},{"name":"Hostellerie Les Gorges de Pennafort","postalCode":"83830","chef":"Philippe  Da Silva","url":"https://restaurant.michelin.fr//2blmwvy/hostellerie-les-gorges-de-pennafort-callas"},{"name":"La Table de La Butte","postalCode":"29260","chef":"Nicolas Conraux","url":"https://restaurant.michelin.fr//2cj2itx/la-table-de-la-butte-plouider"},{"name":"JAN","postalCode":"06000","chef":"Jan Hendrik van der Westhuizen","url":"https://restaurant.michelin.fr//38z104i7/jan-nice"},{"name":"La Mare aux Oiseaux","postalCode":"44720","chef":"Eric Guérin","url":"https://restaurant.michelin.fr//2atvlv0/la-mare-aux-oiseaux-saint-joachim"},{"name":"L'Abeille","postalCode":"75016","chef":"Christophe Moret","url":"https://restaurant.michelin.fr//2fcezsf/labeille-paris-16"},{"name":"Le Georges","postalCode":"28000","chef":"Thomas Parnaud","url":"https://restaurant.michelin.fr//2boyz17/le-georges-chartres"},{"name":"Auberge à la Bonne Idée","postalCode":"60350","chef":"Yves Giustiniani","url":"https://restaurant.michelin.fr//2ak8isu/auberge-la-bonne-idee-saint-jean-aux-bois"},{"name":"Xavier Mathieu","postalCode":"84220","chef":"Xavier Mathieu","url":"https://restaurant.michelin.fr//2c2u7lh/xavier-mathieu-joucas"},{"name":"En Marge","postalCode":"31320","chef":"Frank Renimel","url":"https://restaurant.michelin.fr//q8lel2a/en-marge-aureville"},{"name":"La Passagère","postalCode":"06160","chef":"Aurélien Véquaud","url":"https://restaurant.michelin.fr//29odhbw/la-passagere-juan-les-pins"},{"name":"La Chassagnette","postalCode":"13200","chef":"Armand Arnal","url":"https://restaurant.michelin.fr//28qr6q2/la-chassagnette-arles"},{"name":"Étude","postalCode":"75116","chef":"Keisuke Yamagishi","url":"https://restaurant.michelin.fr//3g8qf775/etude-paris-16"},{"name":"L'Aparté","postalCode":"31850","chef":"Jérémy Morin","url":"https://restaurant.michelin.fr//xay649ax/laparte-montrabe"},{"name":"Ithurria","postalCode":"64250","chef":"Xavier Isabal","url":"https://restaurant.michelin.fr//2bbain5/ithurria-ainhoa"},{"name":"Le Kléber","postalCode":"26400","chef":"Sébastien Bonnet","url":"https://restaurant.michelin.fr//29bkalt/le-kleber-crest"},{"name":"Julien Binz","postalCode":"68770","chef":"Le Chef Julien Binz","url":"https://restaurant.michelin.fr//yi79hbnh/julien-binz-ammerschwihr"},{"name":"La Scène","postalCode":"75008","chef":"Stéphanie Le Quellec","url":"https://restaurant.michelin.fr//1ore4aj2/la-scene-paris-08"},{"name":"La Bastide de Moustiers","postalCode":"04360","chef":"Frédéric Garnier","url":"https://restaurant.michelin.fr//2cbq46s/la-bastide-de-moustiers-moustiers-sainte-marie"},{"name":"L'Atelier d'Edmond","postalCode":"73150","chef":"Benoit Vidal","url":"https://restaurant.michelin.fr//2e1ykis/latelier-dedmond-val-disere"},{"name":"Initial","postalCode":"14000","chef":"Yohann Lemonnier","url":"https://restaurant.michelin.fr//sd2y8ik/initial-caen"},{"name":"Auberge La Pomme d'Api","postalCode":"29250","chef":"Jérémie Le Calvez","url":"https://restaurant.michelin.fr//2aw36e7/auberge-la-pomme-dapi-saint-pol-de-leon"},{"name":"L'Ekrin by Laurent Azoulay","postalCode":"73550","chef":"Laurent Azoulay","url":"https://restaurant.michelin.fr//9isyik39/lekrin-laurent-azoulay-meribel-mottaret"},{"name":"Le Moulin du Roc","postalCode":"24530","chef":"Alain Gardillou","url":"https://restaurant.michelin.fr//2bk7w2q/le-moulin-du-roc-champagnac-de-belair"},{"name":"La Bonne Étape","postalCode":"04160","chef":"Jany Gleize","url":"https://restaurant.michelin.fr//2bp5jf6/la-bonne-etape-chateau-arnoux"},{"name":"Chez Michèle","postalCode":"57810","chef":"Bruno Poiré","url":"https://restaurant.michelin.fr//29pia6z/chez-michele-languimberg"},{"name":"Alléno Paris au Pavillon Ledoyen","postalCode":"75008","chef":"Yannick Alléno","url":"https://restaurant.michelin.fr//2ab5qlx/alleno-paris-au-pavillon-ledoyen-paris-08"},{"name":"Le M","postalCode":"29200","chef":"Philippe Le Bigot","url":"https://restaurant.michelin.fr//2epv4gf/le-m-brest"},{"name":"Les Oliviers","postalCode":"83150","chef":"Jérémy Czaplicki","url":"https://restaurant.michelin.fr//2e1on31/les-oliviers-bandol"},{"name":"1920","postalCode":"74120","chef":"Julien Gatillon","url":"https://restaurant.michelin.fr//3409276/1920-megeve"},{"name":"Le Baudelaire","postalCode":"75001","chef":"Guillaume Goupil","url":"https://restaurant.michelin.fr//2fdc0eg/le-baudelaire-paris-01"},{"name":"Le Vivarais","postalCode":"07600","chef":"Stéphane Polly","url":"https://restaurant.michelin.fr//2fay1do/le-vivarais-vals-les-bains"},{"name":"L'Odas","postalCode":"76000","chef":"Olivier Da Silva","url":"https://restaurant.michelin.fr//33tyod0j/lodas-rouen"},{"name":"Les Bacchanales","postalCode":"06140","chef":"Christophe Dufau","url":"https://restaurant.michelin.fr//2en7eas/les-bacchanales-vence"},{"name":"Auberge du Cheval Blanc","postalCode":"67510","chef":"Pascal Bastian","url":"https://restaurant.michelin.fr//29qf1y7/auberge-du-cheval-blanc-lembach"},{"name":"Domaine des Hauts de Loire","postalCode":"41150","chef":"Rémy Giraud","url":"https://restaurant.michelin.fr//2cedaza/domaine-des-hauts-de-loire-onzain"},{"name":"Radio","postalCode":"63400","chef":"Wilfrid Chaplain","url":"https://restaurant.michelin.fr//2bqajf6/radio-chamalieres"},{"name":"L'Arcane","postalCode":"75018","chef":"Laurent Magnin","url":"https://restaurant.michelin.fr//vx40rloc/larcane-paris-18"},{"name":"Georges Blanc","postalCode":"01540","chef":"Georges BLANC","url":"https://restaurant.michelin.fr//2d3ergs/georges-blanc-vonnas"},{"name":"Le Carré d'Alethius","postalCode":"07800","chef":"Olivier Samin","url":"https://restaurant.michelin.fr//2fa4jx5/le-carre-dalethius-charmes-sur-rhone"},{"name":"Le Fanal","postalCode":"66650","chef":"Pascal Borrell","url":"https://restaurant.michelin.fr//yw26sgs/le-fanal-banyuls-sur-mer"},{"name":"1131","postalCode":"21360","chef":"Guillaume Royer","url":"https://restaurant.michelin.fr//2e4epe8/1131-la-bussiere-sur-ouche"},{"name":"Guy Savoy","postalCode":"75006","chef":"Guy SAVOY","url":"https://restaurant.michelin.fr//2afciv4/guy-savoy-paris-06"},{"name":"La Licorne Royale","postalCode":"27480","chef":"Christophe Poirier","url":"https://restaurant.michelin.fr//2ehwc2a/la-licorne-royale-lyons-la-foret"},{"name":"Les Rosiers","postalCode":"64200","chef":"Andrée et Stéphane Rosier","url":"https://restaurant.michelin.fr//2epi2a4/les-rosiers-biarritz"},{"name":"Le Pergolèse","postalCode":"75116","chef":"Stéphane Gaborieau","url":"https://restaurant.michelin.fr//2aeinde/le-pergolese-paris-16"},{"name":"Villa Archange","postalCode":"06110","chef":"Bruno Oger","url":"https://restaurant.michelin.fr//2f4ok2n/villa-archange-le-cannet"},{"name":"Loiseau des Ducs","postalCode":"21000","chef":"Louis-Philippe Vigilant","url":"https://restaurant.michelin.fr//2jd4ivca/loiseau-des-ducs-dijon"},{"name":"Raphaël Vionnet","postalCode":"74200","chef":"Raphaël Vionnet","url":"https://restaurant.michelin.fr//6pyhps6h/raphael-vionnet-thonon-les-bains"},{"name":"Le Raisin","postalCode":"01190","chef":"Frédéric Michel","url":"https://restaurant.michelin.fr//2al9714/le-raisin-pont-de-vaux"},{"name":"L'Archeste","postalCode":"75116","chef":"Yoshiaki Ito","url":"https://restaurant.michelin.fr//2852206/larcheste-paris-16"},{"name":"Le Colombier","postalCode":"76550","chef":"Laurent Kleczewski","url":"https://restaurant.michelin.fr//29d8fg4/le-colombier-offranville"},{"name":"L'Arnsbourg","postalCode":"57230","chef":"Fabien Mengus","url":"https://restaurant.michelin.fr//yjkdc8kf/larnsbourg-baerenthal"},{"name":"Le Duèze","postalCode":"46090","chef":"Julien Poisot","url":"https://restaurant.michelin.fr//2blc3qr/le-dueze-mercues"},{"name":"Auberge de la Mine","postalCode":"61450","chef":"Hubert Nobis","url":"https://restaurant.michelin.fr//29hyxpk/auberge-de-la-mine-gue-plat"},{"name":"La Villa Madie","postalCode":"13260","chef":"Dimitri Droisneau","url":"https://restaurant.michelin.fr//2eb50c1n/la-villa-madie-cassis"},{"name":"Armani Ristorante","postalCode":"75006","chef":"Massimo Tringali","url":"https://restaurant.michelin.fr//3044086/armani-ristorante-paris-06"},{"name":"Kei","postalCode":"75001","chef":"Kei Kobayashi","url":"https://restaurant.michelin.fr//9tmwymw/kei-paris-01"},{"name":"L'Oustalet","postalCode":"84190","chef":"Laurent Deconinck","url":"https://restaurant.michelin.fr//2dfwq14/loustalet-gigondas"},{"name":"La Voile","postalCode":"83350","chef":"Éric  Canino","url":"https://restaurant.michelin.fr//9tangja/la-voile-ramatuelle"},{"name":"Alain Ducasse au Plaza Athénée","postalCode":"75008","chef":"","url":"https://restaurant.michelin.fr//2ab76wf/alain-ducasse-au-plaza-athenee-paris-08"},{"name":"Le Mascaret","postalCode":"50560","chef":"Philippe Hardy","url":"https://restaurant.michelin.fr//2edzchf/le-mascaret-blainville-sur-mer"},{"name":"Le Pavillon des Boulevards","postalCode":"33000","chef":"Thomas Morel","url":"https://restaurant.michelin.fr//28y19tl/le-pavillon-des-boulevards-bordeaux"},{"name":"JY'S","postalCode":"68000","chef":"Jean-Yves Schillinger","url":"https://restaurant.michelin.fr//298563e/jys-colmar"},{"name":"Auberge de Montfleury","postalCode":"07170","chef":"Richard Rocle","url":"https://restaurant.michelin.fr//2b9eb0t/auberge-de-montfleury-villeneuve-de-berg"},{"name":"La Table de la Bergerie","postalCode":"49380","chef":"David Guitton","url":"https://restaurant.michelin.fr//i1i7i9b/la-table-de-la-bergerie-le-champ-sur-layon"},{"name":"Maison Rostang","postalCode":"75017","chef":"Nicolas Beaumann","url":"https://restaurant.michelin.fr//2afdah0/maison-rostang-paris-17"},{"name":"L'Auberge de Bagatelle","postalCode":"72000","chef":"Jean-Sébastien Monné","url":"https://restaurant.michelin.fr//3616226/lauberge-de-bagatelle-le-mans"},{"name":"L'Or Q'idée","postalCode":"95000","chef":"Naoëlle d'Hainaut","url":"https://restaurant.michelin.fr//3616391/lor-qidee-pontoise"},{"name":"Ima","postalCode":"35000","chef":"Julien Lemarié","url":"https://restaurant.michelin.fr//3616751/ima-rennes"},{"name":"Comice","postalCode":"75016","chef":"Noam Gedalof","url":"https://restaurant.michelin.fr//3616836/comice-paris-16"},{"name":"La Table d'Hôtes - Le Quatrième Mur","postalCode":"33000","chef":"Philippe Etchebest","url":"https://restaurant.michelin.fr//3623606/la-table-dhotes-le-quatrieme-mur-bordeaux"},{"name":"La Table de la Ferme","postalCode":"20100","chef":"","url":"https://restaurant.michelin.fr//3623651/la-table-de-la-ferme-sartene"},{"name":"Jean Sulpice","postalCode":"74290","chef":"Jean Sulpice","url":"https://restaurant.michelin.fr//3636676/jean-sulpice-talloires-montmin"},{"name":"La Table d'à Côté","postalCode":"45160","chef":"Aurélien Largeau","url":"https://restaurant.michelin.fr//4022946/la-table-da-cote-ardon"},{"name":"Maison Aribert","postalCode":"38410","chef":"Christophe Aribert","url":"https://restaurant.michelin.fr//4023881/maison-aribert-saint-martin-duriage"},{"name":"L'Évidence","postalCode":"37250","chef":"Gaëtan Evrard","url":"https://restaurant.michelin.fr//4024611/levidence-montbazon"},{"name":"Nature","postalCode":"59280","chef":"Nicolas Gautier","url":"https://restaurant.michelin.fr//4024971/nature-armentieres"},{"name":"La Terrasse","postalCode":"83700","chef":"José  Bailly","url":"https://restaurant.michelin.fr//4025851/la-terrasse-saint-raphael"},{"name":"La Source","postalCode":"42330","chef":"Antoine Bergeron","url":"https://restaurant.michelin.fr//4025941/la-source-saint-galmier"},{"name":"Lait Thym Sel","postalCode":"49000","chef":"Gaëtan Morvan","url":"https://restaurant.michelin.fr//4027706/lait-thym-sel-angers"},{"name":"L'Ours","postalCode":"94300","chef":"Jacky Ribault","url":"https://restaurant.michelin.fr//4030051/lours-vincennes"},{"name":"Racines","postalCode":"75002","chef":"Simone Tondo","url":"https://restaurant.michelin.fr//4031571/racines-paris-02"},{"name":"L'Abysse au Pavillon Ledoyen","postalCode":"75008","chef":"","url":"https://restaurant.michelin.fr//4033636/labysse-au-pavillon-ledoyen-paris-08"},{"name":"Le Royal","postalCode":"51160","chef":"","url":"https://restaurant.michelin.fr//4033846/le-royal-champillon"},{"name":"Intuition","postalCode":"50000","chef":"Mickaël Marion","url":"https://restaurant.michelin.fr//3ffxvs0j/intuition-saint-lo"},{"name":"Le Neuvième Art","postalCode":"69006","chef":"Christophe Roure","url":"https://restaurant.michelin.fr//6pz7edt2/le-neuvieme-art-lyon-06"},{"name":"Les Tables de Gaspard","postalCode":"05600","chef":"Sébastien Corniau","url":"https://restaurant.michelin.fr//2duw4bw/les-tables-de-gaspard-saint-crepin"},{"name":"Le Brouillarta","postalCode":"64500","chef":"Guillaume Roget","url":"https://restaurant.michelin.fr//2atl5nc/le-brouillarta-saint-jean-de-luz"},{"name":"Le Montgomerie","postalCode":"73120","chef":"Gatien Demczyna","url":"https://restaurant.michelin.fr//29b4lr4/le-montgomerie-courchevel-1850"},{"name":"Le Château de Sable","postalCode":"29840","chef":"","url":"https://restaurant.michelin.fr//2nnu14s6/le-chateau-de-sable-porspoder"},{"name":"Laurent","postalCode":"75008","chef":"","url":"https://restaurant.michelin.fr//2abdvpo/laurent-paris-08"},{"name":"Auberge St-Walfrid","postalCode":"57200","chef":"Stephan Schneider","url":"https://restaurant.michelin.fr//2ayc9n6/auberge-st-walfrid-sarreguemines"},{"name":"Transparence - La Table de Patrick Fréchin","postalCode":"54000","chef":"","url":"https://restaurant.michelin.fr//2jtf0iqj/transparence-la-table-de-patrick-frechin-nancy"},{"name":"Clovis","postalCode":"06140","chef":"Julien Bousseau","url":"https://restaurant.michelin.fr//2evgb1v/clovis-tourrettes-sur-loup"},{"name":"L'O des Vignes","postalCode":"71960","chef":"Sébastien Chambru","url":"https://restaurant.michelin.fr//3fa7ojh3/lo-des-vignes-fuisse"},{"name":"Allium","postalCode":"29000","chef":"Lionel Hénaff","url":"https://restaurant.michelin.fr//suqhhtor/allium-quimper"},{"name":"Le Pot d'Étain","postalCode":"90400","chef":"Philippe Zeiger","url":"https://restaurant.michelin.fr//28vc6i9/le-pot-detain-danjoutin"},{"name":"L'Hysope","postalCode":"17220","chef":"Nicolas  Durif","url":"https://restaurant.michelin.fr//hq8ezzf7/lhysope-la-jarrie"},{"name":"Les Genêts","postalCode":"85470","chef":"Nicolas Coutand","url":"https://restaurant.michelin.fr//3ws5njk2/les-genets-brem-sur-mer"},{"name":"Le St-Martin","postalCode":"25200","chef":"Olivier Prévôt-Carme","url":"https://restaurant.michelin.fr//29zciea/le-st-martin-montbeliard"},{"name":"L'Océan","postalCode":"64500","chef":"Alexandre Soulier","url":"https://restaurant.michelin.fr//szxhgy9t/locean-saint-jean-de-luz"},{"name":"Baumanière 1850","postalCode":"73120","chef":"Glenn Viel","url":"https://restaurant.michelin.fr//2f4vonu/baumaniere-1850-courchevel-1850"},{"name":"Dan B. - La Table de Ventabren","postalCode":"13122","chef":"Dan Bessoudo","url":"https://restaurant.michelin.fr//2b7at88/dan-b-la-table-de-ventabren-ventabren"},{"name":"Aida","postalCode":"75007","chef":"Koji Aida","url":"https://restaurant.michelin.fr//2dzh7q2/aida-paris-07"},{"name":"Auberge La Fenière","postalCode":"84160","chef":"Reine et Nadia Sammut","url":"https://restaurant.michelin.fr//29sgjsx279/auberge-la-feniere-cadenet"},{"name":"Christopher Coutanceau","postalCode":"17000","chef":"Christopher Coutanceau","url":"https://restaurant.michelin.fr//2apfrj5/christopher-coutanceau-la-rochelle"},{"name":"Le Manoir du Lys","postalCode":"61140","chef":"Franck Quinton","url":"https://restaurant.michelin.fr//2bfnmbt/le-manoir-du-lys-bagnoles-de-lorne-normandie"},{"name":"L'Étang du Moulin","postalCode":"25210","chef":"Jacques Barnachon","url":"https://restaurant.michelin.fr//28xqe8v/letang-du-moulin-bonnetage"},{"name":"Une Île","postalCode":"49000","chef":"Gérard Bossé","url":"https://restaurant.michelin.fr//2erjwfi/une-ile-angers"},{"name":"Le Clocher des Pères","postalCode":"73130","chef":"Pierre Troccaz","url":"https://restaurant.michelin.fr//h43i086/le-clocher-des-peres-saint-martin-sur-la-chambre"},{"name":"Qui plume la Lune","postalCode":"75011","chef":"Jacky Ribault","url":"https://restaurant.michelin.fr//jh83esx/qui-plume-la-lune-paris-11"},{"name":"La Vague d'Or - Cheval Blanc St-Tropez","postalCode":"83990","chef":"Arnaud Donckele","url":"https://restaurant.michelin.fr//2csqkr7/la-vague-dor-cheval-blanc-st-tropez-saint-tropez"},{"name":"René et Maxime Meilleur","postalCode":"73440","chef":"René et Maxime Meilleur","url":"https://restaurant.michelin.fr//2avet55/rene-et-maxime-meilleur-saint-martin-de-belleville"},{"name":"Marsan - Hélène Darroze","postalCode":"75006","chef":"Hélène Darroze","url":"https://restaurant.michelin.fr//2a93ort/marsan-helene-darroze-paris-06"},{"name":"Maison Dufossé - La Table","postalCode":"57000","chef":"Christophe Dufossé","url":"https://restaurant.michelin.fr//2dse7wh/maison-dufosse-la-table-metz"},{"name":"Flocons de Sel","postalCode":"74120","chef":"Emmanuel Renaut","url":"https://restaurant.michelin.fr//29wzk9t/flocons-de-sel-megeve"},{"name":"Likoké","postalCode":"07140","chef":"Piet Huysentruyt","url":"https://restaurant.michelin.fr//1ad26y4c/likoke-les-vans"},{"name":"Albert 1er","postalCode":"74400","chef":"Damien Leveau","url":"https://restaurant.michelin.fr//2bnvpvu/albert-1er-chamonix-mont-blanc"},{"name":"Le Champ des Lunes","postalCode":"84360","chef":"Jérôme Faure","url":"https://restaurant.michelin.fr//ua2fx9zg/le-champ-des-lunes-lauris"},{"name":"La Table du 11","postalCode":"78000","chef":"Jean-Baptiste Lavergne-Morazzani","url":"https://restaurant.michelin.fr//d4dm7ddr/la-table-du-11-versailles"},{"name":"Alliance","postalCode":"75005","chef":"Toshitaka Omiya","url":"https://restaurant.michelin.fr//t4cp5kaa/alliance-paris-05"},{"name":"Le Vieux Logis","postalCode":"24510","chef":"Vincent Arnould","url":"https://restaurant.michelin.fr//2cz3yz2/le-vieux-logis-tremolat"},{"name":"Le Grand Restaurant - Jean-François Piège","postalCode":"75008","chef":"Jean-François Piège","url":"https://restaurant.michelin.fr//u5aaw2ah/le-grand-restaurant-jean-francois-piege-paris-08"},{"name":"Pierre Reboul","postalCode":"13290","chef":"Pierre Reboul","url":"https://restaurant.michelin.fr//9pmxzh3/pierre-reboul-aix-en-provence"},{"name":"Baieta","postalCode":"75005","chef":"Julia Sedefdjian","url":"https://restaurant.michelin.fr//3750236/baieta-paris-05"},{"name":"Prima","postalCode":"74120","chef":"Nicolas Hensinger","url":"https://restaurant.michelin.fr//3492296/prima-megeve"},{"name":"La Palmeraie","postalCode":"83420","chef":"Jimmy Coutel","url":"https://restaurant.michelin.fr//2btuhm0/la-palmeraie-la-croix-valmer"},{"name":"La Palme d'Or","postalCode":"06400","chef":"Christian Sinicropi","url":"https://restaurant.michelin.fr//292bk5u/la-palme-dor-cannes"},{"name":"Automne","postalCode":"75011","chef":"Nobuyuki Akishige","url":"https://restaurant.michelin.fr//3547121/automne-paris-11"},{"name":"Le Pré - Xavier Beaudiment","postalCode":"63830","chef":"Xavier Beaudiment","url":"https://restaurant.michelin.fr//2ev16nl/le-pre-xavier-beaudiment-durtol"},{"name":"Auberge des Saints Pères","postalCode":"93600","chef":"Jean-Claude Cahagnet","url":"https://restaurant.michelin.fr//2aga7gz/auberge-des-saints-peres-aulnay-sous-bois"},{"name":"Louison","postalCode":"13610","chef":"Gérald Passedat","url":"https://restaurant.michelin.fr//3068881/louison-le-puy-sainte-reparade"},{"name":"Le Pavé d'Auge","postalCode":"14430","chef":"Jérôme Bansard","url":"https://restaurant.michelin.fr//28wgjgo/le-pave-dauge-beuvron-en-auge"},{"name":"Auberge du Cellier","postalCode":"66720","chef":"Pierre-Louis Marin","url":"https://restaurant.michelin.fr//2a02pjj/auberge-du-cellier-montner"},{"name":"Elsa","postalCode":"06190","chef":"Paolo Sari","url":"https://restaurant.michelin.fr//9p2kj2b/elsa-cap-martin"},{"name":"La Condesa","postalCode":"75009","chef":"Indra Carrillo","url":"https://restaurant.michelin.fr//3491071/la-condesa-paris-09"},{"name":"L'Aromate","postalCode":"06000","chef":"Mickaël Gracieux","url":"https://restaurant.michelin.fr//2epn29l/laromate-nice"},{"name":"Sola","postalCode":"75005","chef":"Kosuke Nabeta","url":"https://restaurant.michelin.fr//3yamflk/sola-paris-05"},{"name":"Maison Chabran - La Grande Table","postalCode":"26600","chef":"Sandrine Dupin","url":"https://restaurant.michelin.fr//2d0la2d/maison-chabran-la-grande-table-pont-de-lisere"},{"name":"Têtedoie","postalCode":"69005","chef":"Christian Têtedoie","url":"https://restaurant.michelin.fr//29tfnmd288/tetedoie-lyon-05"},{"name":"Domaine de Rochevilaine","postalCode":"56190","chef":"Maxime Nouail","url":"https://restaurant.michelin.fr//2bij0t1/domaine-de-rochevilaine-billiers"},{"name":"Mère Brazier","postalCode":"69001","chef":"Mathieu Viannay","url":"https://restaurant.michelin.fr//2et3r6g/mere-brazier-lyon"},{"name":"Alcyone","postalCode":"13002","chef":"Lionel Levy","url":"https://restaurant.michelin.fr//3f9eksg5n/alcyone-marseille-02"},{"name":"L'Épuisette","postalCode":"13007","chef":"Guillaume Sourrieu","url":"https://restaurant.michelin.fr//29w1hx9/lepuisette-marseille-07"},{"name":"Cobéa","postalCode":"75014","chef":"Philippe Bélissent","url":"https://restaurant.michelin.fr//2adr3mu/cobea-paris-14"},{"name":"Auberge Frankenbourg","postalCode":"67730","chef":"Sébastien Buecher","url":"https://restaurant.michelin.fr//29qv5p8/auberge-frankenbourg-la-vancelle"},{"name":"Une Table au Sud","postalCode":"13002","chef":"Ludovic Turac","url":"https://restaurant.michelin.fr//29w4kky/une-table-au-sud-marseille-02"},{"name":"L'Escarbille","postalCode":"92190","chef":"Régis Douysset","url":"https://restaurant.michelin.fr//2dtzs6c/lescarbille-meudon"},{"name":"La Nouvelle Auberge","postalCode":"68230","chef":"Bernard Leray","url":"https://restaurant.michelin.fr//2a2adlj/la-nouvelle-auberge-wihr-au-val"},{"name":"Les Terrasses de Lyon","postalCode":"69005","chef":"David Delsart","url":"https://restaurant.michelin.fr//29t2ib7/les-terrasses-de-lyon-lyon-05"},{"name":"La Signoria","postalCode":"20260","chef":"Alexandre Fabris","url":"https://restaurant.michelin.fr//2bs90l6/la-signoria-calvi"},{"name":"La Chaumière","postalCode":"39100","chef":"Joël Césari","url":"https://restaurant.michelin.fr//2buz227/la-chaumiere-dole"},{"name":"Alain Llorca","postalCode":"06480","chef":"Alain Llorca","url":"https://restaurant.michelin.fr//2e4vi29/alain-llorca-la-colle-sur-loup"},{"name":"Pur' - Jean-François Rouquette","postalCode":"75002","chef":"Jean-François Rouquette","url":"https://restaurant.michelin.fr//2dqiunf/pur-jean-francois-rouquette-paris-02"},{"name":"Maison Decoret","postalCode":"03200","chef":"Jacques Decoret","url":"https://restaurant.michelin.fr//2b7zqic/maison-decoret-vichy"},{"name":"Château d'Adoménil","postalCode":"54300","chef":"Cyril Leclerc","url":"https://restaurant.michelin.fr//2c5ztru/chateau-dadomenil-luneville"},{"name":"Agapé","postalCode":"75017","chef":"Benoit Dumas","url":"https://restaurant.michelin.fr//2eo1t6h/agape-paris-17"},{"name":"Les Morainières","postalCode":"73170","chef":"Michaël Arnoult","url":"https://restaurant.michelin.fr//2dd2ann/les-morainieres-jongieux"},{"name":"Le Brittany","postalCode":"29681","chef":"Loic Le Bail","url":"https://restaurant.michelin.fr//2cnbixn/le-brittany-roscoff"},{"name":"Faventia","postalCode":"83440","chef":"Philippe  Jourdin","url":"https://restaurant.michelin.fr//2dix4nq137/faventia-tourrettes"},{"name":"Domaine d'Auriac","postalCode":"11000","chef":"Philippe Deschamps","url":"https://restaurant.michelin.fr//2bmf006/domaine-dauriac-carcassonne"},{"name":"Le Moulin de Léré","postalCode":"74470","chef":"Frédéric Molina","url":"https://restaurant.michelin.fr//bca0zrw3/le-moulin-de-lere-vailly"},{"name":"Dyades au Domaine des Étangs","postalCode":"16310","chef":"Loïc Lecoin","url":"https://restaurant.michelin.fr//2f0stuh/dyades-au-domaine-des-etangs-massignac"},{"name":"Le Clos des Sens","postalCode":"74940","chef":"Laurent Petit","url":"https://restaurant.michelin.fr//28pf13h/le-clos-des-sens-annecy-le-vieux"},{"name":"Le Prince Noir - Vivien Durand","postalCode":"33310","chef":"Vivien Durand","url":"https://restaurant.michelin.fr//4g00u3j8/le-prince-noir-vivien-durand-lormont"},{"name":"Auberge des Templiers","postalCode":"45290","chef":"Martin Simonart","url":"https://restaurant.michelin.fr//2bicgcl/auberge-des-templiers-les-bezards"},{"name":"Hostellerie la Montagne","postalCode":"52330","chef":"Jean-Baptiste Natali","url":"https://restaurant.michelin.fr//298i34w/hostellerie-la-montagne-colombey-les-deux-eglises"},{"name":"Anne de Bretagne","postalCode":"44770","chef":"Mathieu Guibert","url":"https://restaurant.michelin.fr//2ciults/anne-de-bretagne-la-plaine-sur-mer"},{"name":"Le Refuge des Gourmets","postalCode":"74140","chef":"Jean-Marie et Hubert Chanove","url":"https://restaurant.michelin.fr//29uv8a7/le-refuge-des-gourmets-machilly"},{"name":"Au Vieux Couvent","postalCode":"67860","chef":"Alexis Albrecht","url":"https://restaurant.michelin.fr//2aogs9u/au-vieux-couvent-rhinau"},{"name":"La Grande Cascade","postalCode":"75016","chef":"Frédéric Robert","url":"https://restaurant.michelin.fr//2af5lql/la-grande-cascade-paris-16"},{"name":"La Coopérative","postalCode":"66720","chef":"Laurent Lemal","url":"https://restaurant.michelin.fr//3w3putu/la-cooperative-belesta"},{"name":"1217","postalCode":"69620","chef":"Jean-Alexandre Ouaratta","url":"https://restaurant.michelin.fr//2bfuk4c/1217-bagnols"},{"name":"Le Corot","postalCode":"92410","chef":"Rémi Chambard","url":"https://restaurant.michelin.fr//2aiulws5/le-corot-ville-davray"},{"name":"L'Impertinent","postalCode":"64200","chef":"Fabian Feldmann","url":"https://restaurant.michelin.fr//h2j2em3/limpertinent-biarritz"},{"name":"La Matelote","postalCode":"62200","chef":"Tony Lestienne","url":"https://restaurant.michelin.fr//28yvb9u/la-matelote-boulogne-sur-mer"},{"name":"Le Farçon","postalCode":"73125","chef":"Julien Machet","url":"https://restaurant.michelin.fr//2dczscn/le-farcon-la-tania"},{"name":"Kasbür","postalCode":"67700","chef":"Yves Kieffer","url":"https://restaurant.michelin.fr//2az3rad/kasbur-monswiller"},{"name":"Le Hittau","postalCode":"40230","chef":"Yannick Duc","url":"https://restaurant.michelin.fr//2d9288s/le-hittau-saint-vincent-de-tyrosse"},{"name":"La Mirande","postalCode":"84000","chef":"Florent Pietravalle","url":"https://restaurant.michelin.fr//2bf3czu/la-mirande-avignon"},{"name":"Le Pressoir d'Argent - Gordon Ramsay","postalCode":"33000","chef":"Gordon Ramsay et le Chef Exécutif Gilad Peled","url":"https://restaurant.michelin.fr//2epcrm9/le-pressoir-dargent-gordon-ramsay-bordeaux"},{"name":"Manoir de la Boulaie","postalCode":"44115","chef":"Laurent Saudeau","url":"https://restaurant.michelin.fr//2a3ey4n/manoir-de-la-boulaie-haute-goulaine"},{"name":"Le Saison","postalCode":"35760","chef":"David Etcheverry","url":"https://restaurant.michelin.fr//2ao631n/le-saison-saint-gregoire"},{"name":"La Maison d'à Côté","postalCode":"41350","chef":"Christophe Hay","url":"https://restaurant.michelin.fr//2dxwn73/la-maison-da-cote-montlivault"},{"name":"La Fourchette des Ducs","postalCode":"67210","chef":"Nicolas Stamm","url":"https://restaurant.michelin.fr//2a5ztne/la-fourchette-des-ducs-obernai"},{"name":"Lamartine","postalCode":"73370","chef":"Pierre Marin","url":"https://restaurant.michelin.fr//28zi7ln/lamartine-le-bourget-du-lac"},{"name":"Jérôme Nutile - Le Mas de Boudan","postalCode":"30000","chef":"Jérôme Nutile","url":"https://restaurant.michelin.fr//cne1oxue/jerome-nutile-le-mas-de-boudan-nimes"},{"name":"Aux Anges","postalCode":"42300","chef":"Marco Viganò","url":"https://restaurant.michelin.fr//3m56yu9/aux-anges-roanne"},{"name":"Le Petit Hôtel du Grand Large","postalCode":"56510","chef":"Hervé Bourdon","url":"https://restaurant.michelin.fr//2dy7rqn/le-petit-hotel-du-grand-large-portivy"},{"name":"Le Patio","postalCode":"33120","chef":"Thierry Renou","url":"https://restaurant.michelin.fr//28q4ohd/le-patio-arcachon"},{"name":"Épicure","postalCode":"75008","chef":"Eric Frechon","url":"https://restaurant.michelin.fr//2ab8pfp/epicure-paris-08"},{"name":"La Promenade","postalCode":"37350","chef":"Fabrice et Jacky Dallais","url":"https://restaurant.michelin.fr//2ajy6gr/la-promenade-le-petit-pressigny"}]